{"type":"FeatureCollection","features":[{"type":"Feature","properties":{"id":"pool152_4_upper_band","reason":"Audited false upper band within a manually delineated deep-pool interior; no inferred bottom","local_elevation_cutoff_m":32.3,"removed_cells":5712,"source_datum":"GEOID12A","route_version":"lidar2014-v2"},"geometry":{"type":"MultiPolygon","coordinates":[[[[-123.92260678888319,40.37383180639067],[-123.92260666617753,40.37382279834034],[-123.9226184443261,40.37382270450204],[-123.92261856703333,40.37383171255233],[-123.92260678888319,40.37383180639067]]],[[[-123.92260678888319,40.37383180639067],[-123.9226071570005,40.37385883054154],[-123.9225953788456,40.373858924378766],[-123.922595010733,40.3738319002278],[-123.92260678888319,40.37383180639067]]],[[[-123.92253820582633,40.37398550625176],[-123.92252642764923,40.3739856000822],[-123.92252630495358,40.37397659203192],[-123.92253808312913,40.37397649820151],[-123.92253820582633,40.37398550625176]]],[[[-123.9224009161171,40.37428389780001],[-123.92241269434643,40.37428380398178],[-123.92241281702832,40.37429281203189],[-123.92240103879743,40.37429290585015],[-123.9224009161171,40.37428389780001]]],[[[-123.92240116147781,40.374301913900254],[-123.92238938324532,40.37430200771735],[-123.92238926056649,40.3742929996672],[-123.92240103879743,40.37429290585015],[-123.92240116147781,40.374301913900254]]],[[[-123.9223895059242,40.37431101576747],[-123.92237772769006,40.37431110958339],[-123.92237760501276,40.37430210153323],[-123.92238938324532,40.37430200771735],[-123.9223895059242,40.37431101576747]]],[[[-123.92241330775643,40.3743288442321],[-123.92238975128208,40.37432903186767],[-123.9223896286031,40.37432002381757],[-123.92241318507432,40.37431983618208],[-123.92241330775643,40.3743288442321]]],[[[-123.92237821839983,40.37434714178385],[-123.9223664401594,40.374347235598684],[-123.92236631748345,40.37433822754856],[-123.92237809572232,40.37433813373376],[-123.92237821839983,40.37434714178385]]],[[[-123.92234337437024,40.374383455425374],[-123.92234325169721,40.374374447375246],[-123.92235502994245,40.3743743535627],[-123.92235515261706,40.3743833616128],[-123.92234337437024,40.374383455425374]]],[[[-123.92234386506304,40.37441948762573],[-123.92234411040975,40.37443750372582],[-123.92233233215353,40.37443759753736],[-123.9223322094817,40.374428589487295],[-123.92232043122698,40.3744286832976],[-123.92232030855676,40.37441967524749],[-123.92234386506304,40.37441948762573]]],[[[-123.92233257749734,40.37445561363746],[-123.9223443557567,40.37445551982586],[-123.92234447843023,40.374464527875865],[-123.92232092190834,40.37446471549791],[-123.92232067656754,40.37444669939779],[-123.92233245482538,40.37444660558742],[-123.92233257749734,40.37445561363746]]],[[[-123.92229650671625,40.37440184676406],[-123.92229662938324,40.37441085481426],[-123.92228485113145,40.37441094862091],[-123.92228497379693,40.374419956671126],[-123.92229675205024,40.37441986286444],[-123.92229687471732,40.37442887091462],[-123.92226153995244,40.37442915233115],[-123.92226166261491,40.374438160381395],[-123.92227344087148,40.37443806657705],[-123.92227356353554,40.37444707462727],[-123.92226178527741,40.37444716843163],[-123.92226203060255,40.374465184532056],[-123.92227380886384,40.374465090727625],[-123.92227393152804,40.37447409877779],[-123.92226215326522,40.37447419258224],[-123.92226227592795,40.374483200632426],[-123.92222694113443,40.37448348203869],[-123.92222718645066,40.37450149813919],[-123.92223896471833,40.37450140433823],[-123.9222390873781,40.374510412388425],[-123.92221553083952,40.374510599989186],[-123.92221540818291,40.374501591938945],[-123.92219185164724,40.37450177953484],[-123.92219209695429,40.37451979563546],[-123.92218031868326,40.37451988943167],[-123.92218044133531,40.37452889748198],[-123.92213332824436,40.37452927265496],[-123.92213320559857,40.37452026460452],[-123.92212142732723,40.37452035839474],[-123.92212130468309,40.37451135034425],[-123.92210952641327,40.37451144413325],[-123.92210940377072,40.374502436082736],[-123.92209762550242,40.37450252987049],[-123.9220973802206,40.37448451376935],[-123.92210915848578,40.37448441998164],[-123.92210903584339,40.37447541193109],[-123.9220972575798,40.374475505718756],[-123.92209713493902,40.374466497668145],[-123.92208535667692,40.37446659145459],[-123.92208523403778,40.37445758340393],[-123.92207345577721,40.37445767718914],[-123.92207370105243,40.37447569329049],[-123.92203836626094,40.374475974639104],[-123.922038243628,40.37446696658836],[-123.92202646536563,40.3744670603688],[-123.9220263427343,40.374458052318005],[-123.92201456447341,40.374458146097204],[-123.92201431921406,40.37444012999551],[-123.92202609747181,40.37444003621636],[-123.92202597484064,40.374431028165525],[-123.92201419658446,40.374431121944646],[-123.92201407395493,40.37442211389375],[-123.92200229570027,40.37442220767164],[-123.92200217307236,40.374413199620726],[-123.92199039481918,40.37441329339739],[-123.92199064007198,40.37443130949929],[-123.92195530530279,40.374431590822276],[-123.92195518268109,40.37442258277124],[-123.92194340442613,40.37442267654314],[-123.92194328180605,40.37441366849206],[-123.9219550600594,40.374413574720194],[-123.92195481481625,40.374395558618055],[-123.9219312583157,40.37439574616048],[-123.9219315035526,40.37441376226273],[-123.92191972529912,40.3744138560322],[-123.9219196026822,40.374404847981054],[-123.92189604617819,40.374405035516325],[-123.92189580095075,40.37438701941387],[-123.92186046620373,40.374387300707625],[-123.92186034359482,40.374378292656274],[-123.92184856534723,40.37437838641842],[-123.92184844273991,40.37436937836704],[-123.92182488624776,40.3743695658877],[-123.92182476364364,40.37436055783623],[-123.92181298539903,40.374360651594735],[-123.92181249498934,40.374324619388624],[-123.92182427322767,40.37432452563025],[-123.92182402802004,40.374306509527166],[-123.92183580625517,40.37430641576764],[-123.92183556104462,40.37428839966456],[-123.92184733927661,40.374288305903896],[-123.92184721666985,40.37427929785236],[-123.92185899490022,40.37427920409054],[-123.92185874968371,40.37426118798749],[-123.9218705279109,40.37426109422452],[-123.92187028269151,40.37424307812148],[-123.9218820609155,40.374242984357366],[-123.92188181569321,40.37422496825432],[-123.92189359391399,40.37422487448908],[-123.9218933486888,40.374206858386025],[-123.92188157047111,40.37420695215121],[-123.92188144786017,40.37419794409965],[-123.921869669644,40.374198037863614],[-123.9218694244254,40.374180021760374],[-123.92185764621229,40.37418011552306],[-123.92185752360463,40.37417110747138],[-123.92184574539303,40.37417120123286],[-123.921845622787,40.37416219318115],[-123.92183384457692,40.37416228694139],[-123.92183359936814,40.37414427083785],[-123.92182182116113,40.37414436459684],[-123.92182169855838,40.37413535654501],[-123.92180992035289,40.37413545030277],[-123.92180955254968,40.37410842614714],[-123.92179777434882,40.3741085199036],[-123.92179765174943,40.37409951185167],[-123.92178587355006,40.3740996056069],[-123.92178427978325,40.37398250093001],[-123.92179605796228,40.37398240717515],[-123.92179581276513,40.37396439107086],[-123.92180759094094,40.37396429731486],[-123.92180734574085,40.37394628121057],[-123.92181912391351,40.37394618745344],[-123.92181887871048,40.37392817134915],[-123.92183065687998,40.373928077590875],[-123.92183041167407,40.37391006148658],[-123.92184218984035,40.37390996772717],[-123.92184194463154,40.37389195162288],[-123.92185372279464,40.37389185786233],[-123.9218534775829,40.37387384175805],[-123.92186525574286,40.373873747996356],[-123.92186501052822,40.37385573189208],[-123.92187678868495,40.37385563812925],[-123.92187654346739,40.37383762202496],[-123.92188832162095,40.373837528260985],[-123.92188819901072,40.37382852020885],[-123.92189997716264,40.373828426443716],[-123.92189973193916,40.373810410339466],[-123.92191151008795,40.37381031657318],[-123.92191126486156,40.37379230046894],[-123.92193482115267,40.37379211293289],[-123.9219346985364,40.3737831048808],[-123.92195825482415,40.37378291734002],[-123.92195800958561,40.373764901235916],[-123.9219462314449,40.37376499500686],[-123.92194586359219,40.37373797085052],[-123.92195764172821,40.37373787707968],[-123.92195739649021,40.37371986097543],[-123.9219809527558,40.373719673430266],[-123.92198083013378,40.37371066537818],[-123.92199260826494,40.37371057160382],[-123.92199248564138,40.37370156355176],[-123.92198070751179,40.37370165732609],[-123.92198046226797,40.373683641221845],[-123.92199224039443,40.373683547447584],[-123.92199211777107,40.37367453939548],[-123.92202745214544,40.373674258065584],[-123.92202757477354,40.3736832661176],[-123.9220629091521,40.37368298477683],[-123.92206241862137,40.373646952569004],[-123.92203886238154,40.37364714013049],[-123.92203849449345,40.373620115974305],[-123.92205027260869,40.37362002219425],[-123.92205014997788,40.373611014142185],[-123.92206192809151,40.37361092036097],[-123.92206180545917,40.373601912308914],[-123.92207358357118,40.37360181852653],[-123.92207333830358,40.37358380242245],[-123.9220851164124,40.373583708638925],[-123.9220849937771,40.373574700586886],[-123.92209677188431,40.37357460680218],[-123.92209664924751,40.373565598750176],[-123.92210842735311,40.373565504964304],[-123.92210830471478,40.3735564969123],[-123.92212008281875,40.373556403125264],[-123.92211983753919,40.37353838702129],[-123.92213161563997,40.3735382932331],[-123.92213173828128,40.37354730128507],[-123.92214351638358,40.373547207495655],[-123.92214363902652,40.37355621554758],[-123.92217897333776,40.373555934172074],[-123.922178605395,40.37352891001652],[-123.92219038349394,40.37352881622237],[-123.92219026084491,40.373519808170535],[-123.92220203894223,40.373519714375206],[-123.9222019162917,40.37351070632337],[-123.9222136943874,40.37351061252689],[-123.92221320377953,40.373474580319524],[-123.92224853804755,40.37347429892322],[-123.92224841539101,40.37346529087143],[-123.92226019347869,40.37346519707031],[-123.92225945753134,40.37341114875946],[-123.92227123560959,40.373411054957295],[-123.9222711129503,40.37340204690546],[-123.92228289102691,40.373401953102146],[-123.92228276836613,40.373392945050334],[-123.92229454644114,40.37339285124583],[-123.92229442377885,40.37338384319403],[-123.92231797992551,40.373383655581506],[-123.92231785726017,40.37337464752975],[-123.92232963533185,40.373374553721725],[-123.92232951266499,40.37336554566998],[-123.92234129073506,40.37336545186077],[-123.9223411680667,40.37335644380905],[-123.92235294613516,40.37335634999868],[-123.92235282346526,40.373347341946975],[-123.92236460153211,40.37334724813544],[-123.92236447886074,40.37333824008373],[-123.92238803499109,40.37333805245711],[-123.92238791231664,40.37332904440547],[-123.92239969038017,40.373328950590384],[-123.9223995677042,40.37331994253875],[-123.922423123828,40.37331975490505],[-123.92242287846997,40.373301738801864],[-123.92243465652865,40.37330164498328],[-123.9224349018898,40.3733196610864],[-123.92244667995155,40.37331956726655],[-123.92244680263379,40.37332857531807],[-123.9224821368234,40.37332829385122],[-123.92248127801616,40.37326523749097],[-123.92263439268976,40.37326401767933],[-123.92263488351774,40.373300049883746],[-123.92264666157543,40.37329995604357],[-123.92264690699288,40.373317972145614],[-123.92263512893209,40.37331806598586],[-123.9226350062249,40.37330905793482],[-123.92261145010622,40.37330924561162],[-123.92261157281028,40.37331825366274],[-123.92259979474929,40.37331834749937],[-123.92260004015448,40.37333636360162],[-123.9225882620903,40.37333645743711],[-123.9225883847914,40.37334546548824],[-123.92260016285712,40.37334537165272],[-123.92260040826261,40.37336338775487],[-123.92261218633142,40.37336329391808],[-123.92261255444477,40.37339031807112],[-123.92262433251821,40.37339022423304],[-123.92262445522434,40.373399232283994],[-123.92263623329927,40.37339913844468],[-123.92263635600703,40.37340814649559],[-123.92265991215986,40.37340795881333],[-123.92266003487077,40.373416966864156],[-123.92264825679281,40.373417060705926],[-123.92264862492125,40.373444084858434],[-123.92263684683853,40.37344417869909],[-123.92263721496278,40.37347120285156],[-123.92262543687532,40.373471296691086],[-123.92262580499533,40.373498320843524],[-123.92261402690315,40.373498414681954],[-123.92261451772437,40.37353444688511],[-123.92260273962584,40.37353454072246],[-123.92260310773767,40.37356156487476],[-123.92259132963441,40.373561658711004],[-123.922591697742,40.37358868286326],[-123.92260347584998,40.37358858902693],[-123.92260372125847,40.3736066051283],[-123.92261549936948,40.373606511290724],[-123.92261574478134,40.37362452739198],[-123.92262752289544,40.373624433553125],[-123.92262764560299,40.373633441603715],[-123.92261586748732,40.37363353544259],[-123.92261611289948,40.373651551543766],[-123.92262789101828,40.37365145770483],[-123.92262801372601,40.37366046575536],[-123.9226397918463,40.37366037191521],[-123.92263991455566,40.373669379965676],[-123.92265169267746,40.37366928612428],[-123.92265193809946,40.373687302225164],[-123.92266371622432,40.37368720838251],[-123.922663838937,40.3736962164329],[-123.92265206081056,40.37369631027559],[-123.92265218352168,40.37370531832599],[-123.92267573977762,40.373705130639365],[-123.92267586249194,40.37371413868969],[-123.92266408436244,40.373714232533644],[-123.92266432978808,40.37373224863432],[-123.9226525516554,40.37373234247712],[-123.92265267436676,40.37374135052747],[-123.92264089623244,40.373741444369095],[-123.92264114165219,40.373759460469806],[-123.92265291978963,40.37375936662812],[-123.92265316521272,40.37377738272871],[-123.92260605265011,40.37377775808852],[-123.92260592994477,40.37376875003812],[-123.92257059552692,40.37376903154529],[-123.92257071822755,40.37377803959578],[-123.92254716194557,40.3737782272613],[-123.92254728464313,40.37378723531184],[-123.92253550650048,40.37378732914283],[-123.92253562919653,40.37379633719338],[-123.92252385105226,40.373796431023194],[-123.92252409644142,40.373814447124346],[-123.9225358745888,40.37381435329447],[-123.9225362426776,40.37384137744596],[-123.92254802082964,40.37384128361479],[-123.92254838892362,40.373868307766074],[-123.92256016708029,40.37386821393361],[-123.92256028977995,40.37387722198398],[-123.92254851162174,40.373877315816465],[-123.92254863431991,40.373886323866856],[-123.92253685616006,40.37388641769816],[-123.92253710155342,40.373904433798955],[-123.92254887971642,40.37390433996758],[-123.92254924781155,40.373931364118555],[-123.9225374696439,40.373931457950015],[-123.92253796043195,40.37396749015124],[-123.92252618225801,40.373967583981624],[-123.92252630495358,40.37397659203192],[-123.92251452677799,40.37397668586114],[-123.9225155083322,40.374048750263256],[-123.92250373014403,40.374048844091504],[-123.92250385283698,40.37405785214173],[-123.92249207464722,40.374057945968815],[-123.92249232003017,40.37407596206929],[-123.92246876364419,40.374076149719976],[-123.92246888633262,40.37408515777023],[-123.92245710813799,40.37408525159382],[-123.9224573535119,40.37410326769438],[-123.92246913170966,40.37410317387075],[-123.92246925439827,40.374112181920985],[-123.92245747619893,40.37411227574464],[-123.9224577215732,40.37413029184512],[-123.92244594337066,40.37413038566765],[-123.92244606605634,40.3741393937179],[-123.9224578442604,40.37413929989535],[-123.92245796694765,40.37414830794554],[-123.922446188742,40.37414840176813],[-123.92244631142776,40.374157409818345],[-123.92245808963496,40.37415731599574],[-123.92245821232233,40.374166324045916],[-123.92244643411355,40.374166417868544],[-123.92244655679943,40.37417542591874],[-123.92243477858904,40.37417551974021],[-123.9224350239578,40.37419353584061],[-123.92244680217131,40.37419344201907],[-123.92244692485731,40.37420245006923],[-123.92243514664226,40.37420254389079],[-123.92243526932678,40.37421155194097],[-123.92242349111008,40.37421164576135],[-123.92242398184246,40.37424767796197],[-123.92241220361942,40.37424777178127],[-123.92241244898283,40.374265787881555],[-123.92242422720898,40.374265694062196],[-123.92242434989228,40.37427470211228],[-123.92240079343685,40.37427488974988],[-123.92240054807647,40.37425687364956],[-123.92238876985179,40.37425696746651],[-123.92238913788773,40.37428399161705],[-123.92236558142882,40.37428417924751],[-123.92236607213167,40.37432021144827],[-123.92235429389586,40.37432030526182],[-123.92235417122164,40.374311297211634],[-123.92234239298735,40.374311391023944],[-123.92234263833275,40.37432940712439],[-123.92233086009527,40.374329500935566],[-123.92233110543776,40.374347517036014],[-123.92235466191889,40.37434732941233],[-123.92235478459337,40.37435633746246],[-123.92233122810909,40.374356525086206],[-123.9223314734519,40.37437454118656],[-123.92231969520654,40.374374634996684],[-123.9223198178765,40.374383643046876],[-123.92230803962953,40.37438373685584],[-123.92230816229792,40.37439274490605],[-123.92228460580071,40.374392932520436],[-123.92228472846605,40.37440194057067],[-123.92229650671625,40.37440184676406]],[[-123.92202585220954,40.37442202011466],[-123.92202572957851,40.37441301206379],[-123.92201395132545,40.374413105842855],[-123.92201407395493,40.37442211389375],[-123.92202585220954,40.37442202011466]],[[-123.92230791696116,40.37437472880563],[-123.9222961387157,40.374374822613355],[-123.92229626138248,40.374383830663604],[-123.92230803962953,40.37438373685584],[-123.92230791696116,40.37437472880563]],[[-123.92191800866732,40.37428774331475],[-123.9219181312835,40.3742967513661],[-123.92190635305028,40.37429684513398],[-123.92190659827972,40.374314861236684],[-123.92191837651605,40.37431476746873],[-123.92191825389973,40.374305759417425],[-123.92193003213447,40.3743056656483],[-123.92192978689889,40.37428764954569],[-123.92191800866732,40.37428774331475]],[[-123.92207038985565,40.374232475917466],[-123.92207026721945,40.37422346786641],[-123.92208204543941,40.374223374081964],[-123.92208192280175,40.374214366030934],[-123.92207014458337,40.37421445981534],[-123.92207002194735,40.374205451764254],[-123.92204646551362,40.37420563932942],[-123.92204671077947,40.374223655431685],[-123.92203493255937,40.374223749212526],[-123.92203480992798,40.374214741161374],[-123.92199947527209,40.374215022496614],[-123.92199959789878,40.37422403054784],[-123.92198781967848,40.3742241243239],[-123.92198806492894,40.37424214042641],[-123.92199984315234,40.37424204665031],[-123.92200008840616,40.3742600627527],[-123.9220354230855,40.37425978141702],[-123.9220353004539,40.374250773365915],[-123.92204707867869,40.37425067958498],[-123.92204683341248,40.3742326634828],[-123.92207038985565,40.374232475917466]],[[-123.92224644987465,40.374186028771305],[-123.92224681785295,40.37421305292327],[-123.92227037428795,40.37421286531727],[-123.92227025162533,40.374203857266686],[-123.9222820298412,40.374203763461914],[-123.92228178451299,40.374185747360784],[-123.92224644987465,40.374186028771305]],[[-123.92211664424559,40.37416904441554],[-123.92211676688765,40.37417805246657],[-123.92210498867573,40.37417814625445],[-123.92210511131628,40.37418715430549],[-123.92214044595663,40.37418687293814],[-123.92214032331137,40.37417786488719],[-123.92212854509957,40.37417795867747],[-123.9221284224559,40.374168950626476],[-123.92211664424559,40.37416904441554]],[[-123.92208081906536,40.37413329357093],[-123.92208106433974,40.37415130967326],[-123.92206928613231,40.37415140345745],[-123.92206940876804,40.374160411508626],[-123.92211652160358,40.3741600363645],[-123.92211639896162,40.374151028313456],[-123.92210462075438,40.374151122101246],[-123.92210437547377,40.37413310599905],[-123.92208081906536,40.37413329357093]],[[-123.92220988869192,40.374096229662705],[-123.92221001134607,40.37410523771361],[-123.92219823314709,40.37410533151085],[-123.92219835579971,40.37411433956176],[-123.92221013400027,40.37411424576449],[-123.92221025665452,40.37412325381535],[-123.9222455912605,40.37412297241624],[-123.92224534594267,40.374104956314675],[-123.92225712414145,40.37410486251264],[-123.92225700148104,40.37409585446184],[-123.92220988869192,40.374096229662705]],[[-123.92199788112997,40.37409791782909],[-123.92199775850403,40.37408890977765],[-123.9219859803072,40.374089003553244],[-123.92198585768287,40.37407999550176],[-123.92191518850998,40.374080558129975],[-123.92191506589513,40.374071550078284],[-123.92190328770101,40.37407164384543],[-123.92190341031431,40.37408065189715],[-123.9218916321186,40.37408074566312],[-123.92189175473038,40.374089753714856],[-123.92190353292769,40.37408965994886],[-123.92190365554112,40.37409866800053],[-123.92191543373991,40.3740985742333],[-123.92191555635493,40.37410758228495],[-123.92192733455526,40.374107488516486],[-123.9219274571719,40.37411649656808],[-123.92193923537373,40.37411640279839],[-123.92193935799202,40.37412541084994],[-123.92196291439858,40.37412522330691],[-123.9219627917772,40.37411621525542],[-123.92198634818045,40.374116027707636],[-123.92198610293154,40.374098011604715],[-123.92199788112997,40.37409791782909]],[[-123.92206781450822,40.3740433068423],[-123.92206793714324,40.37405231489365],[-123.92207971533347,40.37405222110978],[-123.92207934742382,40.37402519695579],[-123.92205579105274,40.37402538452216],[-123.92205603631953,40.37404340062495],[-123.92206781450822,40.3740433068423]],[[-123.92229123208902,40.37401450059172],[-123.92229110942449,40.37400549254089],[-123.92225577488016,40.37400577395324],[-123.92225614285985,40.37403279810598],[-123.92226792104606,40.37403270430297],[-123.92226804370763,40.37404171235382],[-123.92229160008294,40.37404152474416],[-123.92229147741826,40.37403251669336],[-123.92230325560428,40.374032422886756],[-123.92230301027195,40.37401440678518],[-123.92229123208902,40.37401450059172]],[[-123.92181985952382,40.37400023576597],[-123.92181998212577,40.374009243817994],[-123.92180820394215,40.374009337575345],[-123.92180844914303,40.37402735367944],[-123.92184378370304,40.37402707240364],[-123.92184353849281,40.37400905629972],[-123.9218317603093,40.374009150059464],[-123.92183163770584,40.37400014200746],[-123.92181985952382,40.37400023576597]],[[-123.92224362872413,40.373978843602],[-123.92224350606607,40.373969835550994],[-123.92220817153981,40.37397011694859],[-123.92220853950009,40.373997141101846],[-123.92223209586034,40.37399695350448],[-123.92223221851698,40.374005961555476],[-123.9222439966986,40.37400586775495],[-123.92224375138221,40.373987851653006],[-123.92225552956066,40.373987757851346],[-123.92225540690097,40.37397874980037],[-123.92224362872413,40.373978843602]],[[-123.92230215161042,40.373951350429245],[-123.9223020289447,40.37394234237833],[-123.92231380711505,40.37394224857083],[-123.92231368444783,40.37393324051994],[-123.92230190627905,40.37393333432741],[-123.92230178361348,40.37392432627647],[-123.92226644911153,40.37392460769162],[-123.92226657177241,40.37393361574264],[-123.92225479360344,40.37393370954532],[-123.92225528424134,40.373969741749406],[-123.92227884059177,40.37396955414261],[-123.9222787179291,40.37396054609166],[-123.92229049610266,40.373960452286504],[-123.92229037343847,40.37395144423557],[-123.92230215161042,40.373951350429245]],[[-123.92201849444449,40.37388153703693],[-123.92201861707228,40.373890545088656],[-123.92200683890997,40.373890638866],[-123.92200696153625,40.37389964691772],[-123.92201873970012,40.37389955314036],[-123.92201886232803,40.37390856119205],[-123.92205419682408,40.37390827985265],[-123.92205395155896,40.37389026374943],[-123.92204217339678,40.37389035753038],[-123.92204205076588,40.3738813494787],[-123.92201849444449,40.37388153703693]],[[-123.92218191689756,40.37377212741184],[-123.92218228484478,40.37379915156622],[-123.92219406299066,40.37379905777119],[-123.92219394033994,40.37379004971976],[-123.9222057184842,40.373789955923556],[-123.92220547317984,40.37377193982074],[-123.92218191689756,40.37377212741184]],[[-123.92214670511807,40.37378141684104],[-123.92214645982945,40.3737634007379],[-123.92213468168963,40.37376349452803],[-123.92213480433234,40.373772502579634],[-123.92212302619087,40.37377259636859],[-123.9221231488321,40.37378160442021],[-123.92209959254589,40.373781791994574],[-123.9220998378222,40.37379980809789],[-123.92213517226077,40.37379952673437],[-123.92213504961792,40.373790518682824],[-123.9221586059069,40.37379033110119],[-123.92215848326094,40.37378132304967],[-123.92214670511807,40.37378141684104]],[[-123.92226399590503,40.37374444666812],[-123.92226411856481,40.37375345471943],[-123.92224056228935,40.373753642322406],[-123.92224068494606,40.373762650373756],[-123.9222524630854,40.373762556572835],[-123.92225270840214,40.37378057267544],[-123.92226448654453,40.37378047887327],[-123.92226460920456,40.37378948692453],[-123.92227638734848,40.37378939312113],[-123.9222762646869,40.37378038506991],[-123.92228804282918,40.37378029126533],[-123.92228755217712,40.37374425906041],[-123.92226399590503,40.37374444666812]],[[-123.92211063485207,40.37372764989784],[-123.92211051221275,40.37371864184611],[-123.92208695594836,40.373718829417655],[-123.92208732385704,40.37374585357301],[-123.92211088013083,40.373745666001284],[-123.92211075749141,40.373736657949586],[-123.92212253562667,40.373736564161945],[-123.92212241298573,40.37372755611024],[-123.92211063485207,40.37372764989784]],[[-123.92214560132112,40.37370034437644],[-123.92214572396499,40.37370935242812],[-123.92213394583453,40.37370944621806],[-123.92213419111934,40.37372746232144],[-123.92214596925292,40.37372736853143],[-123.92214584660894,40.37371836047978],[-123.92215762474089,40.373718266688606],[-123.92215737944996,40.37370025058532],[-123.92214560132112,40.37370034437644]],[[-123.92235711694387,40.373662623748174],[-123.92235760763144,40.3736986559529],[-123.92236938575928,40.37369856214021],[-123.9223695084329,40.373707570191314],[-123.92239306469149,40.37370738256226],[-123.92239257398492,40.37367135035795],[-123.9223807958619,40.37367144417297],[-123.92238067318694,40.37366243612181],[-123.92235711694387,40.373662623748174]],[[-123.92249833170852,40.37365248986717],[-123.92249869978028,40.37367951401972],[-123.92252225602832,40.37367932636446],[-123.92252213333455,40.37367031831368],[-123.9225339114569,40.37367022448427],[-123.92253366606641,40.37365220838275],[-123.92249833170852,40.37365248986717]],[[-123.92227417944841,40.37362724819688],[-123.92227430210907,40.373636256248346],[-123.92226252399175,40.37363635005125],[-123.92226264665088,40.37364535810272],[-123.92227442476975,40.3736452642998],[-123.92227454743052,40.37365427235124],[-123.92228632555093,40.373654178547085],[-123.92228620288859,40.37364517049567],[-123.92229798100736,40.37364507669035],[-123.92229773567975,40.373627060587545],[-123.92227417944841,40.37362724819688]],[[-123.92235613557135,40.373590559338034],[-123.92235625824273,40.37359956738935],[-123.92234448013207,40.373599661200515],[-123.92234472547183,40.37361767730318],[-123.92239183792674,40.37361730205104],[-123.92239159257443,40.37359928594863],[-123.92240337068488,40.37359919213265],[-123.92240324800727,40.37359018408144],[-123.92235613557135,40.373590559338034]],[[-123.92230877780449,40.37357291847248],[-123.92230865513955,40.37356391042101],[-123.92229687703492,40.373564004227276],[-123.92229699969828,40.37357301227878],[-123.92227344348571,40.37357319988776],[-123.9222736888064,40.37359121599086],[-123.92225013258734,40.37359140359516],[-123.92225050055937,40.37361842774988],[-123.92228583490197,40.373618146341364],[-123.92228558957785,40.373600130238394],[-123.92232092391055,40.373599848819275],[-123.92232055591067,40.373572824665],[-123.92230877780449,40.37357291847248]],[[-123.92219087409063,40.37356484842963],[-123.92219099673994,40.37357385648141],[-123.92216744052637,40.373574044068796],[-123.92216780846525,40.373601068224225],[-123.92217958657676,40.37360097443104],[-123.92217970922471,40.373609982482776],[-123.92219148733773,40.37360988868837],[-123.92219160998732,40.37361889674008],[-123.9222151662163,40.37361870914761],[-123.92221467560577,40.37358267694093],[-123.92220289749756,40.37358277073764],[-123.92220265219576,40.373564754634174],[-123.92219087409063,40.37356484842963]],[[-123.92243784624087,40.37353585431946],[-123.92243796892285,40.37354486237066],[-123.92242619082194,40.37354495619006],[-123.92242643618295,40.373562972292454],[-123.922438214287,40.37356287847302],[-123.92243845965135,40.37358089457531],[-123.92247379397251,40.37358061310958],[-123.92247330322523,40.37354458090529],[-123.9224615251245,40.37354467472829],[-123.92246140243938,40.373535666677135],[-123.92243784624087,40.37353585431946]],[[-123.92229515975335,40.37343789150461],[-123.92228338167052,40.37343798530925],[-123.92228350433159,40.37344699336099],[-123.92227172624717,40.373447087164465],[-123.9222719715663,40.373465103267975],[-123.92228374965383,40.37346500946444],[-123.92228436296047,40.37351004972279],[-123.92230791915102,40.37350986211182],[-123.92230779648648,40.37350085406025],[-123.92231957458011,40.37350076025299],[-123.92231908391618,40.37346472804664],[-123.9223308620035,40.37346463423831],[-123.92233061666872,40.373446618135105],[-123.92234239475286,40.37344652432564],[-123.92234227208398,40.37343751627404],[-123.9223069378361,40.37343779769876],[-123.92230681517198,40.373428789647065],[-123.92229503709078,40.37342888345288],[-123.92229515975335,40.37343789150461]],[[-123.92237760633141,40.37343723483851],[-123.9223774836579,40.373428226787006],[-123.92238926173872,40.37342813297279],[-123.92238901638875,40.37341011686978],[-123.92237723831109,40.37341021068393],[-123.92237711563773,40.37340120263236],[-123.92236533756157,40.37340129644527],[-123.92236546023335,40.37341030449688],[-123.92235368215556,40.37341039830862],[-123.92235392749615,40.373428414411826],[-123.9223421494152,40.37342850822243],[-123.92234227208398,40.37343751627404],[-123.92237760633141,40.37343723483851]],[[-123.92240067178992,40.37340101500292],[-123.9224005491135,40.37339200695141],[-123.92241232718793,40.37339191313492],[-123.92241220451,40.37338290508342],[-123.92240042643715,40.373382998899864],[-123.92240018108457,40.373364982796765],[-123.92237662494496,40.37336517042596],[-123.92237674761806,40.37337417847759],[-123.9223649695466,40.37337427229042],[-123.92236521488987,40.37339228839367],[-123.92237699296444,40.373392194580795],[-123.92237711563773,40.37340120263236],[-123.92240067178992,40.37340101500292]],[[-123.92251943408573,40.37347214119302],[-123.92251931139326,40.37346313314191],[-123.9225075333068,40.373463226969434],[-123.9225072879251,40.37344521086712],[-123.9224837317583,40.37344539851843],[-123.92248360907067,40.37343639046719],[-123.92247183098874,40.37343648429103],[-123.92247195367482,40.3734454923423],[-123.92243661942403,40.37344577380669],[-123.92243674210548,40.37345478185803],[-123.92242496402021,40.373454875677126],[-123.92242508670013,40.37346388372849],[-123.92243686478699,40.37346378990936],[-123.9224369874685,40.37347279796067],[-123.92244876555685,40.37347270414032],[-123.92244888824001,40.37348171219159],[-123.92246066632985,40.373481618370015],[-123.92246091169947,40.373499634472445],[-123.92251980216354,40.37349916534624],[-123.9225196794709,40.37349015729518],[-123.92253145756196,40.37349006346637],[-123.9225312121737,40.37347204736427],[-123.92251943408573,40.37347214119302]]],[[[-123.92233171879496,40.374392557286875],[-123.92231994054647,40.374392651097054],[-123.9223198178765,40.374383643046876],[-123.92233159612341,40.37438354923673],[-123.92233171879496,40.374392557286875]]],[[[-123.92200254095627,40.37444022377347],[-123.92200241832823,40.374431215722566],[-123.92201419658446,40.374431121944646],[-123.92201431921406,40.37444012999551],[-123.92200254095627,40.37444022377347]]],[[[-123.92232043122698,40.3744286832976],[-123.92232067656754,40.37444669939779],[-123.92228534179362,40.374446980821695],[-123.92228521912799,40.37443797277151],[-123.92230877564087,40.37443778515683],[-123.92230865297216,40.37442877710671],[-123.92232043122698,40.3744286832976]]],[[[-123.92230914364731,40.37446480930714],[-123.92228558712503,40.374464996922],[-123.9222854644593,40.374455988871844],[-123.92230902097843,40.37445580125705],[-123.92230914364731,40.37446480930714]]],[[[-123.92230914364731,40.37446480930714],[-123.92232092190834,40.37446471549791],[-123.92232104457882,40.37447372354795],[-123.9223092663162,40.374473817357206],[-123.92230914364731,40.37446480930714]]],[[[-123.9223093889852,40.37448282540727],[-123.92229761072095,40.37448291921536],[-123.92229748805354,40.37447391116527],[-123.9223092663162,40.374473817357206],[-123.9223093889852,40.37448282540727]]],[[[-123.92208572459468,40.374493615606454],[-123.92207394632784,40.37449370939178],[-123.92207382369011,40.37448470134115],[-123.92208560195539,40.37448460755586],[-123.92208572459468,40.374493615606454]]],[[[-123.92226264391641,40.37451022478287],[-123.92226252125354,40.37450121673273],[-123.92227429952106,40.37450112292819],[-123.92227442218551,40.37451013097829],[-123.92226264391641,40.37451022478287]]],[[[-123.92219258756907,40.37455582783649],[-123.92219246491531,40.374546819786254],[-123.92220424319098,40.374546725988765],[-123.9222043658463,40.374555734038964],[-123.92219258756907,40.37455582783649]]]]}}]}