{"type":"FeatureCollection","features":[{"type":"Feature","geometry":{"type":"LineString","coordinates":[[-123.64402429125917,39.72873300682881],[-123.64402421595743,39.72875008845222]]},"properties":{"group":"well15_northside","point_id":24,"well":10,"original_error_m":8.26343274777725,"adjusted_error_m":1.8959020256646455,"held_out_error_m":2.9985927684669784,"label":"Well 10 residual","uid":"control-well15_northside-24"}},{"type":"Feature","geometry":{"type":"LineString","coordinates":[[-123.64391520705892,39.7283952135588],[-123.6439114476375,39.72838191612977]]},"properties":{"group":"well15_northside","point_id":75,"well":15,"original_error_m":9.204869366959842,"adjusted_error_m":1.510643083162762,"held_out_error_m":3.063759341902014,"label":"Well 15 residual","uid":"control-well15_northside-75"}},{"type":"Feature","geometry":{"type":"LineString","coordinates":[[-123.64382729344705,39.72897450824692],[-123.64383112823518,39.7289707240542]]},"properties":{"group":"well15_northside","point_id":81,"well":7,"original_error_m":5.849792296475077,"adjusted_error_m":0.5332996249785328,"held_out_error_m":1.1490535284005061,"label":"Well 7 residual","uid":"control-well15_northside-81"}},{"type":"Feature","geometry":{"type":"LineString","coordinates":[[-123.64400284861277,39.72893036556682],[-123.6440061072612,39.72894203686362]]},"properties":{"group":"well7_northside","point_id":184,"well":6,"original_error_m":1.841675951550458,"adjusted_error_m":1.325161749116525,"held_out_error_m":1.499656668941358,"label":"Well 6 residual","uid":"control-well7_northside-184"}},{"type":"Feature","geometry":{"type":"LineString","coordinates":[[-123.6441439618773,39.72895672849492],[-123.64415775536519,39.728969278497686]]},"properties":{"group":"well7_northside","point_id":186,"well":5,"original_error_m":1.8947882728714842,"adjusted_error_m":1.8269193931710248,"held_out_error_m":2.091064134126577,"label":"Well 5 residual","uid":"control-well7_northside-186"}},{"type":"Feature","geometry":{"type":"LineString","coordinates":[[-123.64436083713036,39.728977595764114],[-123.64435376008333,39.72899584339199]]},"properties":{"group":"well7_northside","point_id":188,"well":14,"original_error_m":2.53908832563199,"adjusted_error_m":2.1141628675996307,"held_out_error_m":2.4044991279005976,"label":"Well 14 residual","uid":"control-well7_northside-188"}},{"type":"Feature","geometry":{"type":"LineString","coordinates":[[-123.64428999196743,39.729131186251315],[-123.64427896246441,39.72911776088792]]},"properties":{"group":"well7_northside","point_id":202,"well":13,"original_error_m":1.8038595696491528,"adjusted_error_m":1.7646026758272004,"held_out_error_m":1.9957583752418249,"label":"Well 13 residual","uid":"control-well7_northside-202"}},{"type":"Feature","geometry":{"type":"LineString","coordinates":[[-123.64416756421333,39.729150750513156],[-123.64417641304753,39.729153048924545]]},"properties":{"group":"well7_northside","point_id":208,"well":2,"original_error_m":0.7444246975380433,"adjusted_error_m":0.8001010965290857,"held_out_error_m":0.8890379246378194,"label":"Well 2 residual","uid":"control-well7_northside-208"}},{"type":"Feature","geometry":{"type":"LineString","coordinates":[[-123.64404073048989,39.7291383362819],[-123.64403647928567,39.72913409478873]]},"properties":{"group":"well7_northside","point_id":219,"well":3,"original_error_m":0.7578516671244201,"adjusted_error_m":0.5952778443302011,"held_out_error_m":0.6699212814835664,"label":"Well 3 residual","uid":"control-well7_northside-219"}},{"type":"Feature","geometry":{"type":"LineString","coordinates":[[-123.64434915598557,39.72936717231551],[-123.64435815657858,39.72936109705621]]},"properties":{"group":"well7_northside","point_id":267,"well":11,"original_error_m":0.5091182423992083,"adjusted_error_m":1.024516496100541,"held_out_error_m":1.345618318077909,"label":"Well 11 residual","uid":"control-well7_northside-267"}},{"type":"Feature","geometry":{"type":"LineString","coordinates":[[-123.64429333556734,39.72938728854057],[-123.6442855127443,39.72939235812847]]},"properties":{"group":"well7_northside","point_id":268,"well":12,"original_error_m":1.059908201341151,"adjusted_error_m":0.8752396907084543,"held_out_error_m":1.1352536332611909,"label":"Well 12 residual","uid":"control-well7_northside-268"}},{"type":"Feature","geometry":{"type":"LineString","coordinates":[[-123.64420633780718,39.7294528791002],[-123.64420922996595,39.72943135889356]]},"properties":{"group":"well7_northside","point_id":272,"well":1,"original_error_m":2.0400460678415113,"adjusted_error_m":2.4013532369394732,"held_out_error_m":2.6995169084312534,"label":"Well 1 residual","uid":"control-well7_northside-272"}},{"type":"Feature","geometry":{"type":"LineString","coordinates":[[-123.64383874136892,39.72897529866118],[-123.64383112823518,39.7289707240542]]},"properties":{"group":"well7_northside","point_id":81,"well":7,"original_error_m":1.223320909246858,"adjusted_error_m":0.8267318891198647,"held_out_error_m":0.9200363104806845,"label":"Well 7 residual","uid":"control-well7_northside-81"}}]}