{"type":"FeatureCollection","features":[{"type":"Feature","properties":{"Id":0,"label":"Archived creek-bed footprint 1","source_file":"Maps/Rivendell GIS/Rivendell_ElderCreekBed.shp","location_note":"Historical GIS layer retained as supplied; current field status not checked.","uid":"creek-1"},"geometry":{"type":"Polygon","coordinates":[[[-123.64801845231003,39.72858116187226],[-123.64794662747524,39.728557461836054],[-123.64787324590762,39.728524323069834],[-123.6477667026234,39.72855058228317],[-123.64766915960104,39.72856290489472],[-123.64761569322597,39.728587726868696],[-123.64754488563378,39.72863223765463],[-123.64744835541913,39.72865966978852],[-123.64739264942246,39.728695284697565],[-123.64732017969888,39.72872093901682],[-123.64722762098495,39.72876396625656],[-123.64713965741862,39.72867689574182],[-123.64715792786924,39.72867591120644],[-123.64719827666704,39.728654698930264],[-123.64723054158743,39.72863452765393],[-123.64729149518108,39.7286093536549],[-123.64735119805849,39.728569886237096],[-123.6474123524229,39.72855306008305],[-123.64747053013602,39.728535231212334],[-123.64756358524484,39.72850358454731],[-123.6476098632966,39.728466998756815],[-123.64763178938007,39.72841285873837],[-123.64763735781592,39.72838201703764],[-123.64759500684639,39.72834999372378],[-123.647639242215,39.72833516325612],[-123.64772913494225,39.72832827158462],[-123.6478687065609,39.7283598502283],[-123.64795214461247,39.7284258364243],[-123.64801845231003,39.72858116187226]]]}},{"type":"Feature","properties":{"Id":0,"label":"Archived creek-bed footprint 2","source_file":"Maps/Rivendell GIS/Rivendell_ElderCreekBed.shp","location_note":"Historical GIS layer retained as supplied; current field status not checked.","uid":"creek-2"},"geometry":{"type":"Polygon","coordinates":[[[-123.64713965741862,39.72867689574182],[-123.64722762098495,39.72876396625656],[-123.64718444043883,39.72878476649189],[-123.6471387398663,39.728815133864344],[-123.64707663631201,39.72884009477401],[-123.64704170383713,39.728866652914405],[-123.6469910138837,39.72888161400747],[-123.6469392051445,39.72891374791218],[-123.64689991872385,39.72894155552768],[-123.64685919408065,39.728978091102974],[-123.64680994562617,39.72902157166811],[-123.64674375869609,39.729057524878236],[-123.64668356331728,39.72910291059279],[-123.6466411200324,39.729143105275966],[-123.646573408996,39.72916313652825],[-123.64650384996744,39.729194012471154],[-123.64645441944955,39.72924254170115],[-123.64642360700189,39.72924592769912],[-123.64638214080136,39.72926677087851],[-123.64630761456544,39.729336559880345],[-123.64622960886301,39.729355030656045],[-123.64617529807872,39.72937004015524],[-123.64612490303841,39.72938533413514],[-123.64607411508953,39.72920357518614],[-123.64613896360102,39.72917241997029],[-123.64621605404709,39.72915287456639],[-123.64627250962087,39.729123220855996],[-123.64633601425948,39.72909875218255],[-123.64639278426894,39.72908828534855],[-123.64641689735569,39.72907085518889],[-123.64646163789563,39.729033341617345],[-123.64651989415977,39.72899716906505],[-123.64656526882112,39.72898643925618],[-123.64660875807337,39.72894850942961],[-123.64668205628767,39.72893172817195],[-123.64673888817698,39.72890977252392],[-123.64679147803857,39.72887288048953],[-123.64682176770134,39.72885120555671],[-123.64686036609945,39.728817963001056],[-123.6469127516188,39.72878442881979],[-123.64698990556643,39.72874658749703],[-123.64703292089871,39.72872565214755],[-123.64708707931881,39.72870885417692],[-123.64713965741862,39.72867689574182]]]}},{"type":"Feature","properties":{"Id":0,"label":"Archived creek-bed footprint 3","source_file":"Maps/Rivendell GIS/Rivendell_ElderCreekBed.shp","location_note":"Historical GIS layer retained as supplied; current field status not checked.","uid":"creek-3"},"geometry":{"type":"Polygon","coordinates":[[[-123.64607411508953,39.72920357518614],[-123.64612490303841,39.72938533413514],[-123.64610572589837,39.729403461006086],[-123.646055196683,39.729421822383976],[-123.64597297114491,39.72944079574626],[-123.6458920786891,39.7294484477954],[-123.64582930096242,39.72944664054173],[-123.645745384293,39.72944664124345],[-123.64564683099299,39.72942717883845],[-123.64556500842065,39.729412215727535],[-123.64548047075485,39.7294091227653],[-123.64539673953352,39.72938395878928],[-123.64529221340749,39.729368856423626],[-123.64518135053598,39.72934394711174],[-123.64512415126161,39.729352451667836],[-123.64503931882203,39.729349510978494],[-123.64494010346304,39.72934687536785],[-123.64492293578398,39.729284604119606],[-123.64498043391261,39.72926574613025],[-123.64503934045482,39.72925622330874],[-123.6451019101593,39.729241907804145],[-123.64515466308131,39.729205005154704],[-123.64523644749161,39.729215906990014],[-123.64528801941796,39.72926039022589],[-123.64536544410282,39.729284368789635],[-123.64547053851919,39.729292253404886],[-123.64557595018346,39.72931617979988],[-123.64565027245527,39.72930143785778],[-123.64573817244624,39.72927985865063],[-123.64579867452213,39.72927001970414],[-123.64584350398071,39.72924480119713],[-123.64594846873939,39.729224135692355],[-123.64599490769375,39.729213367735426],[-123.64607411508953,39.72920357518614]]]}},{"type":"Feature","properties":{"Id":0,"label":"Archived creek-bed footprint 4","source_file":"Maps/Rivendell GIS/Rivendell_ElderCreekBed.shp","location_note":"Historical GIS layer retained as supplied; current field status not checked.","uid":"creek-4"},"geometry":{"type":"Polygon","coordinates":[[[-123.64492293578398,39.729284604119606],[-123.64494010346304,39.72934687536785],[-123.64491634267969,39.729351151976516],[-123.64489082051168,39.72936750987008],[-123.64485300246409,39.72939116354013],[-123.64479215063689,39.72939976054744],[-123.64471326303742,39.72942218699876],[-123.64464840756905,39.72943470352583],[-123.64457999960779,39.729435097310144],[-123.6445323100698,39.72945726178619],[-123.64451200339744,39.72949069411753],[-123.64446182715179,39.72951512488792],[-123.64443434189576,39.72954422609973],[-123.64442287379903,39.72956582681416],[-123.64437648149094,39.729596343360775],[-123.64433799670354,39.72961768330066],[-123.64426433622009,39.729651077496115],[-123.64419786902988,39.7296720548606],[-123.6441478973291,39.7296966413645],[-123.64408651065777,39.72972964010137],[-123.64405234133973,39.72974020762185],[-123.64402808213622,39.72977619711877],[-123.64399539387585,39.729813159749064],[-123.64395858929777,39.72983231114253],[-123.64386434925498,39.72973684229381],[-123.64388293321214,39.72972215834225],[-123.6439171315007,39.72968202636899],[-123.64395455486454,39.7296696483342],[-123.64395898346282,39.72965125982661],[-123.64398003635878,39.72962888280561],[-123.64400890067422,39.7296133387431],[-123.64403370116649,39.729591833172705],[-123.64406865265954,39.72957370611089],[-123.64410773036309,39.72955729954739],[-123.64415468038847,39.72953183331288],[-123.64417886611109,39.729514458481944],[-123.64421242837422,39.729494879989176],[-123.6442420507085,39.72947309092376],[-123.64427310380022,39.7294609428304],[-123.64431672439004,39.729444546992504],[-123.64435162749061,39.72943336970964],[-123.64437550910354,39.729422589630126],[-123.64440903288303,39.7294123218741],[-123.6444397491045,39.7294075689956],[-123.64447969660156,39.72940218631046],[-123.64450916830064,39.729390132589],[-123.64452275611424,39.72936721442146],[-123.64454789582066,39.72935008168279],[-123.64457233323313,39.72932529094841],[-123.64460975640161,39.729319775685234],[-123.64464776289361,39.72930775727856],[-123.64468066001461,39.72929701256236],[-123.64471376686082,39.72929537322774],[-123.64474693459847,39.729278696825354],[-123.64477018825423,39.72926963620878],[-123.64480205909987,39.72925989363306],[-123.6448337853337,39.72927134283238],[-123.64488419517826,39.72928630727091],[-123.64492293578398,39.729284604119606]]]}},{"type":"Feature","properties":{"Id":0,"label":"Archived creek-bed footprint 5","source_file":"Maps/Rivendell GIS/Rivendell_ElderCreekBed.shp","location_note":"Historical GIS layer retained as supplied; current field status not checked.","uid":"creek-5"},"geometry":{"type":"Polygon","coordinates":[[[-123.64395858929777,39.72983231114253],[-123.64390515730379,39.7298518293491],[-123.64386579386043,39.72989226700645],[-123.64381120822883,39.729920777279865],[-123.64376474158726,39.72996860260867],[-123.64372037911114,39.73001535020723],[-123.64364407217315,39.73004784512072],[-123.64360214138809,39.73009312792139],[-123.64355815903843,39.73014236562897],[-123.64346005662259,39.730180916692774],[-123.64339032013464,39.73021089083425],[-123.64331657418163,39.730235812690445],[-123.64320111556047,39.73027317691452],[-123.64313432772819,39.73028940570811],[-123.64305026284258,39.730283602156526],[-123.64299451686803,39.730313013074124],[-123.64289411501493,39.730336927659266],[-123.64279658457741,39.730360817864174],[-123.64278399542792,39.730259830797834],[-123.64285336081882,39.73023242944574],[-123.6429318860944,39.73021139414881],[-123.64302226793403,39.73018178114897],[-123.64313552691101,39.73014274279852],[-123.64322251805632,39.73010692131132],[-123.64330545132876,39.730066320548346],[-123.64336839738421,39.73002477152507],[-123.64343389562912,39.729968577031364],[-123.64350857144494,39.72990781420776],[-123.64355249586482,39.72986967922563],[-123.6436119937607,39.72981655984486],[-123.64367799499267,39.72977460504405],[-123.64372458521963,39.72976534107449],[-123.64378273517396,39.72974431223989],[-123.64383194265677,39.72974242915643],[-123.64386434925498,39.72973684229381],[-123.64395858929777,39.72983231114253]]]}}]}