{"type":"FeatureCollection","features":[{"type":"Feature","properties":{"Id":1,"Name":"L3_1","HasRadio":0,"PakBus":16,"Latitude":39.7287311993,"Longitude":-123.643993707,"label":"L3_1","source_file":"Maps/Rivendell GIS/Rivendell_DataLoggers.shp","location_note":"Historical GIS layer retained as supplied; current field status not checked.","uid":"loggers-1"},"geometry":{"type":"Point","coordinates":[-123.643995977149,39.728733811940984]}},{"type":"Feature","properties":{"Id":1,"Name":"L3_2","HasRadio":1,"PakBus":17,"Latitude":39.7287127366,"Longitude":-123.643992985,"label":"L3_2","source_file":"Maps/Rivendell GIS/Rivendell_DataLoggers.shp","location_note":"Historical GIS layer retained as supplied; current field status not checked.","uid":"loggers-2"},"geometry":{"type":"Point","coordinates":[-123.64399525570094,39.728715349419765]}},{"type":"Feature","properties":{"Id":1,"Name":"L4_1","HasRadio":1,"PakBus":18,"Latitude":39.7289688188,"Longitude":-123.643805889,"label":"L4_1","source_file":"Maps/Rivendell GIS/Rivendell_DataLoggers.shp","location_note":"Historical GIS layer retained as supplied; current field status not checked.","uid":"loggers-3"},"geometry":{"type":"Point","coordinates":[-123.64380815828297,39.72897142995856]}},{"type":"Feature","properties":{"Id":1,"Name":"L2_1","HasRadio":0,"PakBus":14,"Latitude":39.7291614519,"Longitude":-123.644126894,"label":"L2_1","source_file":"Maps/Rivendell GIS/Rivendell_DataLoggers.shp","location_note":"Historical GIS layer retained as supplied; current field status not checked.","uid":"loggers-4"},"geometry":{"type":"Point","coordinates":[-123.64412916003995,39.729164060512865]}},{"type":"Feature","properties":{"Id":1,"Name":"WSIC","HasRadio":1,"PakBus":11,"Latitude":39.7289205255,"Longitude":-123.644195493,"label":"WSIC","source_file":"Maps/Rivendell GIS/Rivendell_DataLoggers.shp","location_note":"Historical GIS layer retained as supplied; current field status not checked.","uid":"loggers-5"},"geometry":{"type":"Point","coordinates":[-123.6441977607097,39.72892313592837]}},{"type":"Feature","properties":{"Id":1,"Name":"L1_1","HasRadio":0,"PakBus":12,"Latitude":39.7294346603,"Longitude":-123.64417894,"label":"L1_1","source_file":"Maps/Rivendell GIS/Rivendell_DataLoggers.shp","location_note":"Historical GIS layer retained as supplied; current field status not checked.","uid":"loggers-6"},"geometry":{"type":"Point","coordinates":[-123.64418120396641,39.72943726652366]}},{"type":"Feature","properties":{"Id":1,"Name":"L1_2","HasRadio":1,"PakBus":13,"Latitude":39.7294351729,"Longitude":-123.644154831,"label":"L1_2","source_file":"Maps/Rivendell GIS/Rivendell_DataLoggers.shp","location_note":"Historical GIS layer retained as supplied; current field status not checked.","uid":"loggers-7"},"geometry":{"type":"Point","coordinates":[-123.64415709483582,39.72943777915323]}},{"type":"Feature","properties":{"Id":1,"Name":"L2_3","HasRadio":1,"PakBus":21,"Latitude":39.7290713035,"Longitude":-123.644323138,"label":"L2_3","source_file":"Maps/Rivendell GIS/Rivendell_DataLoggers.shp","location_note":"Historical GIS layer retained as supplied; current field status not checked.","uid":"loggers-8"},"geometry":{"type":"Point","coordinates":[-123.6443254044309,39.72907391232266]}},{"type":"Feature","properties":{"Id":1,"Name":"L5_1","HasRadio":1,"PakBus":22,"Latitude":39.7283628122,"Longitude":-123.643899081,"label":"L5_1","source_file":"Maps/Rivendell GIS/Rivendell_DataLoggers.shp","location_note":"Historical GIS layer retained as supplied; current field status not checked.","uid":"loggers-9"},"geometry":{"type":"Point","coordinates":[-123.64390135533424,39.72836542811253]}},{"type":"Feature","properties":{"Id":1,"Name":"L2_2","HasRadio":1,"PakBus":15,"Latitude":39.7291416749,"Longitude":-123.644126624,"label":"L2_2","source_file":"Maps/Rivendell GIS/Rivendell_DataLoggers.shp","location_note":"Historical GIS layer retained as supplied; current field status not checked.","uid":"loggers-10"},"geometry":{"type":"Point","coordinates":[-123.64412889037492,39.72914428373951]}},{"type":"Feature","properties":{"Id":0,"Name":"Sap1","HasRadio":0,"PakBus":0,"Latitude":39.7291932852,"Longitude":-123.644110815,"label":"Sap1","source_file":"Maps/Rivendell GIS/Rivendell_DataLoggers.shp","location_note":"Historical GIS layer retained as supplied; current field status not checked.","uid":"loggers-11"},"geometry":{"type":"Point","coordinates":[-123.64411308160282,39.72919589367683]}},{"type":"Feature","properties":{"Id":0,"Name":"WSUR","HasRadio":1,"PakBus":20,"Latitude":39.7286409146,"Longitude":-123.643972626,"label":"WSUR","source_file":"Maps/Rivendell GIS/Rivendell_DataLoggers.shp","location_note":"Historical GIS layer retained as supplied; current field status not checked.","uid":"loggers-12"},"geometry":{"type":"Point","coordinates":[-123.64397489737702,39.72864352802899]}},{"type":"Feature","properties":{"Id":0,"Name":"Sap2","HasRadio":0,"PakBus":0,"Latitude":39.7283663525,"Longitude":-123.643880676,"label":"Sap2","source_file":"Maps/Rivendell GIS/Rivendell_DataLoggers.shp","location_note":"Historical GIS layer retained as supplied; current field status not checked.","uid":"loggers-13"},"geometry":{"type":"Point","coordinates":[-123.64388295041101,39.72836896846006]}},{"type":"Feature","properties":{"Id":1,"Name":"Level 6_1","HasRadio":1,"PakBus":27,"Latitude":39.7278898278,"Longitude":-123.643527737,"label":"Level 6_1","source_file":"Maps/Rivendell GIS/Rivendell_DataLoggers.shp","location_note":"Historical GIS layer retained as supplied; current field status not checked.","uid":"loggers-14"},"geometry":{"type":"Point","coordinates":[-123.64353001678806,39.72789244873668]}},{"type":"Feature","properties":{"Id":1,"Name":"L3_3","HasRadio":1,"PakBus":31,"Latitude":39.7286326376,"Longitude":-123.644055753,"label":"L3_3","source_file":"Maps/Rivendell GIS/Rivendell_DataLoggers.shp","location_note":"Historical GIS layer retained as supplied; current field status not checked.","uid":"loggers-15"},"geometry":{"type":"Point","coordinates":[-123.64405802424706,39.72863525083765]}},{"type":"Feature","properties":{"Id":1,"Name":"VMS","HasRadio":1,"PakBus":23,"Latitude":0.0,"Longitude":0.0,"label":"VMS","source_file":"Maps/Rivendell GIS/Rivendell_DataLoggers.shp","location_note":"Historical GIS layer retained as supplied; current field status not checked.","uid":"loggers-16"},"geometry":{"type":"Point","coordinates":[-123.64383984737992,39.72878118013747]}}]}