{"type":"FeatureCollection","features":[{"type":"Feature","properties":{"id":1,"notes":null,"label":"Injection port 1","source_file":"Maps/VMS Vicinity Tree and Injection Port Survey/injection ports.shp","location_note":"Historical source geometry retained; no new georeferencing control.","uid":"ports-1"},"geometry":{"type":"Point","coordinates":[-123.64372534982324,39.7288178326913]}},{"type":"Feature","properties":{"id":2,"notes":null,"label":"Injection port 2","source_file":"Maps/VMS Vicinity Tree and Injection Port Survey/injection ports.shp","location_note":"Historical source geometry retained; no new georeferencing control.","uid":"ports-2"},"geometry":{"type":"Point","coordinates":[-123.64373793720678,39.728826134568]}},{"type":"Feature","properties":{"id":3,"notes":null,"label":"Injection port 3","source_file":"Maps/VMS Vicinity Tree and Injection Port Survey/injection ports.shp","location_note":"Historical source geometry retained; no new georeferencing control.","uid":"ports-3"},"geometry":{"type":"Point","coordinates":[-123.64375647814732,39.7288244217599]}},{"type":"Feature","properties":{"id":4,"notes":null,"label":"Injection port 4","source_file":"Maps/VMS Vicinity Tree and Injection Port Survey/injection ports.shp","location_note":"Historical source geometry retained; no new georeferencing control.","uid":"ports-4"},"geometry":{"type":"Point","coordinates":[-123.64376222619836,39.72881473020514]}},{"type":"Feature","properties":{"id":5,"notes":null,"label":"Injection port 5","source_file":"Maps/VMS Vicinity Tree and Injection Port Survey/injection ports.shp","location_note":"Historical source geometry retained; no new georeferencing control.","uid":"ports-5"},"geometry":{"type":"Point","coordinates":[-123.64378044245808,39.728748579366645]}},{"type":"Feature","properties":{"id":6,"notes":null,"label":"Injection port 6","source_file":"Maps/VMS Vicinity Tree and Injection Port Survey/injection ports.shp","location_note":"Historical source geometry retained; no new georeferencing control.","uid":"ports-6"},"geometry":{"type":"Point","coordinates":[-123.64376357382898,39.72882173958786]}},{"type":"Feature","properties":{"id":7,"notes":null,"label":"Injection port 7","source_file":"Maps/VMS Vicinity Tree and Injection Port Survey/injection ports.shp","location_note":"Historical source geometry retained; no new georeferencing control.","uid":"ports-7"},"geometry":{"type":"Point","coordinates":[-123.64377698718872,39.72883092713595]}},{"type":"Feature","properties":{"id":8,"notes":null,"label":"Injection port 8","source_file":"Maps/VMS Vicinity Tree and Injection Port Survey/injection ports.shp","location_note":"Historical source geometry retained; no new georeferencing control.","uid":"ports-8"},"geometry":{"type":"Point","coordinates":[-123.64378432178681,39.72873576751268]}},{"type":"Feature","properties":{"id":9,"notes":null,"label":"Injection port 9","source_file":"Maps/VMS Vicinity Tree and Injection Port Survey/injection ports.shp","location_note":"Historical source geometry retained; no new georeferencing control.","uid":"ports-9"},"geometry":{"type":"Point","coordinates":[-123.64381148437695,39.72872707755049]}},{"type":"Feature","properties":{"id":10,"notes":null,"label":"Injection port 10","source_file":"Maps/VMS Vicinity Tree and Injection Port Survey/injection ports.shp","location_note":"Historical source geometry retained; no new georeferencing control.","uid":"ports-10"},"geometry":{"type":"Point","coordinates":[-123.643812347605,39.72881996318148]}},{"type":"Feature","properties":{"id":11,"notes":null,"label":"Injection port 11","source_file":"Maps/VMS Vicinity Tree and Injection Port Survey/injection ports.shp","location_note":"Historical source geometry retained; no new georeferencing control.","uid":"ports-11"},"geometry":{"type":"Point","coordinates":[-123.64379746571844,39.72884399731833]}},{"type":"Feature","properties":{"id":12,"notes":null,"label":"Injection port 12","source_file":"Maps/VMS Vicinity Tree and Injection Port Survey/injection ports.shp","location_note":"Historical source geometry retained; no new georeferencing control.","uid":"ports-12"},"geometry":{"type":"Point","coordinates":[-123.64388827320745,39.72883391282258]}},{"type":"Feature","properties":{"id":13,"notes":null,"label":"Injection port 13","source_file":"Maps/VMS Vicinity Tree and Injection Port Survey/injection ports.shp","location_note":"Historical source geometry retained; no new georeferencing control.","uid":"ports-13"},"geometry":{"type":"Point","coordinates":[-123.64388838420075,39.728816833699035]}},{"type":"Feature","properties":{"id":14,"notes":null,"label":"Injection port 14","source_file":"Maps/VMS Vicinity Tree and Injection Port Survey/injection ports.shp","location_note":"Historical source geometry retained; no new georeferencing control.","uid":"ports-14"},"geometry":{"type":"Point","coordinates":[-123.64384428651688,39.72872981138628]}},{"type":"Feature","properties":{"id":15,"notes":null,"label":"Injection port 15","source_file":"Maps/VMS Vicinity Tree and Injection Port Survey/injection ports.shp","location_note":"Historical source geometry retained; no new georeferencing control.","uid":"ports-15"},"geometry":{"type":"Point","coordinates":[-123.6438511551482,39.72875640774625]}},{"type":"Feature","properties":{"id":16,"notes":null,"label":"Injection port 16","source_file":"Maps/VMS Vicinity Tree and Injection Port Survey/injection ports.shp","location_note":"Historical source geometry retained; no new georeferencing control.","uid":"ports-16"},"geometry":{"type":"Point","coordinates":[-123.64403998116425,39.72877192375602]}},{"type":"Feature","properties":{"id":17,"notes":null,"label":"Injection port 17","source_file":"Maps/VMS Vicinity Tree and Injection Port Survey/injection ports.shp","location_note":"Historical source geometry retained; no new georeferencing control.","uid":"ports-17"},"geometry":{"type":"Point","coordinates":[-123.64408032152718,39.72875135269162]}},{"type":"Feature","properties":{"id":18,"notes":null,"label":"Injection port 18","source_file":"Maps/VMS Vicinity Tree and Injection Port Survey/injection ports.shp","location_note":"Historical source geometry retained; no new georeferencing control.","uid":"ports-18"},"geometry":{"type":"Point","coordinates":[-123.644130889775,39.72881375485515]}},{"type":"Feature","properties":{"id":19,"notes":null,"label":"Injection port 19","source_file":"Maps/VMS Vicinity Tree and Injection Port Survey/injection ports.shp","location_note":"Historical source geometry retained; no new georeferencing control.","uid":"ports-19"},"geometry":{"type":"Point","coordinates":[-123.64414896781203,39.72882260919365]}},{"type":"Feature","properties":{"id":20,"notes":null,"label":"Injection port 20","source_file":"Maps/VMS Vicinity Tree and Injection Port Survey/injection ports.shp","location_note":"Historical source geometry retained; no new georeferencing control.","uid":"ports-20"},"geometry":{"type":"Point","coordinates":[-123.64408527142703,39.72881061147622]}},{"type":"Feature","properties":{"id":21,"notes":null,"label":"Injection port 21","source_file":"Maps/VMS Vicinity Tree and Injection Port Survey/injection ports.shp","location_note":"Historical source geometry retained; no new georeferencing control.","uid":"ports-21"},"geometry":{"type":"Point","coordinates":[-123.64423455159988,39.72882306039985]}},{"type":"Feature","properties":{"id":22,"notes":null,"label":"Injection port 22","source_file":"Maps/VMS Vicinity Tree and Injection Port Survey/injection ports.shp","location_note":"Historical source geometry retained; no new georeferencing control.","uid":"ports-22"},"geometry":{"type":"Point","coordinates":[-123.64419291485402,39.72881804226116]}},{"type":"Feature","properties":{"id":23,"notes":null,"label":"Injection port 23","source_file":"Maps/VMS Vicinity Tree and Injection Port Survey/injection ports.shp","location_note":"Historical source geometry retained; no new georeferencing control.","uid":"ports-23"},"geometry":{"type":"Point","coordinates":[-123.64422551870025,39.7287977903779]}},{"type":"Feature","properties":{"id":24,"notes":null,"label":"Injection port 24","source_file":"Maps/VMS Vicinity Tree and Injection Port Survey/injection ports.shp","location_note":"Historical source geometry retained; no new georeferencing control.","uid":"ports-24"},"geometry":{"type":"Point","coordinates":[-123.64400542093698,39.728824641121804]}},{"type":"Feature","properties":{"id":25,"notes":null,"label":"Injection port 25","source_file":"Maps/VMS Vicinity Tree and Injection Port Survey/injection ports.shp","location_note":"Historical source geometry retained; no new georeferencing control.","uid":"ports-25"},"geometry":{"type":"Point","coordinates":[-123.64403265610753,39.72882912169798]}},{"type":"Feature","properties":{"id":26,"notes":null,"label":"Injection port 26","source_file":"Maps/VMS Vicinity Tree and Injection Port Survey/injection ports.shp","location_note":"Historical source geometry retained; no new georeferencing control.","uid":"ports-26"},"geometry":{"type":"Point","coordinates":[-123.64400132647118,39.72885739480287]}},{"type":"Feature","properties":{"id":27,"notes":null,"label":"Injection port 27","source_file":"Maps/VMS Vicinity Tree and Injection Port Survey/injection ports.shp","location_note":"Historical source geometry retained; no new georeferencing control.","uid":"ports-27"},"geometry":{"type":"Point","coordinates":[-123.64400957764906,39.728841601094594]}},{"type":"Feature","properties":{"id":28,"notes":null,"label":"Injection port 28","source_file":"Maps/VMS Vicinity Tree and Injection Port Survey/injection ports.shp","location_note":"Historical source geometry retained; no new georeferencing control.","uid":"ports-28"},"geometry":{"type":"Point","coordinates":[-123.64405275365084,39.728840126320605]}},{"type":"Feature","properties":{"id":29,"notes":null,"label":"Injection port 29","source_file":"Maps/VMS Vicinity Tree and Injection Port Survey/injection ports.shp","location_note":"Historical source geometry retained; no new georeferencing control.","uid":"ports-29"},"geometry":{"type":"Point","coordinates":[-123.64409995145786,39.72884109946648]}},{"type":"Feature","properties":{"id":30,"notes":null,"label":"Injection port 30","source_file":"Maps/VMS Vicinity Tree and Injection Port Survey/injection ports.shp","location_note":"Historical source geometry retained; no new georeferencing control.","uid":"ports-30"},"geometry":{"type":"Point","coordinates":[-123.64412240238575,39.72884715049172]}},{"type":"Feature","properties":{"id":31,"notes":null,"label":"Injection port 31","source_file":"Maps/VMS Vicinity Tree and Injection Port Survey/injection ports.shp","location_note":"Historical source geometry retained; no new georeferencing control.","uid":"ports-31"},"geometry":{"type":"Point","coordinates":[-123.64416516782136,39.728801522042616]}},{"type":"Feature","properties":{"id":32,"notes":null,"label":"Injection port 32","source_file":"Maps/VMS Vicinity Tree and Injection Port Survey/injection ports.shp","location_note":"Historical source geometry retained; no new georeferencing control.","uid":"ports-32"},"geometry":{"type":"Point","coordinates":[-123.6441001139078,39.7287725488262]}},{"type":"Feature","properties":{"id":33,"notes":null,"label":"Injection port 33","source_file":"Maps/VMS Vicinity Tree and Injection Port Survey/injection ports.shp","location_note":"Historical source geometry retained; no new georeferencing control.","uid":"ports-33"},"geometry":{"type":"Point","coordinates":[-123.64409624712667,39.72878677429051]}},{"type":"Feature","properties":{"id":34,"notes":null,"label":"Injection port 34","source_file":"Maps/VMS Vicinity Tree and Injection Port Survey/injection ports.shp","location_note":"Historical source geometry retained; no new georeferencing control.","uid":"ports-34"},"geometry":{"type":"Point","coordinates":[-123.64405405464505,39.72880800570833]}},{"type":"Feature","properties":{"id":35,"notes":null,"label":"Injection port 35","source_file":"Maps/VMS Vicinity Tree and Injection Port Survey/injection ports.shp","location_note":"Historical source geometry retained; no new georeferencing control.","uid":"ports-35"},"geometry":{"type":"Point","coordinates":[-123.64407909231353,39.7287911924712]}},{"type":"Feature","properties":{"id":36,"notes":null,"label":"Injection port 36","source_file":"Maps/VMS Vicinity Tree and Injection Port Survey/injection ports.shp","location_note":"Historical source geometry retained; no new georeferencing control.","uid":"ports-36"},"geometry":{"type":"Point","coordinates":[-123.64400704146615,39.72878387282341]}},{"type":"Feature","properties":{"id":37,"notes":null,"label":"Injection port 37","source_file":"Maps/VMS Vicinity Tree and Injection Port Survey/injection ports.shp","location_note":"Historical source geometry retained; no new georeferencing control.","uid":"ports-37"},"geometry":{"type":"Point","coordinates":[-123.6439964541386,39.72880647271488]}},{"type":"Feature","properties":{"id":38,"notes":null,"label":"Injection port 38","source_file":"Maps/VMS Vicinity Tree and Injection Port Survey/injection ports.shp","location_note":"Historical source geometry retained; no new georeferencing control.","uid":"ports-38"},"geometry":{"type":"Point","coordinates":[-123.64397160106122,39.7288001262142]}},{"type":"Feature","properties":{"id":39,"notes":null,"label":"Injection port 39","source_file":"Maps/VMS Vicinity Tree and Injection Port Survey/injection ports.shp","location_note":"Historical source geometry retained; no new georeferencing control.","uid":"ports-39"},"geometry":{"type":"Point","coordinates":[-123.64397225639553,39.72882760422923]}},{"type":"Feature","properties":{"id":40,"notes":null,"label":"Injection port 40","source_file":"Maps/VMS Vicinity Tree and Injection Port Survey/injection ports.shp","location_note":"Historical source geometry retained; no new georeferencing control.","uid":"ports-40"},"geometry":{"type":"Point","coordinates":[-123.64394279700126,39.72884197172151]}},{"type":"Feature","properties":{"id":41,"notes":null,"label":"Injection port 41","source_file":"Maps/VMS Vicinity Tree and Injection Port Survey/injection ports.shp","location_note":"Historical source geometry retained; no new georeferencing control.","uid":"ports-41"},"geometry":{"type":"Point","coordinates":[-123.64392410002807,39.72885257408985]}},{"type":"Feature","properties":{"id":42,"notes":null,"label":"Injection port 42","source_file":"Maps/VMS Vicinity Tree and Injection Port Survey/injection ports.shp","location_note":"Historical source geometry retained; no new georeferencing control.","uid":"ports-42"},"geometry":{"type":"Point","coordinates":[-123.64392316536906,39.72883806649422]}},{"type":"Feature","properties":{"id":43,"notes":null,"label":"Injection port 43","source_file":"Maps/VMS Vicinity Tree and Injection Port Survey/injection ports.shp","location_note":"Historical source geometry retained; no new georeferencing control.","uid":"ports-43"},"geometry":{"type":"Point","coordinates":[-123.6440485472542,39.72886083810293]}},{"type":"Feature","properties":{"id":44,"notes":null,"label":"Injection port 44","source_file":"Maps/VMS Vicinity Tree and Injection Port Survey/injection ports.shp","location_note":"Historical source geometry retained; no new georeferencing control.","uid":"ports-44"},"geometry":{"type":"Point","coordinates":[-123.6439250270286,39.72882323459786]}},{"type":"Feature","properties":{"id":45,"notes":null,"label":"Injection port 45","source_file":"Maps/VMS Vicinity Tree and Injection Port Survey/injection ports.shp","location_note":"Historical source geometry retained; no new georeferencing control.","uid":"ports-45"},"geometry":{"type":"Point","coordinates":[-123.64387330711028,39.72880900882203]}},{"type":"Feature","properties":{"id":46,"notes":null,"label":"Injection port 46","source_file":"Maps/VMS Vicinity Tree and Injection Port Survey/injection ports.shp","location_note":"Historical source geometry retained; no new georeferencing control.","uid":"ports-46"},"geometry":{"type":"Point","coordinates":[-123.64380571709046,39.728851378296]}},{"type":"Feature","properties":{"id":47,"notes":null,"label":"Injection port 47","source_file":"Maps/VMS Vicinity Tree and Injection Port Survey/injection ports.shp","location_note":"Historical source geometry retained; no new georeferencing control.","uid":"ports-47"},"geometry":{"type":"Point","coordinates":[-123.64395811601518,39.72885516435772]}},{"type":"Feature","properties":{"id":48,"notes":null,"label":"Injection port 48","source_file":"Maps/VMS Vicinity Tree and Injection Port Survey/injection ports.shp","location_note":"Historical source geometry retained; no new georeferencing control.","uid":"ports-48"},"geometry":{"type":"Point","coordinates":[-123.64389422371592,39.728845215480966]}},{"type":"Feature","properties":{"id":49,"notes":null,"label":"Injection port 49","source_file":"Maps/VMS Vicinity Tree and Injection Port Survey/injection ports.shp","location_note":"Historical source geometry retained; no new georeferencing control.","uid":"ports-49"},"geometry":{"type":"Point","coordinates":[-123.64385153562279,39.72884579394806]}},{"type":"Feature","properties":{"id":50,"notes":null,"label":"Injection port 50","source_file":"Maps/VMS Vicinity Tree and Injection Port Survey/injection ports.shp","location_note":"Historical source geometry retained; no new georeferencing control.","uid":"ports-50"},"geometry":{"type":"Point","coordinates":[-123.64397017380341,39.72875563075556]}},{"type":"Feature","properties":{"id":51,"notes":null,"label":"Injection port 51","source_file":"Maps/VMS Vicinity Tree and Injection Port Survey/injection ports.shp","location_note":"Historical source geometry retained; no new georeferencing control.","uid":"ports-51"},"geometry":{"type":"Point","coordinates":[-123.64394276024552,39.728760055540214]}},{"type":"Feature","properties":{"id":52,"notes":null,"label":"Injection port 52","source_file":"Maps/VMS Vicinity Tree and Injection Port Survey/injection ports.shp","location_note":"Historical source geometry retained; no new georeferencing control.","uid":"ports-52"},"geometry":{"type":"Point","coordinates":[-123.64397344089285,39.72876366491894]}},{"type":"Feature","properties":{"id":53,"notes":null,"label":"Injection port 53","source_file":"Maps/VMS Vicinity Tree and Injection Port Survey/injection ports.shp","location_note":"Historical source geometry retained; no new georeferencing control.","uid":"ports-53"},"geometry":{"type":"Point","coordinates":[-123.6439533735546,39.72875703865382]}},{"type":"Feature","properties":{"id":54,"notes":null,"label":"Injection port 54","source_file":"Maps/VMS Vicinity Tree and Injection Port Survey/injection ports.shp","location_note":"Historical source geometry retained; no new georeferencing control.","uid":"ports-54"},"geometry":{"type":"Point","coordinates":[-123.64397968740857,39.7287716825466]}},{"type":"Feature","properties":{"id":55,"notes":null,"label":"Injection port 55","source_file":"Maps/VMS Vicinity Tree and Injection Port Survey/injection ports.shp","location_note":"Historical source geometry retained; no new georeferencing control.","uid":"ports-55"},"geometry":{"type":"Point","coordinates":[-123.6439822086359,39.72879105979561]}},{"type":"Feature","properties":{"id":56,"notes":null,"label":"Injection port 56","source_file":"Maps/VMS Vicinity Tree and Injection Port Survey/injection ports.shp","location_note":"Historical source geometry retained; no new georeferencing control.","uid":"ports-56"},"geometry":{"type":"Point","coordinates":[-123.64395728825532,39.72876605521894]}},{"type":"Feature","properties":{"id":57,"notes":null,"label":"Injection port 57","source_file":"Maps/VMS Vicinity Tree and Injection Port Survey/injection ports.shp","location_note":"Historical source geometry retained; no new georeferencing control.","uid":"ports-57"},"geometry":{"type":"Point","coordinates":[-123.64395992453287,39.72877491454633]}},{"type":"Feature","properties":{"id":58,"notes":null,"label":"Injection port 58","source_file":"Maps/VMS Vicinity Tree and Injection Port Survey/injection ports.shp","location_note":"Historical source geometry retained; no new georeferencing control.","uid":"ports-58"},"geometry":{"type":"Point","coordinates":[-123.64398063032539,39.72878153726688]}},{"type":"Feature","properties":{"id":59,"notes":null,"label":"Injection port 59","source_file":"Maps/VMS Vicinity Tree and Injection Port Survey/injection ports.shp","location_note":"Historical source geometry retained; no new georeferencing control.","uid":"ports-59"},"geometry":{"type":"Point","coordinates":[-123.6439662596434,39.72879246297132]}},{"type":"Feature","properties":{"id":60,"notes":null,"label":"Injection port 60","source_file":"Maps/VMS Vicinity Tree and Injection Port Survey/injection ports.shp","location_note":"Historical source geometry retained; no new georeferencing control.","uid":"ports-60"},"geometry":{"type":"Point","coordinates":[-123.64395499871605,39.72879449745764]}},{"type":"Feature","properties":{"id":61,"notes":null,"label":"Injection port 61","source_file":"Maps/VMS Vicinity Tree and Injection Port Survey/injection ports.shp","location_note":"Historical source geometry retained; no new georeferencing control.","uid":"ports-61"},"geometry":{"type":"Point","coordinates":[-123.64393924879138,39.72879442053185]}},{"type":"Feature","properties":{"id":62,"notes":null,"label":"Injection port 62","source_file":"Maps/VMS Vicinity Tree and Injection Port Survey/injection ports.shp","location_note":"Historical source geometry retained; no new georeferencing control.","uid":"ports-62"},"geometry":{"type":"Point","coordinates":[-123.6439642972929,39.72878244392389]}},{"type":"Feature","properties":{"id":63,"notes":null,"label":"Injection port 63","source_file":"Maps/VMS Vicinity Tree and Injection Port Survey/injection ports.shp","location_note":"Historical source geometry retained; no new georeferencing control.","uid":"ports-63"},"geometry":{"type":"Point","coordinates":[-123.64394465200553,39.728767837681296]}},{"type":"Feature","properties":{"id":64,"notes":null,"label":"Injection port 64","source_file":"Maps/VMS Vicinity Tree and Injection Port Survey/injection ports.shp","location_note":"Historical source geometry retained; no new georeferencing control.","uid":"ports-64"},"geometry":{"type":"Point","coordinates":[-123.64395136854692,39.72878576311005]}},{"type":"Feature","properties":{"id":65,"notes":null,"label":"Injection port 65","source_file":"Maps/VMS Vicinity Tree and Injection Port Survey/injection ports.shp","location_note":"Historical source geometry retained; no new georeferencing control.","uid":"ports-65"},"geometry":{"type":"Point","coordinates":[-123.64393550572436,39.72878009610198]}},{"type":"Feature","properties":{"id":66,"notes":null,"label":"Injection port 66","source_file":"Maps/VMS Vicinity Tree and Injection Port Survey/injection ports.shp","location_note":"Historical source geometry retained; no new georeferencing control.","uid":"ports-66"},"geometry":{"type":"Point","coordinates":[-123.64394768852488,39.72877863333073]}},{"type":"Feature","properties":{"id":67,"notes":null,"label":"Injection port 67","source_file":"Maps/VMS Vicinity Tree and Injection Port Survey/injection ports.shp","location_note":"Historical source geometry retained; no new georeferencing control.","uid":"ports-67"},"geometry":{"type":"Point","coordinates":[-123.64393940672991,39.72878670146981]}},{"type":"Feature","properties":{"id":68,"notes":null,"label":"Injection port 68","source_file":"Maps/VMS Vicinity Tree and Injection Port Survey/injection ports.shp","location_note":"Historical source geometry retained; no new georeferencing control.","uid":"ports-68"},"geometry":{"type":"Point","coordinates":[-123.64393292414383,39.7287696467179]}},{"type":"Feature","properties":{"id":69,"notes":null,"label":"Injection port 69","source_file":"Maps/VMS Vicinity Tree and Injection Port Survey/injection ports.shp","location_note":"Historical source geometry retained; no new georeferencing control.","uid":"ports-69"},"geometry":{"type":"Point","coordinates":[-123.64392029937508,39.728772158311365]}},{"type":"Feature","properties":{"id":70,"notes":null,"label":"Injection port 70","source_file":"Maps/VMS Vicinity Tree and Injection Port Survey/injection ports.shp","location_note":"Historical source geometry retained; no new georeferencing control.","uid":"ports-70"},"geometry":{"type":"Point","coordinates":[-123.6439239923614,39.72878068318107]}},{"type":"Feature","properties":{"id":71,"notes":null,"label":"Injection port 71","source_file":"Maps/VMS Vicinity Tree and Injection Port Survey/injection ports.shp","location_note":"Historical source geometry retained; no new georeferencing control.","uid":"ports-71"},"geometry":{"type":"Point","coordinates":[-123.64390781130385,39.728765077410046]}},{"type":"Feature","properties":{"id":72,"notes":null,"label":"Injection port 72","source_file":"Maps/VMS Vicinity Tree and Injection Port Survey/injection ports.shp","location_note":"Historical source geometry retained; no new georeferencing control.","uid":"ports-72"},"geometry":{"type":"Point","coordinates":[-123.64392812569723,39.72878798484068]}},{"type":"Feature","properties":{"id":73,"notes":null,"label":"Injection port 73","source_file":"Maps/VMS Vicinity Tree and Injection Port Survey/injection ports.shp","location_note":"Historical source geometry retained; no new georeferencing control.","uid":"ports-73"},"geometry":{"type":"Point","coordinates":[-123.64391193242369,39.72878217729415]}},{"type":"Feature","properties":{"id":74,"notes":null,"label":"Injection port 74","source_file":"Maps/VMS Vicinity Tree and Injection Port Survey/injection ports.shp","location_note":"Historical source geometry retained; no new georeferencing control.","uid":"ports-74"},"geometry":{"type":"Point","coordinates":[-123.64391053705317,39.72879876469327]}},{"type":"Feature","properties":{"id":75,"notes":null,"label":"Injection port 75","source_file":"Maps/VMS Vicinity Tree and Injection Port Survey/injection ports.shp","location_note":"Historical source geometry retained; no new georeferencing control.","uid":"ports-75"},"geometry":{"type":"Point","coordinates":[-123.6438837629073,39.72879993881494]}},{"type":"Feature","properties":{"id":76,"notes":null,"label":"Injection port 76","source_file":"Maps/VMS Vicinity Tree and Injection Port Survey/injection ports.shp","location_note":"Historical source geometry retained; no new georeferencing control.","uid":"ports-76"},"geometry":{"type":"Point","coordinates":[-123.64387048333325,39.728800183428376]}},{"type":"Feature","properties":{"id":77,"notes":null,"label":"Injection port 77","source_file":"Maps/VMS Vicinity Tree and Injection Port Survey/injection ports.shp","location_note":"Historical source geometry retained; no new georeferencing control.","uid":"ports-77"},"geometry":{"type":"Point","coordinates":[-123.6439008743228,39.7287832642047]}},{"type":"Feature","properties":{"id":78,"notes":null,"label":"Injection port 78","source_file":"Maps/VMS Vicinity Tree and Injection Port Survey/injection ports.shp","location_note":"Historical source geometry retained; no new georeferencing control.","uid":"ports-78"},"geometry":{"type":"Point","coordinates":[-123.64389407593444,39.72879013890199]}},{"type":"Feature","properties":{"id":79,"notes":null,"label":"Injection port 79","source_file":"Maps/VMS Vicinity Tree and Injection Port Survey/injection ports.shp","location_note":"Historical source geometry retained; no new georeferencing control.","uid":"ports-79"},"geometry":{"type":"Point","coordinates":[-123.64390035695263,39.72877523363427]}},{"type":"Feature","properties":{"id":80,"notes":null,"label":"Injection port 80","source_file":"Maps/VMS Vicinity Tree and Injection Port Survey/injection ports.shp","location_note":"Historical source geometry retained; no new georeferencing control.","uid":"ports-80"},"geometry":{"type":"Point","coordinates":[-123.64388079953949,39.72879072534754]}},{"type":"Feature","properties":{"id":81,"notes":null,"label":"Injection port 81","source_file":"Maps/VMS Vicinity Tree and Injection Port Survey/injection ports.shp","location_note":"Historical source geometry retained; no new georeferencing control.","uid":"ports-81"},"geometry":{"type":"Point","coordinates":[-123.64389747247776,39.72879832441956]}},{"type":"Feature","properties":{"id":82,"notes":null,"label":"Injection port 82","source_file":"Maps/VMS Vicinity Tree and Injection Port Survey/injection ports.shp","location_note":"Historical source geometry retained; no new georeferencing control.","uid":"ports-82"},"geometry":{"type":"Point","coordinates":[-123.6438949650595,39.72876671734083]}},{"type":"Feature","properties":{"id":83,"notes":null,"label":"Injection port 83","source_file":"Maps/VMS Vicinity Tree and Injection Port Survey/injection ports.shp","location_note":"Historical source geometry retained; no new georeferencing control.","uid":"ports-83"},"geometry":{"type":"Point","coordinates":[-123.6438832492573,39.728768491596576]}},{"type":"Feature","properties":{"id":84,"notes":null,"label":"Injection port 84","source_file":"Maps/VMS Vicinity Tree and Injection Port Survey/injection ports.shp","location_note":"Historical source geometry retained; no new georeferencing control.","uid":"ports-84"},"geometry":{"type":"Point","coordinates":[-123.6438719698055,39.72876957973268]}},{"type":"Feature","properties":{"id":85,"notes":null,"label":"Injection port 85","source_file":"Maps/VMS Vicinity Tree and Injection Port Survey/injection ports.shp","location_note":"Historical source geometry retained; no new georeferencing control.","uid":"ports-85"},"geometry":{"type":"Point","coordinates":[-123.64388952338247,39.72877666114634]}},{"type":"Feature","properties":{"id":86,"notes":null,"label":"Injection port 86","source_file":"Maps/VMS Vicinity Tree and Injection Port Survey/injection ports.shp","location_note":"Historical source geometry retained; no new georeferencing control.","uid":"ports-86"},"geometry":{"type":"Point","coordinates":[-123.643904476333,39.728789739339014]}},{"type":"Feature","properties":{"id":87,"notes":null,"label":"Injection port 87","source_file":"Maps/VMS Vicinity Tree and Injection Port Survey/injection ports.shp","location_note":"Historical source geometry retained; no new georeferencing control.","uid":"ports-87"},"geometry":{"type":"Point","coordinates":[-123.64387714669759,39.728778780917395]}},{"type":"Feature","properties":{"id":88,"notes":null,"label":"Injection port 88","source_file":"Maps/VMS Vicinity Tree and Injection Port Survey/injection ports.shp","location_note":"Historical source geometry retained; no new georeferencing control.","uid":"ports-88"},"geometry":{"type":"Point","coordinates":[-123.64384898408044,39.72877346761281]}},{"type":"Feature","properties":{"id":89,"notes":null,"label":"Injection port 89","source_file":"Maps/VMS Vicinity Tree and Injection Port Survey/injection ports.shp","location_note":"Historical source geometry retained; no new georeferencing control.","uid":"ports-89"},"geometry":{"type":"Point","coordinates":[-123.64384079085633,39.72877317122665]}},{"type":"Feature","properties":{"id":90,"notes":null,"label":"Injection port 90","source_file":"Maps/VMS Vicinity Tree and Injection Port Survey/injection ports.shp","location_note":"Historical source geometry retained; no new georeferencing control.","uid":"ports-90"},"geometry":{"type":"Point","coordinates":[-123.64385764805303,39.728800596499234]}},{"type":"Feature","properties":{"id":91,"notes":null,"label":"Injection port 91","source_file":"Maps/VMS Vicinity Tree and Injection Port Survey/injection ports.shp","location_note":"Historical source geometry retained; no new georeferencing control.","uid":"ports-91"},"geometry":{"type":"Point","coordinates":[-123.6438423826582,39.72880153582569]}},{"type":"Feature","properties":{"id":92,"notes":null,"label":"Injection port 92","source_file":"Maps/VMS Vicinity Tree and Injection Port Survey/injection ports.shp","location_note":"Historical source geometry retained; no new georeferencing control.","uid":"ports-92"},"geometry":{"type":"Point","coordinates":[-123.64387742682686,39.72878510356152]}},{"type":"Feature","properties":{"id":93,"notes":null,"label":"Injection port 93","source_file":"Maps/VMS Vicinity Tree and Injection Port Survey/injection ports.shp","location_note":"Historical source geometry retained; no new georeferencing control.","uid":"ports-93"},"geometry":{"type":"Point","coordinates":[-123.64386057384272,39.728781949517106]}},{"type":"Feature","properties":{"id":94,"notes":null,"label":"Injection port 94","source_file":"Maps/VMS Vicinity Tree and Injection Port Survey/injection ports.shp","location_note":"Historical source geometry retained; no new georeferencing control.","uid":"ports-94"},"geometry":{"type":"Point","coordinates":[-123.64388959010314,39.72878383959611]}},{"type":"Feature","properties":{"id":95,"notes":null,"label":"Injection port 95","source_file":"Maps/VMS Vicinity Tree and Injection Port Survey/injection ports.shp","location_note":"Historical source geometry retained; no new georeferencing control.","uid":"ports-95"},"geometry":{"type":"Point","coordinates":[-123.64385893700604,39.72877255776399]}},{"type":"Feature","properties":{"id":96,"notes":null,"label":"Injection port 96","source_file":"Maps/VMS Vicinity Tree and Injection Port Survey/injection ports.shp","location_note":"Historical source geometry retained; no new georeferencing control.","uid":"ports-96"},"geometry":{"type":"Point","coordinates":[-123.64381307049202,39.72872016758307]}},{"type":"Feature","properties":{"id":97,"notes":null,"label":"Injection port 97","source_file":"Maps/VMS Vicinity Tree and Injection Port Survey/injection ports.shp","location_note":"Historical source geometry retained; no new georeferencing control.","uid":"ports-97"},"geometry":{"type":"Point","coordinates":[-123.6438367440856,39.72871883975758]}},{"type":"Feature","properties":{"id":98,"notes":null,"label":"Injection port 98","source_file":"Maps/VMS Vicinity Tree and Injection Port Survey/injection ports.shp","location_note":"Historical source geometry retained; no new georeferencing control.","uid":"ports-98"},"geometry":{"type":"Point","coordinates":[-123.64388539501516,39.72873737146925]}},{"type":"Feature","properties":{"id":99,"notes":null,"label":"Injection port 99","source_file":"Maps/VMS Vicinity Tree and Injection Port Survey/injection ports.shp","location_note":"Historical source geometry retained; no new georeferencing control.","uid":"ports-99"},"geometry":{"type":"Point","coordinates":[-123.64391487143756,39.72874113915566]}},{"type":"Feature","properties":{"id":100,"notes":null,"label":"Injection port 100","source_file":"Maps/VMS Vicinity Tree and Injection Port Survey/injection ports.shp","location_note":"Historical source geometry retained; no new georeferencing control.","uid":"ports-100"},"geometry":{"type":"Point","coordinates":[-123.64393041695183,39.72874652246381]}}]}