{"type":"FeatureCollection","features":[{"type":"Feature","properties":{"Y":0.0,"X":0.0,"NODE":0,"Z":null,"DATE_":"1899-12-30 00:00:00","TYPE":"Solar Power System","NAME":"Treebeard","Level":0,"label":"Treebeard","source_file":"Maps/Rivendell GIS/Rivendell_PowerBoxes.shp","location_note":"Historical GIS layer retained as supplied; current field status not checked.","uid":"power-1"},"geometry":{"type":"Point","coordinates":[-123.64385050581048,39.72917800276907]}},{"type":"Feature","properties":{"Y":0.0,"X":0.0,"NODE":0,"Z":null,"DATE_":"1899-12-30 00:00:00","TYPE":"Solar Power System","NAME":"Ilean","Level":2,"label":"Ilean","source_file":"Maps/Rivendell GIS/Rivendell_PowerBoxes.shp","location_note":"Historical GIS layer retained as supplied; current field status not checked.","uid":"power-2"},"geometry":{"type":"Point","coordinates":[-123.64412067523698,39.72918456346392]}},{"type":"Feature","properties":{"Y":0.0,"X":0.0,"NODE":0,"Z":null,"DATE_":"1899-12-30 00:00:00","TYPE":"Solar Power System","NAME":"Ingrid","Level":4,"label":"Ingrid","source_file":"Maps/Rivendell GIS/Rivendell_PowerBoxes.shp","location_note":"Historical GIS layer retained as supplied; current field status not checked.","uid":"power-3"},"geometry":{"type":"Point","coordinates":[-123.64414701952676,39.728919015733446]}},{"type":"Feature","properties":{"Y":0.0,"X":0.0,"NODE":0,"Z":null,"DATE_":"1899-12-30 00:00:00","TYPE":"Solar Power System","NAME":"Ursula","Level":3,"label":"Ursula","source_file":"Maps/Rivendell GIS/Rivendell_PowerBoxes.shp","location_note":"Historical GIS layer retained as supplied; current field status not checked.","uid":"power-4"},"geometry":{"type":"Point","coordinates":[-123.64400115142286,39.72865757911834]}},{"type":"Feature","properties":{"Y":0.0,"X":0.0,"NODE":0,"Z":null,"DATE_":"1899-12-30 00:00:00","TYPE":"Solar Power System","NAME":"L1 JunctionBox","Level":1,"label":"L1 JunctionBox","source_file":"Maps/Rivendell GIS/Rivendell_PowerBoxes.shp","location_note":"Historical GIS layer retained as supplied; current field status not checked.","uid":"power-5"},"geometry":{"type":"Point","coordinates":[-123.6441760467877,39.729456891651644]}},{"type":"Feature","properties":{"Y":0.0,"X":0.0,"NODE":0,"Z":null,"DATE_":"1899-12-30 00:00:00","TYPE":null,"NAME":"SouthSide Junction Box","Level":5,"label":"SouthSide Junction Box","source_file":"Maps/Rivendell GIS/Rivendell_PowerBoxes.shp","location_note":"Historical GIS layer retained as supplied; current field status not checked.","uid":"power-6"},"geometry":{"type":"Point","coordinates":[-123.6438388268557,39.72824627774659]}},{"type":"Feature","properties":{"Y":0.0,"X":0.0,"NODE":0,"Z":null,"DATE_":"1899-12-30 00:00:00","TYPE":null,"NAME":"Brandywine","Level":1,"label":"Brandywine","source_file":"Maps/Rivendell GIS/Rivendell_PowerBoxes.shp","location_note":"Historical GIS layer retained as supplied; current field status not checked.","uid":"power-7"},"geometry":{"type":"Point","coordinates":[-123.64431352605344,39.729737130767305]}},{"type":"Feature","properties":{"Y":0.0,"X":0.0,"NODE":0,"Z":null,"DATE_":"1899-12-30 00:00:00","TYPE":"SolarSystem","NAME":"SouthSide","Level":5,"label":"SouthSide","source_file":"Maps/Rivendell GIS/Rivendell_PowerBoxes.shp","location_note":"Historical GIS layer retained as supplied; current field status not checked.","uid":"power-8"},"geometry":{"type":"Point","coordinates":[-123.64339116444621,39.72817794805265]}}]}