{"type":"FeatureCollection","features":[{"type":"Feature","properties":{"Comment":"Treebeard","Max_PDOP":5.7,"Max_HDOP":4.2,"GPS_Date":"2008-03-13 00:00:00","GPS_Time":"08:49:21am","Datafile":"RIVENDELL031307.cor","GPS_Height":439.094,"Vert_Prec":1.3,"Horz_Prec":1.2,"Std_Dev":3.149134,"Northing":4397897.959,"Easting":444823.277,"Point_ID":1,"Category":"Rigged Trees","Height_m":65.0,"DEM":431.368,"CAN":483.084,"lat":39.7291822252,"long":-123.643863617,"Power":0,"label":"Treebeard","source_file":"Maps/Rivendell GIS/Rivendell_RiggedTrees.shp","location_note":"Historical GIS layer retained as supplied; current field status not checked.","uid":"rigged-1"},"geometry":{"type":"Point","coordinates":[-123.64386588402175,39.7291848344441]}},{"type":"Feature","properties":{"Comment":"Flattop","Max_PDOP":13.0,"Max_HDOP":4.6,"GPS_Date":"2008-03-13 00:00:00","GPS_Time":"11:29:46am","Datafile":"RIVENDELL031307.cor","GPS_Height":413.963,"Vert_Prec":2.7,"Horz_Prec":1.7,"Std_Dev":3.086645,"Northing":4397921.052,"Easting":444801.079,"Point_ID":30,"Category":"Rigged Trees","Height_m":50.0,"DEM":402.73,"CAN":436.869,"lat":39.7294060792,"long":-123.644144868,"Power":0,"label":"Flattop","source_file":"Maps/Rivendell GIS/Rivendell_RiggedTrees.shp","location_note":"Historical GIS layer retained as supplied; current field status not checked.","uid":"rigged-2"},"geometry":{"type":"Point","coordinates":[-123.64414713192814,39.7294086857555]}},{"type":"Feature","properties":{"Comment":"Ursula","Max_PDOP":3.7,"Max_HDOP":2.2,"GPS_Date":"2008-03-12 00:00:00","GPS_Time":"02:48:26pm","Datafile":"RIVENDELL031212A.cor","GPS_Height":465.074,"Vert_Prec":1.5,"Horz_Prec":1.1,"Std_Dev":3.485563,"Northing":4397838.791,"Easting":444813.68,"Point_ID":51,"Category":"Rigged Trees","Height_m":44.0,"DEM":459.054,"CAN":502.322,"lat":39.7286485243,"long":-123.643970642,"Power":1,"label":"Ursula","source_file":"Maps/Rivendell GIS/Rivendell_RiggedTrees.shp","location_note":"Historical GIS layer retained as supplied; current field status not checked.","uid":"rigged-3"},"geometry":{"type":"Point","coordinates":[-123.64397291384766,39.72865113762546]}},{"type":"Feature","properties":{"Comment":"Ingrid","Max_PDOP":7.7,"Max_HDOP":3.3,"GPS_Date":"2008-03-12 00:00:00","GPS_Time":"03:02:16pm","Datafile":"RIVENDELL031212A.cor","GPS_Height":445.508,"Vert_Prec":1.7,"Horz_Prec":1.3,"Std_Dev":1.261587,"Northing":4397870.222,"Easting":444794.805,"Point_ID":52,"Category":"Rigged Trees","Height_m":44.0,"DEM":440.967,"CAN":477.555,"lat":39.7289304827,"long":-123.644193518,"Power":1,"label":"Ingrid","source_file":"Maps/Rivendell GIS/Rivendell_RiggedTrees.shp","location_note":"Historical GIS layer retained as supplied; current field status not checked.","uid":"rigged-4"},"geometry":{"type":"Point","coordinates":[-123.64419578586198,39.72893309314135]}},{"type":"Feature","properties":{"Comment":"Ilean","Max_PDOP":0.0,"Max_HDOP":0.0,"GPS_Date":"1899-12-30 00:00:00","GPS_Time":null,"Datafile":null,"GPS_Height":0.0,"Vert_Prec":0.0,"Horz_Prec":0.0,"Std_Dev":0.0,"Northing":4397897.831,"Easting":444803.039,"Point_ID":0,"Category":"Rigged Trees","Height_m":55.0,"DEM":420.924,"CAN":470.94,"lat":39.7291797624,"long":-123.644099753,"Power":1,"label":"Ilean","source_file":"Maps/Rivendell GIS/Rivendell_RiggedTrees.shp","location_note":"Historical GIS layer retained as supplied; current field status not checked.","uid":"rigged-5"},"geometry":{"type":"Point","coordinates":[-123.6441020194563,39.72918237099924]}},{"type":"Feature","properties":{"Comment":"Brandywine","Max_PDOP":0.0,"Max_HDOP":0.0,"GPS_Date":"1899-12-30 00:00:00","GPS_Time":null,"Datafile":null,"GPS_Height":0.0,"Vert_Prec":0.0,"Horz_Prec":0.0,"Std_Dev":0.0,"Northing":4397969.752,"Easting":444779.266,"Point_ID":0,"Category":"Rigged Trees","Height_m":30.0,"DEM":406.724,"CAN":430.425,"lat":39.7298262069,"long":-123.644383184,"Power":1,"label":"Brandywine","source_file":"Maps/Rivendell GIS/Rivendell_RiggedTrees.shp","location_note":"Historical GIS layer retained as supplied; current field status not checked.","uid":"rigged-6"},"geometry":{"type":"Point","coordinates":[-123.64438544355815,39.72982880933907]}},{"type":"Feature","properties":{"Comment":"Ladybeard Johnson","Max_PDOP":0.0,"Max_HDOP":0.0,"GPS_Date":"1899-12-30 00:00:00","GPS_Time":null,"Datafile":null,"GPS_Height":0.0,"Vert_Prec":0.0,"Horz_Prec":0.0,"Std_Dev":0.0,"Northing":0.0,"Easting":0.0,"Point_ID":0,"Category":"Rigged Trees","Height_m":0.0,"DEM":0.0,"CAN":0.0,"lat":0.0,"long":0.0,"Power":0,"label":"Ladybeard Johnson","source_file":"Maps/Rivendell GIS/Rivendell_RiggedTrees.shp","location_note":"Historical GIS layer retained as supplied; current field status not checked.","uid":"rigged-7"},"geometry":{"type":"Point","coordinates":[-123.64370748546976,39.72914182304219]}},{"type":"Feature","properties":{"Comment":"Griff","Max_PDOP":0.0,"Max_HDOP":0.0,"GPS_Date":"1899-12-30 00:00:00","GPS_Time":null,"Datafile":null,"GPS_Height":0.0,"Vert_Prec":0.0,"Horz_Prec":0.0,"Std_Dev":0.0,"Northing":0.0,"Easting":0.0,"Point_ID":0,"Category":"Rigged Trees","Height_m":0.0,"DEM":0.0,"CAN":0.0,"lat":0.0,"long":0.0,"Power":0,"label":"Griff","source_file":"Maps/Rivendell GIS/Rivendell_RiggedTrees.shp","location_note":"Historical GIS layer retained as supplied; current field status not checked.","uid":"rigged-8"},"geometry":{"type":"Point","coordinates":[-123.64414780979645,39.72808742972111]}},{"type":"Feature","properties":{"Comment":"Grace (oak, unrigged)","Max_PDOP":0.0,"Max_HDOP":0.0,"GPS_Date":"1899-12-30 00:00:00","GPS_Time":null,"Datafile":null,"GPS_Height":0.0,"Vert_Prec":0.0,"Horz_Prec":0.0,"Std_Dev":0.0,"Northing":0.0,"Easting":0.0,"Point_ID":0,"Category":"Rigged Trees","Height_m":0.0,"DEM":0.0,"CAN":0.0,"lat":0.0,"long":0.0,"Power":0,"label":"Grace (oak, unrigged)","source_file":"Maps/Rivendell GIS/Rivendell_RiggedTrees.shp","location_note":"Historical GIS layer retained as supplied; current field status not checked.","uid":"rigged-9"},"geometry":{"type":"Point","coordinates":[-123.64414116598995,39.72803641020631]}},{"type":"Feature","properties":{"Comment":"Freddy","Max_PDOP":0.0,"Max_HDOP":0.0,"GPS_Date":"1899-12-30 00:00:00","GPS_Time":null,"Datafile":null,"GPS_Height":0.0,"Vert_Prec":0.0,"Horz_Prec":0.0,"Std_Dev":0.0,"Northing":0.0,"Easting":0.0,"Point_ID":0,"Category":"Rigged Trees","Height_m":43.3,"DEM":445.0,"CAN":488.3,"lat":0.0,"long":0.0,"Power":0,"label":"Freddy","source_file":"Maps/Rivendell GIS/Rivendell_RiggedTrees.shp","location_note":"Historical GIS layer retained as supplied; current field status not checked.","uid":"rigged-10"},"geometry":{"type":"Point","coordinates":[-123.64346906798667,39.72723336985349]}}]}