{"type":"FeatureCollection","features":[{"type":"Feature","properties":{"Id":0,"label":"Conger Road 1","source_file":"Maps/Rivendell GIS/Rivendell_CongerRoad.shp","location_note":"Historical GIS layer retained as supplied; current field status not checked.","uid":"road-1"},"geometry":{"type":"Polygon","coordinates":[[[-123.64658317893652,39.72833225132903],[-123.64651777710516,39.728386131821665],[-123.64644646934705,39.72844487770186],[-123.64639700139956,39.72848563108115],[-123.64633862623688,39.7285337224388],[-123.64629614045964,39.728568723543525],[-123.64627592645773,39.728637564248515],[-123.64623082927625,39.728696984147035],[-123.64616555678934,39.728667449066876],[-123.64620785243642,39.72861172053406],[-123.6462276346465,39.728548991293735],[-123.64626651590558,39.728507492044216],[-123.64632717584946,39.72844274756134],[-123.64638722479958,39.72840422458739],[-123.64646539910011,39.72835407361586],[-123.64652856993999,39.728313547687016],[-123.64658317893652,39.72833225132903]]]}},{"type":"Feature","properties":{"Id":0,"label":"Conger Road 2","source_file":"Maps/Rivendell GIS/Rivendell_CongerRoad.shp","location_note":"Historical GIS layer retained as supplied; current field status not checked.","uid":"road-2"},"geometry":{"type":"Polygon","coordinates":[[[-123.64338708914799,39.72882693410724],[-123.643390574884,39.72887296215844],[-123.6433645042705,39.72886484179953],[-123.64332779609471,39.728863864625545],[-123.64327895418437,39.72887358102719],[-123.64323019995857,39.72889274253847],[-123.64317539526746,39.72891902177944],[-123.64313731146335,39.72893458199881],[-123.6430673038527,39.72897039106907],[-123.64302172815222,39.72900252259932],[-123.6429715323723,39.7290311376068],[-123.64292134750768,39.72906093323408],[-123.64287417688564,39.729085989331445],[-123.64284226392292,39.729107418774774],[-123.6427965675218,39.72912656316314],[-123.64276459974384,39.72914208937877],[-123.64271107180156,39.729141205181946],[-123.6426529676424,39.72914152700804],[-123.64259792159606,39.729141831869086],[-123.64259917686259,39.72911230736701],[-123.64262508320155,39.729102718277026],[-123.64266464150785,39.72908124654873],[-123.6427027583613,39.72906922840727],[-123.6427380033088,39.72907729809587],[-123.64278999119142,39.72907701010992],[-123.642837271395,39.72906376045972],[-123.64287225340463,39.7290434947159],[-123.64292398924631,39.72901605192005],[-123.64296352549329,39.728992218808195],[-123.64299999264867,39.72896722198829],[-123.6430395507594,39.7289457501334],[-123.64306993453405,39.72892432911059],[-123.64310183638115,39.72890171896404],[-123.64315054680583,39.72887783494122],[-123.6431962977516,39.7288645936213],[-123.6432344253532,39.72885375594792],[-123.64327249812756,39.72883701505578],[-123.64331212186022,39.72882262695645],[-123.6433564423684,39.72882001982244],[-123.64338708914799,39.72882693410724]]]}},{"type":"Feature","properties":{"Id":0,"label":"Conger Road 3","source_file":"Maps/Rivendell GIS/Rivendell_CongerRoad.shp","location_note":"Historical GIS layer retained as supplied; current field status not checked.","uid":"road-3"},"geometry":{"type":"Polygon","coordinates":[[[-123.64457301420093,39.72891835054855],[-123.64459337523729,39.728970188325675],[-123.6445489887763,39.728965712086726],[-123.64450777026752,39.72897302525391],[-123.64445578248088,39.72897331400842],[-123.64442520142953,39.72897348385315],[-123.644361091038,39.72898564691053],[-123.64428005123537,39.728986096915456],[-123.64421741496234,39.728992348198666],[-123.64416078510746,39.72898675908397],[-123.64409951321669,39.728975292199756],[-123.6440489447132,39.72896376587395],[-123.64398468060782,39.72895939974917],[-123.64394034906259,39.728960826482464],[-123.64388987935813,39.72895992585674],[-123.64387320243492,39.72897536752446],[-123.64382592249643,39.728988617594574],[-123.64379381238143,39.72898879575718],[-123.64377380303111,39.72897473835054],[-123.64376286926071,39.72895000427081],[-123.64372145320067,39.72893606561921],[-123.64368915661622,39.728916172853296],[-123.64365991815257,39.72889626311435],[-123.64361393693062,39.728884711151856],[-123.64356185048943,39.72887437373492],[-123.64349913747895,39.72887236014205],[-123.64345171497754,39.728870261724346],[-123.643390574884,39.72887296215844],[-123.64338708914799,39.72882693410724],[-123.64345742543061,39.72882654408253],[-123.64350182270367,39.72883220138153],[-123.64354161089904,39.7288355228223],[-123.64360744778905,39.72884460327713],[-123.6436717556458,39.72885369217657],[-123.64371620780597,39.72886525259901],[-123.64373925327195,39.728876931768006],[-123.64375936132905,39.728901614951305],[-123.64382373509285,39.728917787612524],[-123.64388346686324,39.728928082487066],[-123.64394149400697,39.72891949555909],[-123.64398590235243,39.72892633331309],[-123.6440486044463,39.72892716600137],[-123.64408541145568,39.72893876871643],[-123.64412979787161,39.72894324513305],[-123.64416809004156,39.728950116769425],[-123.64419869304196,39.72895230827454],[-123.64424760075161,39.72894967533272],[-123.64430571571167,39.72895053335091],[-123.64436683386796,39.72894547115263],[-123.64442489391121,39.728940425906345],[-123.64448753011683,39.728934174511686],[-123.6445409920015,39.728927974045],[-123.64457301420093,39.72891835054855]]]}},{"type":"Feature","properties":{"Id":0,"label":"Conger Road 4","source_file":"Maps/Rivendell GIS/Rivendell_CongerRoad.shp","location_note":"Historical GIS layer retained as supplied; current field status not checked.","uid":"road-4"},"geometry":{"type":"Polygon","coordinates":[[[-123.64549109631274,39.72850128392769],[-123.64545588171379,39.72848602870314],[-123.64540375131216,39.72847096954844],[-123.64533631952656,39.728454814769655],[-123.64525521438235,39.72844818160486],[-123.64516348293573,39.72844987238153],[-123.64509024289508,39.72846680941055],[-123.64501867476552,39.728499086225696],[-123.64498070153743,39.728526453454464],[-123.64493526991697,39.72857393406007],[-123.64490819776057,39.72862249331047],[-123.64488270956477,39.72867694726099],[-123.64485861849475,39.72871722501727],[-123.64484539557921,39.72877515289975],[-123.64481529815224,39.728827271045716],[-123.64479253823853,39.728846288754916],[-123.64479747703975,39.72888404377264],[-123.64481918046336,39.72891580211737],[-123.64481328404725,39.72893944892344],[-123.64480586956425,39.72896428486707],[-123.64474328830377,39.72897643963784],[-123.64467448093865,39.728976821947555],[-123.64463618870565,39.728969950478806],[-123.64459337523729,39.728970188325675],[-123.64457301420093,39.72891835054855],[-123.64460344142526,39.728901651692176],[-123.64466136957094,39.728882438637015],[-123.64470262097123,39.728878667338506],[-123.64474200268272,39.72883830465362],[-123.64475847059647,39.72880043068546],[-123.64478256175366,39.72876015294979],[-123.64479889775772,39.72870811128471],[-123.64482287896476,39.72865602713129],[-123.64484690409556,39.728608665536434],[-123.64488154457315,39.728551799323824],[-123.64492399507063,39.72851260022242],[-123.64497267160502,39.72848517351844],[-123.64503050036042,39.72845533451334],[-123.64507163055328,39.72843857603579],[-123.64513566334372,39.72841814810404],[-123.64520899128931,39.7284106561738],[-123.645279316125,39.72840908440807],[-123.64534817790745,39.72841460494893],[-123.6454110115361,39.728429604595284],[-123.6454799943557,39.728448112106626],[-123.64551844391337,39.72846739839218],[-123.64549109631274,39.72850128392769]]]}},{"type":"Feature","properties":{"Id":0,"label":"Conger Road 5","source_file":"Maps/Rivendell GIS/Rivendell_CongerRoad.shp","location_note":"Historical GIS layer retained as supplied; current field status not checked.","uid":"road-5"},"geometry":{"type":"Polygon","coordinates":[[[-123.64616555678934,39.728667449066876],[-123.64623082927625,39.728696984147035],[-123.64619059418489,39.72872870613626],[-123.6461450091021,39.72875965823959],[-123.64608534201544,39.72876583784261],[-123.64603942022954,39.728751294440315],[-123.64597703921345,39.72873153837044],[-123.6459059933583,39.728709038090834],[-123.64584004624378,39.72868815253415],[-123.64580305197443,39.7286564794847],[-123.645724652485,39.72861204912778],[-123.64565573359019,39.72858960581871],[-123.64559869871819,39.7285513534857],[-123.64554317500593,39.72851411459383],[-123.64549109631274,39.72850128392769],[-123.64551844391337,39.72846739839218],[-123.64559639417995,39.728504905606115],[-123.6456525278574,39.72853191530612],[-123.64571487937235,39.72856191677023],[-123.64577562226296,39.72859114416032],[-123.6458380999519,39.728621206216225],[-123.64589318858135,39.72864771286782],[-123.64597855983878,39.7286887903296],[-123.64603284914493,39.72870242836491],[-123.64607883063711,39.72871397936723],[-123.64613826522672,39.72869239578437],[-123.64616555678934,39.728667449066876]]]}}]}