{"type":"FeatureCollection","features":[{"type":"Feature","properties":{"Id":0,"TYPE":"Ladders","label":"Ladders","source_file":"Maps/Rivendell GIS/Rivendell_Trails.shp","location_note":"Historical GIS layer retained as supplied; current field status not checked.","uid":"trails-1"},"geometry":{"type":"LineString","coordinates":[[-123.64426288578392,39.72947525576785],[-123.64421581050095,39.72942339330282]]}},{"type":"Feature","properties":{"Id":0,"TYPE":"Ladders","label":"Ladders","source_file":"Maps/Rivendell GIS/Rivendell_Trails.shp","location_note":"Historical GIS layer retained as supplied; current field status not checked.","uid":"trails-2"},"geometry":{"type":"LineString","coordinates":[[-123.64427478647816,39.72939283501504],[-123.64422139665878,39.72935064245322]]}},{"type":"Feature","properties":{"Id":0,"TYPE":"Ladders","label":"Ladders","source_file":"Maps/Rivendell GIS/Rivendell_Trails.shp","location_note":"Historical GIS layer retained as supplied; current field status not checked.","uid":"trails-3"},"geometry":{"type":"LineString","coordinates":[[-123.64417889710799,39.729351985806126],[-123.64406395943145,39.72929479069953]]}},{"type":"Feature","properties":{"Id":0,"TYPE":"Ladders","label":"Ladders","source_file":"Maps/Rivendell GIS/Rivendell_Trails.shp","location_note":"Historical GIS layer retained as supplied; current field status not checked.","uid":"trails-4"},"geometry":{"type":"LineString","coordinates":[[-123.64410709243027,39.7292543475892],[-123.64411657760266,39.729238874344695]]}},{"type":"Feature","properties":{"Id":0,"TYPE":"Log","label":"Log","source_file":"Maps/Rivendell GIS/Rivendell_Trails.shp","location_note":"Historical GIS layer retained as supplied; current field status not checked.","uid":"trails-5"},"geometry":{"type":"LineString","coordinates":[[-123.6443097131622,39.72922183073459],[-123.64400783375451,39.729241956255564]]}},{"type":"Feature","properties":{"Id":0,"TYPE":"Ladders","label":"Ladders","source_file":"Maps/Rivendell GIS/Rivendell_Trails.shp","location_note":"Historical GIS layer retained as supplied; current field status not checked.","uid":"trails-6"},"geometry":{"type":"LineString","coordinates":[[-123.64419735619087,39.72922677784941],[-123.64420453923249,39.72916470313377]]}},{"type":"Feature","properties":{"Id":0,"TYPE":"Ladders","label":"Ladders","source_file":"Maps/Rivendell GIS/Rivendell_Trails.shp","location_note":"Historical GIS layer retained as supplied; current field status not checked.","uid":"trails-7"},"geometry":{"type":"LineString","coordinates":[[-123.64409026117444,39.72917598885623],[-123.6440732364393,39.72914901456199]]}},{"type":"Feature","properties":{"Id":0,"TYPE":"Trails","label":"Trails","source_file":"Maps/Rivendell GIS/Rivendell_Trails.shp","location_note":"Historical GIS layer retained as supplied; current field status not checked.","uid":"trails-8"},"geometry":{"type":"LineString","coordinates":[[-123.64461365952559,39.72896971819267],[-123.64460718828288,39.728974787261535],[-123.64455513018827,39.72900572733822],[-123.64452226052077,39.729031267175735],[-123.64449338403142,39.72905554788513],[-123.64446072376506,39.729074901845976],[-123.64442801553858,39.72908910215057],[-123.64439640590307,39.72910659484944],[-123.64435599163382,39.729124754903545],[-123.64432545180486,39.7291424477988],[-123.64427315995887,39.7291466551345],[-123.64423593406931,39.72916314819108],[-123.64420497576741,39.72916455701182],[-123.64418050552139,39.729174588379294],[-123.64415013484691,39.72918176630608],[-123.64410174800837,39.72917523174635],[-123.64405051638091,39.72917860847041],[-123.64403085943417,39.7291894377159],[-123.64399798756752,39.72921477126068],[-123.64398432492149,39.72923855509077],[-123.64395971602606,39.72926239966908],[-123.64393931387461,39.72929837342026],[-123.64391493418265,39.729331466261385]]}},{"type":"Feature","properties":{"Id":0,"TYPE":"Trails","label":"Trails","source_file":"Maps/Rivendell GIS/Rivendell_Trails.shp","location_note":"Historical GIS layer retained as supplied; current field status not checked.","uid":"trails-9"},"geometry":{"type":"LineString","coordinates":[[-123.64403120162977,39.7290877041579],[-123.6440634581784,39.729082697548634],[-123.64410519728318,39.729088902618244],[-123.64416469497145,39.72909983665454],[-123.64421565481238,39.72908909400654],[-123.64428010801703,39.729072644251815],[-123.64432894644108,39.72905789036006],[-123.64436637543996,39.7290488319708],[-123.64441828738083,39.729028428810636],[-123.64447338511052,39.729014444690165],[-123.64453206224694,39.72899755408891]]}},{"type":"Feature","properties":{"Id":0,"TYPE":"Trails","label":"Trails","source_file":"Maps/Rivendell GIS/Rivendell_Trails.shp","location_note":"Historical GIS layer retained as supplied; current field status not checked.","uid":"trails-10"},"geometry":{"type":"LineString","coordinates":[[-123.64377380303111,39.72897473835054],[-123.64379381238143,39.72898879575718],[-123.64377858833396,39.72901186265576],[-123.64378726161095,39.72903554910075],[-123.6437467554048,39.72905950840059],[-123.64371226980245,39.729069786910536],[-123.64371868188155,39.729098232818025],[-123.64374656039114,39.72912121935496],[-123.64375607378008,39.7291526148749],[-123.64374708969966,39.72917817937698],[-123.6437980597827,39.72920519133676],[-123.64377362437462,39.729221941107575],[-123.64373993469486,39.72923518203048],[-123.64378087660688,39.72925809608329],[-123.64385063114696,39.72927646485529],[-123.6438133454876,39.729298873903666],[-123.64388432624818,39.72930914475243],[-123.64383618104335,39.72932520045311],[-123.64381526276436,39.729336116585195],[-123.64386237896808,39.72934457955653],[-123.64388778778255,39.72934370957784],[-123.64391493418265,39.729331466261385]]}},{"type":"Feature","properties":{"Id":0,"TYPE":"Trails","label":"Trails","source_file":"Maps/Rivendell GIS/Rivendell_Trails.shp","location_note":"Historical GIS layer retained as supplied; current field status not checked.","uid":"trails-11"},"geometry":{"type":"LineString","coordinates":[[-123.64410708987006,39.72925407223568],[-123.64407874773153,39.72927433140341],[-123.64406395943145,39.72929479069953]]}},{"type":"Feature","properties":{"Id":0,"TYPE":"Trails","label":"Trails","source_file":"Maps/Rivendell GIS/Rivendell_Trails.shp","location_note":"Historical GIS layer retained as supplied; current field status not checked.","uid":"trails-12"},"geometry":{"type":"LineString","coordinates":[[-123.64417889710799,39.729351985806126],[-123.64420057634456,39.72934662238546],[-123.64422144277886,39.7293510514101]]}},{"type":"Feature","properties":{"Id":0,"TYPE":"Trails","label":"Trails","source_file":"Maps/Rivendell GIS/Rivendell_Trails.shp","location_note":"Historical GIS layer retained as supplied; current field status not checked.","uid":"trails-13"},"geometry":{"type":"LineString","coordinates":[[-123.64427478647816,39.72939283501504],[-123.64424596241143,39.7294078889973],[-123.64421194695713,39.72942537996074],[-123.64419598778923,39.729437352839064],[-123.6441710562563,39.72944961113654]]}},{"type":"Feature","properties":{"Id":0,"TYPE":"Trails","label":"Trails","source_file":"Maps/Rivendell GIS/Rivendell_Trails.shp","location_note":"Historical GIS layer retained as supplied; current field status not checked.","uid":"trails-14"},"geometry":{"type":"LineString","coordinates":[[-123.64367734239642,39.72885484944329],[-123.64372758013009,39.72884204929069],[-123.64375332536262,39.728835489611434],[-123.6438306587876,39.728821047644104],[-123.64390150809682,39.72882197255173],[-123.64398711658029,39.72882309007636],[-123.64404212045358,39.72879878535489],[-123.64407773287971,39.72877354477168],[-123.64405459149002,39.72876312883838],[-123.64400249380752,39.728759463855425],[-123.64396909256479,39.72874712777617],[-123.64397478497942,39.728716781079974],[-123.64400788602696,39.72869682664775],[-123.64402890388145,39.7286624407447],[-123.64400807173419,39.728624992000256],[-123.64398891944407,39.72859056299772],[-123.64395444075899,39.72854818383942],[-123.64394031994111,39.7284981763792],[-123.64394418293128,39.72845465935514],[-123.6439582567304,39.72840779054356],[-123.64395360355287,39.728366297852894],[-123.64393685503852,39.72830905570894],[-123.64390576937934,39.72827034579723],[-123.64385924813722,39.72822381323935]]}},{"type":"Feature","properties":{"Id":0,"TYPE":"Ladders","label":"Ladders","source_file":"Maps/Rivendell GIS/Rivendell_Trails.shp","location_note":"Historical GIS layer retained as supplied; current field status not checked.","uid":"trails-15"},"geometry":{"type":"LineString","coordinates":[[-123.64402385518986,39.72903745341449],[-123.64402768139452,39.728989982452084]]}},{"type":"Feature","properties":{"Id":0,"TYPE":"Ladders","label":"Ladders","source_file":"Maps/Rivendell GIS/Rivendell_Trails.shp","location_note":"Historical GIS layer retained as supplied; current field status not checked.","uid":"trails-16"},"geometry":{"type":"LineString","coordinates":[[-123.64406659993321,39.729136728776645],[-123.64404000142915,39.729108910433595]]}},{"type":"Feature","properties":{"Id":0,"TYPE":"Ladders","label":"Ladders","source_file":"Maps/Rivendell GIS/Rivendell_Trails.shp","location_note":"Historical GIS layer retained as supplied; current field status not checked.","uid":"trails-17"},"geometry":{"type":"LineString","coordinates":[[-123.64403294214074,39.72909352214789],[-123.64402060063003,39.7290546061014]]}},{"type":"Feature","properties":{"Id":1,"TYPE":"Trails","label":"Trails","source_file":"Maps/Rivendell GIS/Rivendell_Trails.shp","location_note":"Historical GIS layer retained as supplied; current field status not checked.","uid":"trails-18"},"geometry":{"type":"LineString","coordinates":[[-123.6440763151297,39.728772906643],[-123.64416386147623,39.72873970940907],[-123.64419807107143,39.72870049524719],[-123.6442487895173,39.72862314381709],[-123.64425835655732,39.72855637517559],[-123.64424972281486,39.72850394261864],[-123.6442603150262,39.72841219767092],[-123.64426563390792,39.72835115571876],[-123.64424426913004,39.72831874673027],[-123.6442347735705,39.72825418827148],[-123.64419043379596,39.728189048684904],[-123.64414443332518,39.72814116595678],[-123.64412382503562,39.728125707823224],[-123.6441334793059,39.72809937328946],[-123.64414780979645,39.72808742972111]]}}]}