{"type":"FeatureCollection","features":[{"type":"Feature","properties":{"id":1.0,"Species bi":"NODE","Species":"Tan oak","Circumfere":167.0,"DBH (cm)":53.2,"Basal area":0.222,"Other note":null,"STATUS":null,"Tree tag #":null,"Basal ar_1":0.222,"Sapflow":null,"RIGGED":null,"EB Sapflow":null,"WJHSapflow":null,"PL Sapflow":null,"JO Isotope":null,"VMSIsotope":null,"BAGGABLE":null,"PRUNEABLE":null,"AccessFrom":null,"species":"Tan oak","dbh_cm":53.2,"tree_tag":null,"survey_id":1.0,"label":"VMS 1","record_status":"Status unrecorded","dbh_quality":"No estimate flag","source_file":"Maps/VMS Vicinity Tree and Injection Port Survey/2019-05-21 update All Trees VMS Area.shp","location_note":"Historical May 2019 inventory; positions retained as supplied. Blank status does not establish that a tree is alive today. ID and tree tag are different identifiers.","uid":"trees-1"},"geometry":{"type":"Point","coordinates":[-123.6436784744296,39.72872035865306]}},{"type":"Feature","properties":{"id":2.0,"Species bi":"NODE","Species":"Tan oak","Circumfere":36.0,"DBH (cm)":11.5,"Basal area":0.01,"Other note":"orange flagging","STATUS":null,"Tree tag #":null,"Basal ar_1":0.01,"Sapflow":null,"RIGGED":null,"EB Sapflow":null,"WJHSapflow":null,"PL Sapflow":null,"JO Isotope":null,"VMSIsotope":null,"BAGGABLE":null,"PRUNEABLE":null,"AccessFrom":null,"species":"Tan oak","dbh_cm":11.5,"tree_tag":null,"survey_id":2.0,"label":"VMS 2","record_status":"Status unrecorded","dbh_quality":"No estimate flag","source_file":"Maps/VMS Vicinity Tree and Injection Port Survey/2019-05-21 update All Trees VMS Area.shp","location_note":"Historical May 2019 inventory; positions retained as supplied. Blank status does not establish that a tree is alive today. ID and tree tag are different identifiers.","uid":"trees-2"},"geometry":{"type":"Point","coordinates":[-123.64377294737531,39.728728945152405]}},{"type":"Feature","properties":{"id":3.0,"Species bi":"NODE","Species":"Tan oak","Circumfere":34.0,"DBH (cm)":10.8,"Basal area":0.009,"Other note":null,"STATUS":null,"Tree tag #":null,"Basal ar_1":0.009,"Sapflow":null,"RIGGED":null,"EB Sapflow":null,"WJHSapflow":null,"PL Sapflow":null,"JO Isotope":null,"VMSIsotope":null,"BAGGABLE":null,"PRUNEABLE":null,"AccessFrom":null,"species":"Tan oak","dbh_cm":10.8,"tree_tag":null,"survey_id":3.0,"label":"VMS 3","record_status":"Status unrecorded","dbh_quality":"No estimate flag","source_file":"Maps/VMS Vicinity Tree and Injection Port Survey/2019-05-21 update All Trees VMS Area.shp","location_note":"Historical May 2019 inventory; positions retained as supplied. Blank status does not establish that a tree is alive today. ID and tree tag are different identifiers.","uid":"trees-3"},"geometry":{"type":"Point","coordinates":[-123.6437266667753,39.72874286783308]}},{"type":"Feature","properties":{"id":4.0,"Species bi":"NODE","Species":"Tan oak","Circumfere":80.0,"DBH (cm)":25.5,"Basal area":0.051,"Other note":"orange flagging","STATUS":null,"Tree tag #":null,"Basal ar_1":0.051,"Sapflow":null,"RIGGED":null,"EB Sapflow":null,"WJHSapflow":null,"PL Sapflow":null,"JO Isotope":null,"VMSIsotope":null,"BAGGABLE":null,"PRUNEABLE":null,"AccessFrom":null,"species":"Tan oak","dbh_cm":25.5,"tree_tag":null,"survey_id":4.0,"label":"VMS 4","record_status":"Status unrecorded","dbh_quality":"No estimate flag","source_file":"Maps/VMS Vicinity Tree and Injection Port Survey/2019-05-21 update All Trees VMS Area.shp","location_note":"Historical May 2019 inventory; positions retained as supplied. Blank status does not establish that a tree is alive today. ID and tree tag are different identifiers.","uid":"trees-4"},"geometry":{"type":"Point","coordinates":[-123.64373069274107,39.72875286717088]}},{"type":"Feature","properties":{"id":5.0,"Species bi":"NODE","Species":"Tan oak","Circumfere":97.0,"DBH (cm)":30.9,"Basal area":0.075,"Other note":null,"STATUS":null,"Tree tag #":null,"Basal ar_1":0.075,"Sapflow":null,"RIGGED":null,"EB Sapflow":null,"WJHSapflow":null,"PL Sapflow":null,"JO Isotope":null,"VMSIsotope":null,"BAGGABLE":null,"PRUNEABLE":null,"AccessFrom":null,"species":"Tan oak","dbh_cm":30.9,"tree_tag":null,"survey_id":5.0,"label":"VMS 5","record_status":"Status unrecorded","dbh_quality":"No estimate flag","source_file":"Maps/VMS Vicinity Tree and Injection Port Survey/2019-05-21 update All Trees VMS Area.shp","location_note":"Historical May 2019 inventory; positions retained as supplied. Blank status does not establish that a tree is alive today. ID and tree tag are different identifiers.","uid":"trees-5"},"geometry":{"type":"Point","coordinates":[-123.64373778033136,39.72875373891135]}},{"type":"Feature","properties":{"id":6.0,"Species bi":"NODE","Species":"Tan oak","Circumfere":85.0,"DBH (cm)":27.1,"Basal area":0.057,"Other note":null,"STATUS":null,"Tree tag #":null,"Basal ar_1":0.057,"Sapflow":null,"RIGGED":null,"EB Sapflow":null,"WJHSapflow":null,"PL Sapflow":null,"JO Isotope":null,"VMSIsotope":null,"BAGGABLE":null,"PRUNEABLE":null,"AccessFrom":null,"species":"Tan oak","dbh_cm":27.1,"tree_tag":null,"survey_id":6.0,"label":"VMS 6","record_status":"Status unrecorded","dbh_quality":"No estimate flag","source_file":"Maps/VMS Vicinity Tree and Injection Port Survey/2019-05-21 update All Trees VMS Area.shp","location_note":"Historical May 2019 inventory; positions retained as supplied. Blank status does not establish that a tree is alive today. ID and tree tag are different identifiers.","uid":"trees-6"},"geometry":{"type":"Point","coordinates":[-123.64374023880401,39.72876435431916]}},{"type":"Feature","properties":{"id":7.0,"Species bi":"NODE","Species":"Tan oak","Circumfere":30.0,"DBH (cm)":9.5,"Basal area":0.007,"Other note":null,"STATUS":null,"Tree tag #":null,"Basal ar_1":0.007,"Sapflow":null,"RIGGED":null,"EB Sapflow":null,"WJHSapflow":null,"PL Sapflow":null,"JO Isotope":null,"VMSIsotope":null,"BAGGABLE":null,"PRUNEABLE":null,"AccessFrom":null,"species":"Tan oak","dbh_cm":9.5,"tree_tag":null,"survey_id":7.0,"label":"VMS 7","record_status":"Status unrecorded","dbh_quality":"No estimate flag","source_file":"Maps/VMS Vicinity Tree and Injection Port Survey/2019-05-21 update All Trees VMS Area.shp","location_note":"Historical May 2019 inventory; positions retained as supplied. Blank status does not establish that a tree is alive today. ID and tree tag are different identifiers.","uid":"trees-7"},"geometry":{"type":"Point","coordinates":[-123.64374850060621,39.72876461217044]}},{"type":"Feature","properties":{"id":8.0,"Species bi":"ARME","Species":"Pacific madrone","Circumfere":102.0,"DBH (cm)":32.5,"Basal area":0.083,"Other note":null,"STATUS":"dead","Tree tag #":null,"Basal ar_1":0.0,"Sapflow":null,"RIGGED":null,"EB Sapflow":null,"WJHSapflow":null,"PL Sapflow":null,"JO Isotope":null,"VMSIsotope":null,"BAGGABLE":null,"PRUNEABLE":null,"AccessFrom":null,"species":"Pacific madrone","dbh_cm":32.5,"tree_tag":null,"survey_id":8.0,"label":"VMS 8","record_status":"Recorded dead","dbh_quality":"No estimate flag","source_file":"Maps/VMS Vicinity Tree and Injection Port Survey/2019-05-21 update All Trees VMS Area.shp","location_note":"Historical May 2019 inventory; positions retained as supplied. Blank status does not establish that a tree is alive today. ID and tree tag are different identifiers.","uid":"trees-8"},"geometry":{"type":"Point","coordinates":[-123.6437771257349,39.72875534274436]}},{"type":"Feature","properties":{"id":9.0,"Species bi":"NODE","Species":"Tan oak","Circumfere":65.0,"DBH (cm)":20.7,"Basal area":0.034,"Other note":null,"STATUS":null,"Tree tag #":null,"Basal ar_1":0.034,"Sapflow":null,"RIGGED":null,"EB Sapflow":null,"WJHSapflow":null,"PL Sapflow":null,"JO Isotope":null,"VMSIsotope":null,"BAGGABLE":null,"PRUNEABLE":null,"AccessFrom":null,"species":"Tan oak","dbh_cm":20.7,"tree_tag":null,"survey_id":9.0,"label":"VMS 9","record_status":"Status unrecorded","dbh_quality":"No estimate flag","source_file":"Maps/VMS Vicinity Tree and Injection Port Survey/2019-05-21 update All Trees VMS Area.shp","location_note":"Historical May 2019 inventory; positions retained as supplied. Blank status does not establish that a tree is alive today. ID and tree tag are different identifiers.","uid":"trees-9"},"geometry":{"type":"Point","coordinates":[-123.64370865926357,39.72879429084611]}},{"type":"Feature","properties":{"id":10.0,"Species bi":"NODE","Species":"Tan oak","Circumfere":62.0,"DBH (cm)":19.7,"Basal area":0.031,"Other note":null,"STATUS":"dead","Tree tag #":null,"Basal ar_1":0.0,"Sapflow":null,"RIGGED":null,"EB Sapflow":null,"WJHSapflow":null,"PL Sapflow":null,"JO Isotope":null,"VMSIsotope":null,"BAGGABLE":null,"PRUNEABLE":null,"AccessFrom":null,"species":"Tan oak","dbh_cm":19.7,"tree_tag":null,"survey_id":10.0,"label":"VMS 10","record_status":"Recorded dead","dbh_quality":"No estimate flag","source_file":"Maps/VMS Vicinity Tree and Injection Port Survey/2019-05-21 update All Trees VMS Area.shp","location_note":"Historical May 2019 inventory; positions retained as supplied. Blank status does not establish that a tree is alive today. ID and tree tag are different identifiers.","uid":"trees-10"},"geometry":{"type":"Point","coordinates":[-123.64371026908559,39.72879822984719]}},{"type":"Feature","properties":{"id":11.0,"Species bi":"NODE","Species":"Tan oak","Circumfere":31.0,"DBH (cm)":9.9,"Basal area":0.008,"Other note":null,"STATUS":"dead","Tree tag #":null,"Basal ar_1":0.0,"Sapflow":null,"RIGGED":null,"EB Sapflow":null,"WJHSapflow":null,"PL Sapflow":null,"JO Isotope":null,"VMSIsotope":null,"BAGGABLE":null,"PRUNEABLE":null,"AccessFrom":null,"species":"Tan oak","dbh_cm":9.9,"tree_tag":null,"survey_id":11.0,"label":"VMS 11","record_status":"Recorded dead","dbh_quality":"No estimate flag","source_file":"Maps/VMS Vicinity Tree and Injection Port Survey/2019-05-21 update All Trees VMS Area.shp","location_note":"Historical May 2019 inventory; positions retained as supplied. Blank status does not establish that a tree is alive today. ID and tree tag are different identifiers.","uid":"trees-11"},"geometry":{"type":"Point","coordinates":[-123.64369884124807,39.728795863747486]}},{"type":"Feature","properties":{"id":12.0,"Species bi":"ARME","Species":"Pacific madrone","Circumfere":81.0,"DBH (cm)":25.8,"Basal area":0.052,"Other note":null,"STATUS":null,"Tree tag #":null,"Basal ar_1":0.052,"Sapflow":null,"RIGGED":null,"EB Sapflow":null,"WJHSapflow":null,"PL Sapflow":null,"JO Isotope":null,"VMSIsotope":null,"BAGGABLE":null,"PRUNEABLE":null,"AccessFrom":null,"species":"Pacific madrone","dbh_cm":25.8,"tree_tag":null,"survey_id":12.0,"label":"VMS 12","record_status":"Status unrecorded","dbh_quality":"No estimate flag","source_file":"Maps/VMS Vicinity Tree and Injection Port Survey/2019-05-21 update All Trees VMS Area.shp","location_note":"Historical May 2019 inventory; positions retained as supplied. Blank status does not establish that a tree is alive today. ID and tree tag are different identifiers.","uid":"trees-12"},"geometry":{"type":"Point","coordinates":[-123.64370960384908,39.728811292081154]}},{"type":"Feature","properties":{"id":13.0,"Species bi":"ARME","Species":"Pacific madrone","Circumfere":55.0,"DBH (cm)":17.5,"Basal area":0.024,"Other note":null,"STATUS":null,"Tree tag #":null,"Basal ar_1":0.024,"Sapflow":null,"RIGGED":null,"EB Sapflow":null,"WJHSapflow":null,"PL Sapflow":null,"JO Isotope":null,"VMSIsotope":null,"BAGGABLE":null,"PRUNEABLE":null,"AccessFrom":null,"species":"Pacific madrone","dbh_cm":17.5,"tree_tag":null,"survey_id":13.0,"label":"VMS 13","record_status":"Status unrecorded","dbh_quality":"No estimate flag","source_file":"Maps/VMS Vicinity Tree and Injection Port Survey/2019-05-21 update All Trees VMS Area.shp","location_note":"Historical May 2019 inventory; positions retained as supplied. Blank status does not establish that a tree is alive today. ID and tree tag are different identifiers.","uid":"trees-13"},"geometry":{"type":"Point","coordinates":[-123.64371951216255,39.728819436663734]}},{"type":"Feature","properties":{"id":14.0,"Species bi":"NODE","Species":"Tan oak","Circumfere":107.0,"DBH (cm)":34.1,"Basal area":0.091,"Other note":null,"STATUS":null,"Tree tag #":null,"Basal ar_1":0.091,"Sapflow":null,"RIGGED":null,"EB Sapflow":null,"WJHSapflow":null,"PL Sapflow":null,"JO Isotope":null,"VMSIsotope":null,"BAGGABLE":null,"PRUNEABLE":null,"AccessFrom":null,"species":"Tan oak","dbh_cm":34.1,"tree_tag":null,"survey_id":14.0,"label":"VMS 14","record_status":"Status unrecorded","dbh_quality":"No estimate flag","source_file":"Maps/VMS Vicinity Tree and Injection Port Survey/2019-05-21 update All Trees VMS Area.shp","location_note":"Historical May 2019 inventory; positions retained as supplied. Blank status does not establish that a tree is alive today. ID and tree tag are different identifiers.","uid":"trees-14"},"geometry":{"type":"Point","coordinates":[-123.64371680149304,39.728824007007546]}},{"type":"Feature","properties":{"id":15.0,"Species bi":"NODE","Species":"Tan oak","Circumfere":76.0,"DBH (cm)":24.2,"Basal area":0.046,"Other note":null,"STATUS":null,"Tree tag #":null,"Basal ar_1":0.046,"Sapflow":null,"RIGGED":null,"EB Sapflow":null,"WJHSapflow":null,"PL Sapflow":null,"JO Isotope":null,"VMSIsotope":null,"BAGGABLE":null,"PRUNEABLE":null,"AccessFrom":null,"species":"Tan oak","dbh_cm":24.2,"tree_tag":null,"survey_id":15.0,"label":"VMS 15","record_status":"Status unrecorded","dbh_quality":"No estimate flag","source_file":"Maps/VMS Vicinity Tree and Injection Port Survey/2019-05-21 update All Trees VMS Area.shp","location_note":"Historical May 2019 inventory; positions retained as supplied. Blank status does not establish that a tree is alive today. ID and tree tag are different identifiers.","uid":"trees-15"},"geometry":{"type":"Point","coordinates":[-123.64372383099435,39.728828151290195]}},{"type":"Feature","properties":{"id":16.0,"Species bi":"PSME","Species":"Douglas fir","Circumfere":64.0,"DBH (cm)":20.4,"Basal area":0.033,"Other note":null,"STATUS":null,"Tree tag #":null,"Basal ar_1":0.033,"Sapflow":null,"RIGGED":null,"EB Sapflow":null,"WJHSapflow":null,"PL Sapflow":null,"JO Isotope":null,"VMSIsotope":null,"BAGGABLE":null,"PRUNEABLE":null,"AccessFrom":null,"species":"Douglas fir","dbh_cm":20.4,"tree_tag":null,"survey_id":16.0,"label":"VMS 16","record_status":"Status unrecorded","dbh_quality":"No estimate flag","source_file":"Maps/VMS Vicinity Tree and Injection Port Survey/2019-05-21 update All Trees VMS Area.shp","location_note":"Historical May 2019 inventory; positions retained as supplied. Blank status does not establish that a tree is alive today. ID and tree tag are different identifiers.","uid":"trees-16"},"geometry":{"type":"Point","coordinates":[-123.64373053825416,39.72882089392901]}},{"type":"Feature","properties":{"id":17.0,"Species bi":"NODE","Species":"Tan oak","Circumfere":152.0,"DBH (cm)":48.4,"Basal area":0.184,"Other note":null,"STATUS":null,"Tree tag #":645.0,"Basal ar_1":0.184,"Sapflow":null,"RIGGED":null,"EB Sapflow":null,"WJHSapflow":null,"PL Sapflow":null,"JO Isotope":null,"VMSIsotope":null,"BAGGABLE":null,"PRUNEABLE":null,"AccessFrom":null,"species":"Tan oak","dbh_cm":48.4,"tree_tag":645.0,"survey_id":17.0,"label":"Tree 645","record_status":"Status unrecorded","dbh_quality":"No estimate flag","source_file":"Maps/VMS Vicinity Tree and Injection Port Survey/2019-05-21 update All Trees VMS Area.shp","location_note":"Historical May 2019 inventory; positions retained as supplied. Blank status does not establish that a tree is alive today. ID and tree tag are different identifiers.","uid":"trees-17"},"geometry":{"type":"Point","coordinates":[-123.64374894364114,39.72881228858061]}},{"type":"Feature","properties":{"id":18.0,"Species bi":"PSME","Species":"Douglas fir","Circumfere":132.0,"DBH (cm)":42.0,"Basal area":0.139,"Other note":null,"STATUS":null,"Tree tag #":634.0,"Basal ar_1":0.139,"Sapflow":null,"RIGGED":null,"EB Sapflow":null,"WJHSapflow":null,"PL Sapflow":null,"JO Isotope":null,"VMSIsotope":null,"BAGGABLE":null,"PRUNEABLE":null,"AccessFrom":null,"species":"Douglas fir","dbh_cm":42.0,"tree_tag":634.0,"survey_id":18.0,"label":"Tree 634","record_status":"Status unrecorded","dbh_quality":"No estimate flag","source_file":"Maps/VMS Vicinity Tree and Injection Port Survey/2019-05-21 update All Trees VMS Area.shp","location_note":"Historical May 2019 inventory; positions retained as supplied. Blank status does not establish that a tree is alive today. ID and tree tag are different identifiers.","uid":"trees-18"},"geometry":{"type":"Point","coordinates":[-123.64378196265308,39.72881028326555]}},{"type":"Feature","properties":{"id":19.0,"Species bi":"NODE","Species":"Tan oak","Circumfere":144.0,"DBH (cm)":45.8,"Basal area":0.165,"Other note":null,"STATUS":null,"Tree tag #":646.0,"Basal ar_1":0.165,"Sapflow":null,"RIGGED":null,"EB Sapflow":null,"WJHSapflow":null,"PL Sapflow":null,"JO Isotope":null,"VMSIsotope":null,"BAGGABLE":null,"PRUNEABLE":"TRUE","AccessFrom":null,"species":"Tan oak","dbh_cm":45.8,"tree_tag":646.0,"survey_id":19.0,"label":"Tree 646","record_status":"Status unrecorded","dbh_quality":"No estimate flag","source_file":"Maps/VMS Vicinity Tree and Injection Port Survey/2019-05-21 update All Trees VMS Area.shp","location_note":"Historical May 2019 inventory; positions retained as supplied. Blank status does not establish that a tree is alive today. ID and tree tag are different identifiers.","uid":"trees-19"},"geometry":{"type":"Point","coordinates":[-123.64382831102017,39.72880364867624]}},{"type":"Feature","properties":{"id":20.0,"Species bi":"PSME","Species":"Douglas fir","Circumfere":110.0,"DBH (cm)":35.0,"Basal area":0.096,"Other note":null,"STATUS":null,"Tree tag #":null,"Basal ar_1":0.096,"Sapflow":null,"RIGGED":null,"EB Sapflow":null,"WJHSapflow":null,"PL Sapflow":null,"JO Isotope":null,"VMSIsotope":null,"BAGGABLE":null,"PRUNEABLE":null,"AccessFrom":null,"species":"Douglas fir","dbh_cm":35.0,"tree_tag":null,"survey_id":20.0,"label":"VMS 20","record_status":"Status unrecorded","dbh_quality":"No estimate flag","source_file":"Maps/VMS Vicinity Tree and Injection Port Survey/2019-05-21 update All Trees VMS Area.shp","location_note":"Historical May 2019 inventory; positions retained as supplied. Blank status does not establish that a tree is alive today. ID and tree tag are different identifiers.","uid":"trees-20"},"geometry":{"type":"Point","coordinates":[-123.64371860601702,39.72884889933519]}},{"type":"Feature","properties":{"id":21.0,"Species bi":"PSME","Species":"Douglas fir","Circumfere":33.0,"DBH (cm)":10.5,"Basal area":0.009,"Other note":null,"STATUS":null,"Tree tag #":null,"Basal ar_1":0.009,"Sapflow":null,"RIGGED":null,"EB Sapflow":null,"WJHSapflow":null,"PL Sapflow":null,"JO Isotope":null,"VMSIsotope":null,"BAGGABLE":null,"PRUNEABLE":null,"AccessFrom":null,"species":"Douglas fir","dbh_cm":10.5,"tree_tag":null,"survey_id":21.0,"label":"VMS 21","record_status":"Status unrecorded","dbh_quality":"No estimate flag","source_file":"Maps/VMS Vicinity Tree and Injection Port Survey/2019-05-21 update All Trees VMS Area.shp","location_note":"Historical May 2019 inventory; positions retained as supplied. Blank status does not establish that a tree is alive today. ID and tree tag are different identifiers.","uid":"trees-21"},"geometry":{"type":"Point","coordinates":[-123.64374746644474,39.72882262213595]}},{"type":"Feature","properties":{"id":22.0,"Species bi":"PSME","Species":"Douglas fir","Circumfere":65.0,"DBH (cm)":20.7,"Basal area":0.034,"Other note":null,"STATUS":null,"Tree tag #":null,"Basal ar_1":0.034,"Sapflow":null,"RIGGED":null,"EB Sapflow":null,"WJHSapflow":null,"PL Sapflow":null,"JO Isotope":null,"VMSIsotope":null,"BAGGABLE":null,"PRUNEABLE":null,"AccessFrom":null,"species":"Douglas fir","dbh_cm":20.7,"tree_tag":null,"survey_id":22.0,"label":"VMS 22","record_status":"Status unrecorded","dbh_quality":"No estimate flag","source_file":"Maps/VMS Vicinity Tree and Injection Port Survey/2019-05-21 update All Trees VMS Area.shp","location_note":"Historical May 2019 inventory; positions retained as supplied. Blank status does not establish that a tree is alive today. ID and tree tag are different identifiers.","uid":"trees-22"},"geometry":{"type":"Point","coordinates":[-123.6437716628411,39.728844657048214]}},{"type":"Feature","properties":{"id":23.0,"Species bi":"PSME","Species":"Douglas fir","Circumfere":35.0,"DBH (cm)":11.1,"Basal area":0.01,"Other note":null,"STATUS":null,"Tree tag #":null,"Basal ar_1":0.01,"Sapflow":null,"RIGGED":null,"EB Sapflow":null,"WJHSapflow":null,"PL Sapflow":null,"JO Isotope":null,"VMSIsotope":null,"BAGGABLE":null,"PRUNEABLE":null,"AccessFrom":null,"species":"Douglas fir","dbh_cm":11.1,"tree_tag":null,"survey_id":23.0,"label":"VMS 23","record_status":"Status unrecorded","dbh_quality":"No estimate flag","source_file":"Maps/VMS Vicinity Tree and Injection Port Survey/2019-05-21 update All Trees VMS Area.shp","location_note":"Historical May 2019 inventory; positions retained as supplied. Blank status does not establish that a tree is alive today. ID and tree tag are different identifiers.","uid":"trees-23"},"geometry":{"type":"Point","coordinates":[-123.64376538156522,39.72884590664575]}},{"type":"Feature","properties":{"id":24.0,"Species bi":"PSME","Species":"Douglas fir","Circumfere":38.0,"DBH (cm)":12.1,"Basal area":0.011,"Other note":null,"STATUS":null,"Tree tag #":null,"Basal ar_1":0.011,"Sapflow":null,"RIGGED":null,"EB Sapflow":null,"WJHSapflow":null,"PL Sapflow":null,"JO Isotope":null,"VMSIsotope":null,"BAGGABLE":null,"PRUNEABLE":null,"AccessFrom":null,"species":"Douglas fir","dbh_cm":12.1,"tree_tag":null,"survey_id":24.0,"label":"VMS 24","record_status":"Status unrecorded","dbh_quality":"No estimate flag","source_file":"Maps/VMS Vicinity Tree and Injection Port Survey/2019-05-21 update All Trees VMS Area.shp","location_note":"Historical May 2019 inventory; positions retained as supplied. Blank status does not establish that a tree is alive today. ID and tree tag are different identifiers.","uid":"trees-24"},"geometry":{"type":"Point","coordinates":[-123.64376225785882,39.72884835347277]}},{"type":"Feature","properties":{"id":25.0,"Species bi":"UMCA","Species":"California bay","Circumfere":17.0,"DBH (cm)":5.4,"Basal area":0.002,"Other note":null,"STATUS":null,"Tree tag #":null,"Basal ar_1":0.002,"Sapflow":null,"RIGGED":null,"EB Sapflow":null,"WJHSapflow":null,"PL Sapflow":null,"JO Isotope":null,"VMSIsotope":null,"BAGGABLE":null,"PRUNEABLE":null,"AccessFrom":null,"species":"California bay","dbh_cm":5.4,"tree_tag":null,"survey_id":25.0,"label":"VMS 25","record_status":"Status unrecorded","dbh_quality":"No estimate flag","source_file":"Maps/VMS Vicinity Tree and Injection Port Survey/2019-05-21 update All Trees VMS Area.shp","location_note":"Historical May 2019 inventory; positions retained as supplied. Blank status does not establish that a tree is alive today. ID and tree tag are different identifiers.","uid":"trees-25"},"geometry":{"type":"Point","coordinates":[-123.64375985864022,39.728844115165025]}},{"type":"Feature","properties":{"id":26.0,"Species bi":"QU??","Species":"Live oak","Circumfere":25.0,"DBH (cm)":8.0,"Basal area":0.005,"Other note":null,"STATUS":null,"Tree tag #":null,"Basal ar_1":0.005,"Sapflow":null,"RIGGED":null,"EB Sapflow":null,"WJHSapflow":null,"PL Sapflow":null,"JO Isotope":null,"VMSIsotope":null,"BAGGABLE":null,"PRUNEABLE":null,"AccessFrom":null,"species":"Live oak","dbh_cm":8.0,"tree_tag":null,"survey_id":26.0,"label":"VMS 26","record_status":"Status unrecorded","dbh_quality":"No estimate flag","source_file":"Maps/VMS Vicinity Tree and Injection Port Survey/2019-05-21 update All Trees VMS Area.shp","location_note":"Historical May 2019 inventory; positions retained as supplied. Blank status does not establish that a tree is alive today. ID and tree tag are different identifiers.","uid":"trees-26"},"geometry":{"type":"Point","coordinates":[-123.64375404966282,39.72885386537913]}},{"type":"Feature","properties":{"id":27.0,"Species bi":"ARME","Species":"Pacific madrone","Circumfere":204.0,"DBH (cm)":64.9,"Basal area":0.331,"Other note":null,"STATUS":null,"Tree tag #":649.0,"Basal ar_1":0.331,"Sapflow":null,"RIGGED":null,"EB Sapflow":null,"WJHSapflow":null,"PL Sapflow":null,"JO Isotope":null,"VMSIsotope":null,"BAGGABLE":null,"PRUNEABLE":null,"AccessFrom":null,"species":"Pacific madrone","dbh_cm":64.9,"tree_tag":649.0,"survey_id":27.0,"label":"Tree 649","record_status":"Status unrecorded","dbh_quality":"No estimate flag","source_file":"Maps/VMS Vicinity Tree and Injection Port Survey/2019-05-21 update All Trees VMS Area.shp","location_note":"Historical May 2019 inventory; positions retained as supplied. Blank status does not establish that a tree is alive today. ID and tree tag are different identifiers.","uid":"trees-27"},"geometry":{"type":"Point","coordinates":[-123.64378513331056,39.72885521135811]}},{"type":"Feature","properties":{"id":28.0,"Species bi":"PSME","Species":"Douglas fir","Circumfere":38.0,"DBH (cm)":12.1,"Basal area":0.011,"Other note":null,"STATUS":null,"Tree tag #":650.0,"Basal ar_1":0.011,"Sapflow":null,"RIGGED":null,"EB Sapflow":null,"WJHSapflow":null,"PL Sapflow":null,"JO Isotope":null,"VMSIsotope":null,"BAGGABLE":null,"PRUNEABLE":"TRUE","AccessFrom":null,"species":"Douglas fir","dbh_cm":12.1,"tree_tag":650.0,"survey_id":28.0,"label":"Tree 650","record_status":"Status unrecorded","dbh_quality":"No estimate flag","source_file":"Maps/VMS Vicinity Tree and Injection Port Survey/2019-05-21 update All Trees VMS Area.shp","location_note":"Historical May 2019 inventory; positions retained as supplied. Blank status does not establish that a tree is alive today. ID and tree tag are different identifiers.","uid":"trees-28"},"geometry":{"type":"Point","coordinates":[-123.64380989899527,39.72885385920056]}},{"type":"Feature","properties":{"id":29.0,"Species bi":"PSME","Species":"Douglas fir","Circumfere":59.0,"DBH (cm)":18.8,"Basal area":0.028,"Other note":null,"STATUS":null,"Tree tag #":651.0,"Basal ar_1":0.028,"Sapflow":null,"RIGGED":null,"EB Sapflow":null,"WJHSapflow":null,"PL Sapflow":null,"JO Isotope":null,"VMSIsotope":null,"BAGGABLE":null,"PRUNEABLE":null,"AccessFrom":null,"species":"Douglas fir","dbh_cm":18.8,"tree_tag":651.0,"survey_id":29.0,"label":"Tree 651","record_status":"Status unrecorded","dbh_quality":"No estimate flag","source_file":"Maps/VMS Vicinity Tree and Injection Port Survey/2019-05-21 update All Trees VMS Area.shp","location_note":"Historical May 2019 inventory; positions retained as supplied. Blank status does not establish that a tree is alive today. ID and tree tag are different identifiers.","uid":"trees-29"},"geometry":{"type":"Point","coordinates":[-123.64381219944151,39.728847469008414]}},{"type":"Feature","properties":{"id":30.0,"Species bi":"PSME","Species":"Douglas fir","Circumfere":216.0,"DBH (cm)":68.8,"Basal area":0.371,"Other note":"X-RAY sapflow (Eren)","STATUS":null,"Tree tag #":27.0,"Basal ar_1":0.371,"Sapflow":"XRAY sapflow","RIGGED":null,"EB Sapflow":"XRAY","WJHSapflow":null,"PL Sapflow":"15","JO Isotope":"27","VMSIsotope":null,"BAGGABLE":null,"PRUNEABLE":null,"AccessFrom":null,"species":"Douglas fir","dbh_cm":68.8,"tree_tag":27.0,"survey_id":30.0,"label":"Tree 27","record_status":"Status unrecorded","dbh_quality":"No estimate flag","source_file":"Maps/VMS Vicinity Tree and Injection Port Survey/2019-05-21 update All Trees VMS Area.shp","location_note":"Historical May 2019 inventory; positions retained as supplied. Blank status does not establish that a tree is alive today. ID and tree tag are different identifiers.","uid":"trees-30"},"geometry":{"type":"Point","coordinates":[-123.64385137555975,39.7288308525321]}},{"type":"Feature","properties":{"id":31.0,"Species bi":"NODE","Species":"Tan oak","Circumfere":24.0,"DBH (cm)":7.6,"Basal area":0.005,"Other note":null,"STATUS":null,"Tree tag #":647.0,"Basal ar_1":0.005,"Sapflow":null,"RIGGED":null,"EB Sapflow":null,"WJHSapflow":null,"PL Sapflow":null,"JO Isotope":null,"VMSIsotope":null,"BAGGABLE":"TRUE","PRUNEABLE":"TRUE","AccessFrom":null,"species":"Tan oak","dbh_cm":7.6,"tree_tag":647.0,"survey_id":31.0,"label":"Tree 647","record_status":"Status unrecorded","dbh_quality":"No estimate flag","source_file":"Maps/VMS Vicinity Tree and Injection Port Survey/2019-05-21 update All Trees VMS Area.shp","location_note":"Historical May 2019 inventory; positions retained as supplied. Blank status does not establish that a tree is alive today. ID and tree tag are different identifiers.","uid":"trees-31"},"geometry":{"type":"Point","coordinates":[-123.64382600211019,39.72880912785454]}},{"type":"Feature","properties":{"id":32.0,"Species bi":"NODE","Species":"Tan oak","Circumfere":18.0,"DBH (cm)":5.7,"Basal area":0.003,"Other note":null,"STATUS":"dead","Tree tag #":null,"Basal ar_1":0.0,"Sapflow":null,"RIGGED":null,"EB Sapflow":null,"WJHSapflow":null,"PL Sapflow":null,"JO Isotope":null,"VMSIsotope":null,"BAGGABLE":null,"PRUNEABLE":null,"AccessFrom":null,"species":"Tan oak","dbh_cm":5.7,"tree_tag":null,"survey_id":32.0,"label":"VMS 32","record_status":"Recorded dead","dbh_quality":"No estimate flag","source_file":"Maps/VMS Vicinity Tree and Injection Port Survey/2019-05-21 update All Trees VMS Area.shp","location_note":"Historical May 2019 inventory; positions retained as supplied. Blank status does not establish that a tree is alive today. ID and tree tag are different identifiers.","uid":"trees-32"},"geometry":{"type":"Point","coordinates":[-123.64383738197549,39.72880633152793]}},{"type":"Feature","properties":{"id":33.0,"Species bi":"NODE","Species":"Tan oak","Circumfere":20.0,"DBH (cm)":6.4,"Basal area":0.003,"Other note":null,"STATUS":null,"Tree tag #":648.0,"Basal ar_1":0.003,"Sapflow":null,"RIGGED":null,"EB Sapflow":null,"WJHSapflow":null,"PL Sapflow":null,"JO Isotope":null,"VMSIsotope":null,"BAGGABLE":null,"PRUNEABLE":"TRUE","AccessFrom":null,"species":"Tan oak","dbh_cm":6.4,"tree_tag":648.0,"survey_id":33.0,"label":"Tree 648","record_status":"Status unrecorded","dbh_quality":"No estimate flag","source_file":"Maps/VMS Vicinity Tree and Injection Port Survey/2019-05-21 update All Trees VMS Area.shp","location_note":"Historical May 2019 inventory; positions retained as supplied. Blank status does not establish that a tree is alive today. ID and tree tag are different identifiers.","uid":"trees-33"},"geometry":{"type":"Point","coordinates":[-123.64384015754881,39.72880874562347]}},{"type":"Feature","properties":{"id":34.0,"Species bi":"NODE","Species":"Tan oak","Circumfere":62.0,"DBH (cm)":19.7,"Basal area":0.031,"Other note":null,"STATUS":null,"Tree tag #":38.0,"Basal ar_1":0.031,"Sapflow":null,"RIGGED":null,"EB Sapflow":null,"WJHSapflow":null,"PL Sapflow":null,"JO Isotope":null,"VMSIsotope":null,"BAGGABLE":null,"PRUNEABLE":"TRUE","AccessFrom":null,"species":"Tan oak","dbh_cm":19.7,"tree_tag":38.0,"survey_id":34.0,"label":"Tree 38","record_status":"Status unrecorded","dbh_quality":"No estimate flag","source_file":"Maps/VMS Vicinity Tree and Injection Port Survey/2019-05-21 update All Trees VMS Area.shp","location_note":"Historical May 2019 inventory; positions retained as supplied. Blank status does not establish that a tree is alive today. ID and tree tag are different identifiers.","uid":"trees-34"},"geometry":{"type":"Point","coordinates":[-123.64382775512054,39.72872113229236]}},{"type":"Feature","properties":{"id":35.0,"Species bi":"NODE","Species":"Tan oak","Circumfere":109.0,"DBH (cm)":34.7,"Basal area":0.095,"Other note":null,"STATUS":null,"Tree tag #":673.0,"Basal ar_1":0.095,"Sapflow":null,"RIGGED":null,"EB Sapflow":null,"WJHSapflow":null,"PL Sapflow":null,"JO Isotope":null,"VMSIsotope":null,"BAGGABLE":null,"PRUNEABLE":"TRUE","AccessFrom":"possibly accessed from 643","species":"Tan oak","dbh_cm":34.7,"tree_tag":673.0,"survey_id":35.0,"label":"Tree 673","record_status":"Status unrecorded","dbh_quality":"No estimate flag","source_file":"Maps/VMS Vicinity Tree and Injection Port Survey/2019-05-21 update All Trees VMS Area.shp","location_note":"Historical May 2019 inventory; positions retained as supplied. Blank status does not establish that a tree is alive today. ID and tree tag are different identifiers.","uid":"trees-35"},"geometry":{"type":"Point","coordinates":[-123.64382723835625,39.72872637478598]}},{"type":"Feature","properties":{"id":36.0,"Species bi":"NODE","Species":"Tan oak","Circumfere":66.0,"DBH (cm)":21.0,"Basal area":0.035,"Other note":"Former sapflow","STATUS":null,"Tree tag #":674.0,"Basal ar_1":0.035,"Sapflow":null,"RIGGED":null,"EB Sapflow":null,"WJHSapflow":null,"PL Sapflow":null,"JO Isotope":null,"VMSIsotope":null,"BAGGABLE":null,"PRUNEABLE":null,"AccessFrom":null,"species":"Tan oak","dbh_cm":21.0,"tree_tag":674.0,"survey_id":36.0,"label":"Tree 674","record_status":"Status unrecorded","dbh_quality":"No estimate flag","source_file":"Maps/VMS Vicinity Tree and Injection Port Survey/2019-05-21 update All Trees VMS Area.shp","location_note":"Historical May 2019 inventory; positions retained as supplied. Blank status does not establish that a tree is alive today. ID and tree tag are different identifiers.","uid":"trees-36"},"geometry":{"type":"Point","coordinates":[-123.64383021606452,39.728730375310555]}},{"type":"Feature","properties":{"id":37.0,"Species bi":"NODE","Species":"Tan oak","Circumfere":34.0,"DBH (cm)":10.8,"Basal area":0.009,"Other note":null,"STATUS":"dead","Tree tag #":null,"Basal ar_1":0.0,"Sapflow":null,"RIGGED":null,"EB Sapflow":null,"WJHSapflow":null,"PL Sapflow":null,"JO Isotope":null,"VMSIsotope":null,"BAGGABLE":null,"PRUNEABLE":null,"AccessFrom":null,"species":"Tan oak","dbh_cm":10.8,"tree_tag":null,"survey_id":37.0,"label":"VMS 37","record_status":"Recorded dead","dbh_quality":"No estimate flag","source_file":"Maps/VMS Vicinity Tree and Injection Port Survey/2019-05-21 update All Trees VMS Area.shp","location_note":"Historical May 2019 inventory; positions retained as supplied. Blank status does not establish that a tree is alive today. ID and tree tag are different identifiers.","uid":"trees-37"},"geometry":{"type":"Point","coordinates":[-123.64383662900207,39.72872675931592]}},{"type":"Feature","properties":{"id":38.0,"Species bi":"NODE","Species":"Tan oak","Circumfere":39.0,"DBH (cm)":12.4,"Basal area":0.012,"Other note":null,"STATUS":null,"Tree tag #":675.0,"Basal ar_1":0.012,"Sapflow":null,"RIGGED":null,"EB Sapflow":null,"WJHSapflow":null,"PL Sapflow":null,"JO Isotope":null,"VMSIsotope":null,"BAGGABLE":null,"PRUNEABLE":null,"AccessFrom":null,"species":"Tan oak","dbh_cm":12.4,"tree_tag":675.0,"survey_id":38.0,"label":"Tree 675","record_status":"Status unrecorded","dbh_quality":"No estimate flag","source_file":"Maps/VMS Vicinity Tree and Injection Port Survey/2019-05-21 update All Trees VMS Area.shp","location_note":"Historical May 2019 inventory; positions retained as supplied. Blank status does not establish that a tree is alive today. ID and tree tag are different identifiers.","uid":"trees-38"},"geometry":{"type":"Point","coordinates":[-123.64382932322025,39.728743828638734]}},{"type":"Feature","properties":{"id":39.0,"Species bi":"PSME","Species":"Douglas fir","Circumfere":275.0,"DBH (cm)":87.5,"Basal area":0.602,"Other note":null,"STATUS":null,"Tree tag #":643.0,"Basal ar_1":0.602,"Sapflow":null,"RIGGED":"TRUE","EB Sapflow":null,"WJHSapflow":null,"PL Sapflow":null,"JO Isotope":null,"VMSIsotope":null,"BAGGABLE":null,"PRUNEABLE":null,"AccessFrom":null,"species":"Douglas fir","dbh_cm":87.5,"tree_tag":643.0,"survey_id":39.0,"label":"Tree 643","record_status":"Status unrecorded","dbh_quality":"No estimate flag","source_file":"Maps/VMS Vicinity Tree and Injection Port Survey/2019-05-21 update All Trees VMS Area.shp","location_note":"Historical May 2019 inventory; positions retained as supplied. Blank status does not establish that a tree is alive today. ID and tree tag are different identifiers.","uid":"trees-39"},"geometry":{"type":"Point","coordinates":[-123.64382325738343,39.7287604544456]}},{"type":"Feature","properties":{"id":40.0,"Species bi":"PSME","Species":"Douglas fir","Circumfere":69.0,"DBH (cm)":22.0,"Basal area":0.038,"Other note":null,"STATUS":null,"Tree tag #":644.0,"Basal ar_1":0.038,"Sapflow":null,"RIGGED":null,"EB Sapflow":null,"WJHSapflow":null,"PL Sapflow":null,"JO Isotope":null,"VMSIsotope":null,"BAGGABLE":null,"PRUNEABLE":null,"AccessFrom":null,"species":"Douglas fir","dbh_cm":22.0,"tree_tag":644.0,"survey_id":40.0,"label":"Tree 644","record_status":"Status unrecorded","dbh_quality":"No estimate flag","source_file":"Maps/VMS Vicinity Tree and Injection Port Survey/2019-05-21 update All Trees VMS Area.shp","location_note":"Historical May 2019 inventory; positions retained as supplied. Blank status does not establish that a tree is alive today. ID and tree tag are different identifiers.","uid":"trees-40"},"geometry":{"type":"Point","coordinates":[-123.64382502517152,39.728768129422015]}},{"type":"Feature","properties":{"id":41.0,"Species bi":"NODE","Species":"Tan oak","Circumfere":84.0,"DBH (cm)":26.7,"Basal area":0.056,"Other note":null,"STATUS":null,"Tree tag #":672.0,"Basal ar_1":0.056,"Sapflow":null,"RIGGED":null,"EB Sapflow":null,"WJHSapflow":null,"PL Sapflow":null,"JO Isotope":null,"VMSIsotope":null,"BAGGABLE":null,"PRUNEABLE":null,"AccessFrom":null,"species":"Tan oak","dbh_cm":26.7,"tree_tag":672.0,"survey_id":41.0,"label":"Tree 672","record_status":"Status unrecorded","dbh_quality":"No estimate flag","source_file":"Maps/VMS Vicinity Tree and Injection Port Survey/2019-05-21 update All Trees VMS Area.shp","location_note":"Historical May 2019 inventory; positions retained as supplied. Blank status does not establish that a tree is alive today. ID and tree tag are different identifiers.","uid":"trees-41"},"geometry":{"type":"Point","coordinates":[-123.64385352638003,39.728780371725186]}},{"type":"Feature","properties":{"id":42.0,"Species bi":"NODE","Species":"Tan oak","Circumfere":41.0,"DBH (cm)":13.1,"Basal area":0.013,"Other note":null,"STATUS":"dead","Tree tag #":null,"Basal ar_1":0.0,"Sapflow":null,"RIGGED":null,"EB Sapflow":null,"WJHSapflow":null,"PL Sapflow":null,"JO Isotope":null,"VMSIsotope":null,"BAGGABLE":null,"PRUNEABLE":null,"AccessFrom":null,"species":"Tan oak","dbh_cm":13.1,"tree_tag":null,"survey_id":42.0,"label":"VMS 42","record_status":"Recorded dead","dbh_quality":"No estimate flag","source_file":"Maps/VMS Vicinity Tree and Injection Port Survey/2019-05-21 update All Trees VMS Area.shp","location_note":"Historical May 2019 inventory; positions retained as supplied. Blank status does not establish that a tree is alive today. ID and tree tag are different identifiers.","uid":"trees-42"},"geometry":{"type":"Point","coordinates":[-123.64387998900135,39.72874363482833]}},{"type":"Feature","properties":{"id":43.0,"Species bi":"NODE","Species":"Tan oak","Circumfere":92.0,"DBH (cm)":29.3,"Basal area":0.067,"Other note":null,"STATUS":null,"Tree tag #":37620.0,"Basal ar_1":0.067,"Sapflow":null,"RIGGED":null,"EB Sapflow":null,"WJHSapflow":"37/620","PL Sapflow":null,"JO Isotope":null,"VMSIsotope":null,"BAGGABLE":null,"PRUNEABLE":"TRUE","AccessFrom":null,"species":"Tan oak","dbh_cm":29.3,"tree_tag":37620.0,"survey_id":43.0,"label":"Tree 37620","record_status":"Status unrecorded","dbh_quality":"No estimate flag","source_file":"Maps/VMS Vicinity Tree and Injection Port Survey/2019-05-21 update All Trees VMS Area.shp","location_note":"Historical May 2019 inventory; positions retained as supplied. Blank status does not establish that a tree is alive today. ID and tree tag are different identifiers.","uid":"trees-43"},"geometry":{"type":"Point","coordinates":[-123.64388632536901,39.72874394897555]}},{"type":"Feature","properties":{"id":44.0,"Species bi":"ARME","Species":"Pacific madrone","Circumfere":31.0,"DBH (cm)":9.9,"Basal area":0.008,"Other note":null,"STATUS":"dead","Tree tag #":null,"Basal ar_1":0.0,"Sapflow":null,"RIGGED":null,"EB Sapflow":null,"WJHSapflow":null,"PL Sapflow":null,"JO Isotope":null,"VMSIsotope":null,"BAGGABLE":null,"PRUNEABLE":null,"AccessFrom":null,"species":"Pacific madrone","dbh_cm":9.9,"tree_tag":null,"survey_id":44.0,"label":"VMS 44","record_status":"Recorded dead","dbh_quality":"No estimate flag","source_file":"Maps/VMS Vicinity Tree and Injection Port Survey/2019-05-21 update All Trees VMS Area.shp","location_note":"Historical May 2019 inventory; positions retained as supplied. Blank status does not establish that a tree is alive today. ID and tree tag are different identifiers.","uid":"trees-44"},"geometry":{"type":"Point","coordinates":[-123.64391251280281,39.728750615169076]}},{"type":"Feature","properties":{"id":45.0,"Species bi":"ARME","Species":"Pacific madrone","Circumfere":173.0,"DBH (cm)":55.1,"Basal area":0.238,"Other note":"WHISKEY sapflow (Eren)","STATUS":null,"Tree tag #":36.0,"Basal ar_1":0.238,"Sapflow":"WHISKEY sapflow","RIGGED":null,"EB Sapflow":"WHISKEY","WJHSapflow":null,"PL Sapflow":"19","JO Isotope":null,"VMSIsotope":null,"BAGGABLE":null,"PRUNEABLE":null,"AccessFrom":null,"species":"Pacific madrone","dbh_cm":55.1,"tree_tag":36.0,"survey_id":45.0,"label":"Tree 36","record_status":"Status unrecorded","dbh_quality":"No estimate flag","source_file":"Maps/VMS Vicinity Tree and Injection Port Survey/2019-05-21 update All Trees VMS Area.shp","location_note":"Historical May 2019 inventory; positions retained as supplied. Blank status does not establish that a tree is alive today. ID and tree tag are different identifiers.","uid":"trees-45"},"geometry":{"type":"Point","coordinates":[-123.6439204405683,39.72875179375422]}},{"type":"Feature","properties":{"id":46.0,"Species bi":"NODE","Species":"Tan oak","Circumfere":61.0,"DBH (cm)":19.4,"Basal area":0.03,"Other note":"red flagging","STATUS":null,"Tree tag #":35.0,"Basal ar_1":0.03,"Sapflow":null,"RIGGED":null,"EB Sapflow":null,"WJHSapflow":null,"PL Sapflow":"20","JO Isotope":null,"VMSIsotope":null,"BAGGABLE":null,"PRUNEABLE":"TRUE","AccessFrom":null,"species":"Tan oak","dbh_cm":19.4,"tree_tag":35.0,"survey_id":46.0,"label":"Tree 35","record_status":"Status unrecorded","dbh_quality":"No estimate flag","source_file":"Maps/VMS Vicinity Tree and Injection Port Survey/2019-05-21 update All Trees VMS Area.shp","location_note":"Historical May 2019 inventory; positions retained as supplied. Blank status does not establish that a tree is alive today. ID and tree tag are different identifiers.","uid":"trees-46"},"geometry":{"type":"Point","coordinates":[-123.64392589087359,39.728754121339804]}},{"type":"Feature","properties":{"id":47.0,"Species bi":"UMCA","Species":"California bay","Circumfere":68.0,"DBH (cm)":21.6,"Basal area":0.037,"Other note":"could be mis- identified","STATUS":null,"Tree tag #":671.0,"Basal ar_1":0.037,"Sapflow":null,"RIGGED":null,"EB Sapflow":null,"WJHSapflow":null,"PL Sapflow":null,"JO Isotope":null,"VMSIsotope":null,"BAGGABLE":null,"PRUNEABLE":null,"AccessFrom":null,"species":"California bay","dbh_cm":21.6,"tree_tag":671.0,"survey_id":47.0,"label":"Tree 671","record_status":"Status unrecorded","dbh_quality":"No estimate flag","source_file":"Maps/VMS Vicinity Tree and Injection Port Survey/2019-05-21 update All Trees VMS Area.shp","location_note":"Historical May 2019 inventory; positions retained as supplied. Blank status does not establish that a tree is alive today. ID and tree tag are different identifiers.","uid":"trees-47"},"geometry":{"type":"Point","coordinates":[-123.64398222529339,39.72874324211996]}},{"type":"Feature","properties":{"id":48.0,"Species bi":"QU??","Species":"Live oak","Circumfere":135.0,"DBH (cm)":43.0,"Basal area":0.145,"Other note":null,"STATUS":null,"Tree tag #":34.0,"Basal ar_1":0.145,"Sapflow":null,"RIGGED":null,"EB Sapflow":null,"WJHSapflow":null,"PL Sapflow":"17","JO Isotope":"L3A","VMSIsotope":null,"BAGGABLE":null,"PRUNEABLE":null,"AccessFrom":null,"species":"Live oak","dbh_cm":43.0,"tree_tag":34.0,"survey_id":48.0,"label":"Tree 34","record_status":"Status unrecorded","dbh_quality":"No estimate flag","source_file":"Maps/VMS Vicinity Tree and Injection Port Survey/2019-05-21 update All Trees VMS Area.shp","location_note":"Historical May 2019 inventory; positions retained as supplied. Blank status does not establish that a tree is alive today. ID and tree tag are different identifiers.","uid":"trees-48"},"geometry":{"type":"Point","coordinates":[-123.6439944029382,39.72876360907611]}},{"type":"Feature","properties":{"id":49.0,"Species bi":"QU??","Species":"Live oak","Circumfere":148.0,"DBH (cm)":47.1,"Basal area":0.174,"Other note":null,"STATUS":null,"Tree tag #":670.0,"Basal ar_1":0.174,"Sapflow":null,"RIGGED":null,"EB Sapflow":null,"WJHSapflow":null,"PL Sapflow":null,"JO Isotope":null,"VMSIsotope":null,"BAGGABLE":null,"PRUNEABLE":null,"AccessFrom":null,"species":"Live oak","dbh_cm":47.1,"tree_tag":670.0,"survey_id":49.0,"label":"Tree 670","record_status":"Status unrecorded","dbh_quality":"No estimate flag","source_file":"Maps/VMS Vicinity Tree and Injection Port Survey/2019-05-21 update All Trees VMS Area.shp","location_note":"Historical May 2019 inventory; positions retained as supplied. Blank status does not establish that a tree is alive today. ID and tree tag are different identifiers.","uid":"trees-49"},"geometry":{"type":"Point","coordinates":[-123.64399154698228,39.728772706945605]}},{"type":"Feature","properties":{"id":50.0,"Species bi":"UMCA","Species":"California bay","Circumfere":102.0,"DBH (cm)":32.5,"Basal area":0.083,"Other note":null,"STATUS":null,"Tree tag #":31.0,"Basal ar_1":0.083,"Sapflow":null,"RIGGED":null,"EB Sapflow":null,"WJHSapflow":null,"PL Sapflow":"18","JO Isotope":null,"VMSIsotope":null,"BAGGABLE":null,"PRUNEABLE":null,"AccessFrom":null,"species":"California bay","dbh_cm":32.5,"tree_tag":31.0,"survey_id":50.0,"label":"Tree 31","record_status":"Status unrecorded","dbh_quality":"No estimate flag","source_file":"Maps/VMS Vicinity Tree and Injection Port Survey/2019-05-21 update All Trees VMS Area.shp","location_note":"Historical May 2019 inventory; positions retained as supplied. Blank status does not establish that a tree is alive today. ID and tree tag are different identifiers.","uid":"trees-50"},"geometry":{"type":"Point","coordinates":[-123.64393135388161,39.72879320131103]}},{"type":"Feature","properties":{"id":51.0,"Species bi":"UMCA","Species":"California bay","Circumfere":79.0,"DBH (cm)":25.1,"Basal area":0.05,"Other note":null,"STATUS":null,"Tree tag #":null,"Basal ar_1":0.05,"Sapflow":null,"RIGGED":null,"EB Sapflow":null,"WJHSapflow":null,"PL Sapflow":null,"JO Isotope":null,"VMSIsotope":null,"BAGGABLE":null,"PRUNEABLE":null,"AccessFrom":null,"species":"California bay","dbh_cm":25.1,"tree_tag":null,"survey_id":51.0,"label":"VMS 51","record_status":"Status unrecorded","dbh_quality":"No estimate flag","source_file":"Maps/VMS Vicinity Tree and Injection Port Survey/2019-05-21 update All Trees VMS Area.shp","location_note":"Historical May 2019 inventory; positions retained as supplied. Blank status does not establish that a tree is alive today. ID and tree tag are different identifiers.","uid":"trees-51"},"geometry":{"type":"Point","coordinates":[-123.6439261987997,39.728795345362784]}},{"type":"Feature","properties":{"id":52.0,"Species bi":"NODE","Species":"Tan oak","Circumfere":93.0,"DBH (cm)":29.6,"Basal area":0.069,"Other note":null,"STATUS":null,"Tree tag #":669.0,"Basal ar_1":0.069,"Sapflow":null,"RIGGED":null,"EB Sapflow":null,"WJHSapflow":null,"PL Sapflow":null,"JO Isotope":null,"VMSIsotope":null,"BAGGABLE":null,"PRUNEABLE":null,"AccessFrom":null,"species":"Tan oak","dbh_cm":29.6,"tree_tag":669.0,"survey_id":52.0,"label":"Tree 669","record_status":"Status unrecorded","dbh_quality":"No estimate flag","source_file":"Maps/VMS Vicinity Tree and Injection Port Survey/2019-05-21 update All Trees VMS Area.shp","location_note":"Historical May 2019 inventory; positions retained as supplied. Blank status does not establish that a tree is alive today. ID and tree tag are different identifiers.","uid":"trees-52"},"geometry":{"type":"Point","coordinates":[-123.64394420627126,39.728800416513586]}},{"type":"Feature","properties":{"id":53.0,"Species bi":"PSME","Species":"Douglas fir","Circumfere":85.0,"DBH (cm)":27.1,"Basal area":0.057,"Other note":null,"STATUS":null,"Tree tag #":652.0,"Basal ar_1":0.057,"Sapflow":null,"RIGGED":null,"EB Sapflow":null,"WJHSapflow":null,"PL Sapflow":null,"JO Isotope":null,"VMSIsotope":null,"BAGGABLE":null,"PRUNEABLE":null,"AccessFrom":null,"species":"Douglas fir","dbh_cm":27.1,"tree_tag":652.0,"survey_id":53.0,"label":"Tree 652","record_status":"Status unrecorded","dbh_quality":"No estimate flag","source_file":"Maps/VMS Vicinity Tree and Injection Port Survey/2019-05-21 update All Trees VMS Area.shp","location_note":"Historical May 2019 inventory; positions retained as supplied. Blank status does not establish that a tree is alive today. ID and tree tag are different identifiers.","uid":"trees-53"},"geometry":{"type":"Point","coordinates":[-123.6438867662948,39.72884327919171]}},{"type":"Feature","properties":{"id":54.0,"Species bi":"PSME","Species":"Douglas fir","Circumfere":29.0,"DBH (cm)":9.2,"Basal area":0.007,"Other note":null,"STATUS":"dead","Tree tag #":null,"Basal ar_1":0.0,"Sapflow":null,"RIGGED":null,"EB Sapflow":null,"WJHSapflow":null,"PL Sapflow":null,"JO Isotope":null,"VMSIsotope":null,"BAGGABLE":null,"PRUNEABLE":null,"AccessFrom":null,"species":"Douglas fir","dbh_cm":9.2,"tree_tag":null,"survey_id":54.0,"label":"VMS 54","record_status":"Recorded dead","dbh_quality":"No estimate flag","source_file":"Maps/VMS Vicinity Tree and Injection Port Survey/2019-05-21 update All Trees VMS Area.shp","location_note":"Historical May 2019 inventory; positions retained as supplied. Blank status does not establish that a tree is alive today. ID and tree tag are different identifiers.","uid":"trees-54"},"geometry":{"type":"Point","coordinates":[-123.643883439774,39.728845648143874]}},{"type":"Feature","properties":{"id":55.0,"Species bi":"NODE","Species":"Tan oak","Circumfere":117.0,"DBH (cm)":37.2,"Basal area":0.109,"Other note":"This tree has two trunks. labeled on the basemap (from the Total station survey) as 'tree live oak sampled'. This is actually a tan oak!","STATUS":null,"Tree tag #":653.0,"Basal ar_1":0.109,"Sapflow":null,"RIGGED":null,"EB Sapflow":null,"WJHSapflow":null,"PL Sapflow":null,"JO Isotope":null,"VMSIsotope":null,"BAGGABLE":"TRUE","PRUNEABLE":"TRUE","AccessFrom":null,"species":"Tan oak","dbh_cm":37.2,"tree_tag":653.0,"survey_id":55.0,"label":"Tree 653","record_status":"Status unrecorded","dbh_quality":"No estimate flag","source_file":"Maps/VMS Vicinity Tree and Injection Port Survey/2019-05-21 update All Trees VMS Area.shp","location_note":"Historical May 2019 inventory; positions retained as supplied. Blank status does not establish that a tree is alive today. ID and tree tag are different identifiers.","uid":"trees-55"},"geometry":{"type":"Point","coordinates":[-123.64388892765741,39.728846557888]}},{"type":"Feature","properties":{"id":56.0,"Species bi":"NODE","Species":"Tan oak","Circumfere":70.0,"DBH (cm)":22.3,"Basal area":0.039,"Other note":null,"STATUS":null,"Tree tag #":null,"Basal ar_1":0.039,"Sapflow":null,"RIGGED":null,"EB Sapflow":null,"WJHSapflow":null,"PL Sapflow":null,"JO Isotope":null,"VMSIsotope":null,"BAGGABLE":null,"PRUNEABLE":null,"AccessFrom":null,"species":"Tan oak","dbh_cm":22.3,"tree_tag":null,"survey_id":56.0,"label":"VMS 56","record_status":"Status unrecorded","dbh_quality":"No estimate flag","source_file":"Maps/VMS Vicinity Tree and Injection Port Survey/2019-05-21 update All Trees VMS Area.shp","location_note":"Historical May 2019 inventory; positions retained as supplied. Blank status does not establish that a tree is alive today. ID and tree tag are different identifiers.","uid":"trees-56"},"geometry":{"type":"Point","coordinates":[-123.64389503962707,39.72884910951369]}},{"type":"Feature","properties":{"id":57.0,"Species bi":"NODE","Species":"Tan oak","Circumfere":16.0,"DBH (cm)":5.1,"Basal area":0.002,"Other note":null,"STATUS":null,"Tree tag #":null,"Basal ar_1":0.002,"Sapflow":null,"RIGGED":null,"EB Sapflow":null,"WJHSapflow":null,"PL Sapflow":null,"JO Isotope":null,"VMSIsotope":null,"BAGGABLE":null,"PRUNEABLE":null,"AccessFrom":null,"species":"Tan oak","dbh_cm":5.1,"tree_tag":null,"survey_id":57.0,"label":"VMS 57","record_status":"Status unrecorded","dbh_quality":"No estimate flag","source_file":"Maps/VMS Vicinity Tree and Injection Port Survey/2019-05-21 update All Trees VMS Area.shp","location_note":"Historical May 2019 inventory; positions retained as supplied. Blank status does not establish that a tree is alive today. ID and tree tag are different identifiers.","uid":"trees-57"},"geometry":{"type":"Point","coordinates":[-123.64389327222919,39.728855465652096]}},{"type":"Feature","properties":{"id":58.0,"Species bi":"ARME","Species":"Pacific madrone","Circumfere":105.0,"DBH (cm)":33.4,"Basal area":0.088,"Other note":null,"STATUS":"dead","Tree tag #":null,"Basal ar_1":0.0,"Sapflow":null,"RIGGED":null,"EB Sapflow":null,"WJHSapflow":null,"PL Sapflow":null,"JO Isotope":null,"VMSIsotope":null,"BAGGABLE":null,"PRUNEABLE":null,"AccessFrom":null,"species":"Pacific madrone","dbh_cm":33.4,"tree_tag":null,"survey_id":58.0,"label":"VMS 58","record_status":"Recorded dead","dbh_quality":"No estimate flag","source_file":"Maps/VMS Vicinity Tree and Injection Port Survey/2019-05-21 update All Trees VMS Area.shp","location_note":"Historical May 2019 inventory; positions retained as supplied. Blank status does not establish that a tree is alive today. ID and tree tag are different identifiers.","uid":"trees-58"},"geometry":{"type":"Point","coordinates":[-123.64400842879962,39.72873401123369]}},{"type":"Feature","properties":{"id":59.0,"Species bi":"UMCA","Species":"California bay","Circumfere":50.0,"DBH (cm)":15.9,"Basal area":0.02,"Other note":"possibly mis-identified","STATUS":null,"Tree tag #":null,"Basal ar_1":0.02,"Sapflow":null,"RIGGED":null,"EB Sapflow":null,"WJHSapflow":null,"PL Sapflow":null,"JO Isotope":null,"VMSIsotope":null,"BAGGABLE":null,"PRUNEABLE":null,"AccessFrom":null,"species":"California bay","dbh_cm":15.9,"tree_tag":null,"survey_id":59.0,"label":"VMS 59","record_status":"Status unrecorded","dbh_quality":"No estimate flag","source_file":"Maps/VMS Vicinity Tree and Injection Port Survey/2019-05-21 update All Trees VMS Area.shp","location_note":"Historical May 2019 inventory; positions retained as supplied. Blank status does not establish that a tree is alive today. ID and tree tag are different identifiers.","uid":"trees-59"},"geometry":{"type":"Point","coordinates":[-123.64401033820756,39.72874293250916]}},{"type":"Feature","properties":{"id":60.0,"Species bi":"QU??","Species":"Live oak","Circumfere":60.0,"DBH (cm)":19.1,"Basal area":0.029,"Other note":null,"STATUS":null,"Tree tag #":32.0,"Basal ar_1":0.029,"Sapflow":null,"RIGGED":null,"EB Sapflow":null,"WJHSapflow":null,"PL Sapflow":null,"JO Isotope":null,"VMSIsotope":null,"BAGGABLE":null,"PRUNEABLE":"TRUE","AccessFrom":null,"species":"Live oak","dbh_cm":19.1,"tree_tag":32.0,"survey_id":60.0,"label":"Tree 32","record_status":"Status unrecorded","dbh_quality":"No estimate flag","source_file":"Maps/VMS Vicinity Tree and Injection Port Survey/2019-05-21 update All Trees VMS Area.shp","location_note":"Historical May 2019 inventory; positions retained as supplied. Blank status does not establish that a tree is alive today. ID and tree tag are different identifiers.","uid":"trees-60"},"geometry":{"type":"Point","coordinates":[-123.64407029557498,39.72874165952084]}},{"type":"Feature","properties":{"id":61.0,"Species bi":"PSME","Species":"Douglas fir","Circumfere":16.0,"DBH (cm)":5.1,"Basal area":0.002,"Other note":null,"STATUS":null,"Tree tag #":94.0,"Basal ar_1":0.002,"Sapflow":null,"RIGGED":null,"EB Sapflow":null,"WJHSapflow":null,"PL Sapflow":null,"JO Isotope":null,"VMSIsotope":null,"BAGGABLE":null,"PRUNEABLE":null,"AccessFrom":null,"species":"Douglas fir","dbh_cm":5.1,"tree_tag":94.0,"survey_id":61.0,"label":"Tree 94","record_status":"Status unrecorded","dbh_quality":"No estimate flag","source_file":"Maps/VMS Vicinity Tree and Injection Port Survey/2019-05-21 update All Trees VMS Area.shp","location_note":"Historical May 2019 inventory; positions retained as supplied. Blank status does not establish that a tree is alive today. ID and tree tag are different identifiers.","uid":"trees-61"},"geometry":{"type":"Point","coordinates":[-123.64406850918607,39.72871322847241]}},{"type":"Feature","properties":{"id":62.0,"Species bi":"QU??","Species":"Live oak","Circumfere":105.0,"DBH (cm)":33.4,"Basal area":0.088,"Other note":"spring dendrometer band (jesse)","STATUS":null,"Tree tag #":296.0,"Basal ar_1":0.088,"Sapflow":null,"RIGGED":"TRUE","EB Sapflow":null,"WJHSapflow":"296","PL Sapflow":"TRUE, id unknown/unreported","JO Isotope":null,"VMSIsotope":null,"BAGGABLE":null,"PRUNEABLE":null,"AccessFrom":null,"species":"Live oak","dbh_cm":33.4,"tree_tag":296.0,"survey_id":62.0,"label":"Tree 296","record_status":"Status unrecorded","dbh_quality":"No estimate flag","source_file":"Maps/VMS Vicinity Tree and Injection Port Survey/2019-05-21 update All Trees VMS Area.shp","location_note":"Historical May 2019 inventory; positions retained as supplied. Blank status does not establish that a tree is alive today. ID and tree tag are different identifiers.","uid":"trees-62"},"geometry":{"type":"Point","coordinates":[-123.64407823326884,39.72877687285403]}},{"type":"Feature","properties":{"id":63.0,"Species bi":"QU??","Species":"Live oak","Circumfere":94.0,"DBH (cm)":29.9,"Basal area":0.07,"Other note":null,"STATUS":null,"Tree tag #":667.0,"Basal ar_1":0.07,"Sapflow":null,"RIGGED":null,"EB Sapflow":null,"WJHSapflow":null,"PL Sapflow":null,"JO Isotope":null,"VMSIsotope":null,"BAGGABLE":null,"PRUNEABLE":null,"AccessFrom":null,"species":"Live oak","dbh_cm":29.9,"tree_tag":667.0,"survey_id":63.0,"label":"Tree 667","record_status":"Status unrecorded","dbh_quality":"No estimate flag","source_file":"Maps/VMS Vicinity Tree and Injection Port Survey/2019-05-21 update All Trees VMS Area.shp","location_note":"Historical May 2019 inventory; positions retained as supplied. Blank status does not establish that a tree is alive today. ID and tree tag are different identifiers.","uid":"trees-63"},"geometry":{"type":"Point","coordinates":[-123.64407400012351,39.72877995199202]}},{"type":"Feature","properties":{"id":64.0,"Species bi":"UMCA","Species":"California bay","Circumfere":22.0,"DBH (cm)":7.0,"Basal area":0.004,"Other note":null,"STATUS":null,"Tree tag #":33.0,"Basal ar_1":0.004,"Sapflow":null,"RIGGED":null,"EB Sapflow":null,"WJHSapflow":null,"PL Sapflow":null,"JO Isotope":null,"VMSIsotope":null,"BAGGABLE":null,"PRUNEABLE":null,"AccessFrom":null,"species":"California bay","dbh_cm":7.0,"tree_tag":33.0,"survey_id":64.0,"label":"Tree 33","record_status":"Status unrecorded","dbh_quality":"No estimate flag","source_file":"Maps/VMS Vicinity Tree and Injection Port Survey/2019-05-21 update All Trees VMS Area.shp","location_note":"Historical May 2019 inventory; positions retained as supplied. Blank status does not establish that a tree is alive today. ID and tree tag are different identifiers.","uid":"trees-64"},"geometry":{"type":"Point","coordinates":[-123.64408100124648,39.72877991313028]}},{"type":"Feature","properties":{"id":65.0,"Species bi":"QU??","Species":"Live oak","Circumfere":95.0,"DBH (cm)":30.2,"Basal area":0.072,"Other note":null,"STATUS":null,"Tree tag #":668.0,"Basal ar_1":0.072,"Sapflow":null,"RIGGED":null,"EB Sapflow":null,"WJHSapflow":null,"PL Sapflow":null,"JO Isotope":null,"VMSIsotope":null,"BAGGABLE":null,"PRUNEABLE":null,"AccessFrom":null,"species":"Live oak","dbh_cm":30.2,"tree_tag":668.0,"survey_id":65.0,"label":"Tree 668","record_status":"Status unrecorded","dbh_quality":"No estimate flag","source_file":"Maps/VMS Vicinity Tree and Injection Port Survey/2019-05-21 update All Trees VMS Area.shp","location_note":"Historical May 2019 inventory; positions retained as supplied. Blank status does not establish that a tree is alive today. ID and tree tag are different identifiers.","uid":"trees-65"},"geometry":{"type":"Point","coordinates":[-123.64405334703896,39.72878500266546]}},{"type":"Feature","properties":{"id":66.0,"Species bi":"QU??","Species":"Live oak","Circumfere":124.0,"DBH (cm)":39.5,"Basal area":0.122,"Other note":null,"STATUS":null,"Tree tag #":666.0,"Basal ar_1":0.122,"Sapflow":null,"RIGGED":null,"EB Sapflow":null,"WJHSapflow":null,"PL Sapflow":null,"JO Isotope":null,"VMSIsotope":null,"BAGGABLE":null,"PRUNEABLE":null,"AccessFrom":null,"species":"Live oak","dbh_cm":39.5,"tree_tag":666.0,"survey_id":66.0,"label":"Tree 666","record_status":"Status unrecorded","dbh_quality":"No estimate flag","source_file":"Maps/VMS Vicinity Tree and Injection Port Survey/2019-05-21 update All Trees VMS Area.shp","location_note":"Historical May 2019 inventory; positions retained as supplied. Blank status does not establish that a tree is alive today. ID and tree tag are different identifiers.","uid":"trees-66"},"geometry":{"type":"Point","coordinates":[-123.64408331121207,39.72879917434969]}},{"type":"Feature","properties":{"id":67.0,"Species bi":"ARME","Species":"Pacific madrone","Circumfere":106.0,"DBH (cm)":33.7,"Basal area":0.089,"Other note":"ZULU sapflow (Eren)","STATUS":null,"Tree tag #":677.0,"Basal ar_1":0.089,"Sapflow":"ZULU sapflow","RIGGED":null,"EB Sapflow":"ZULU","WJHSapflow":null,"PL Sapflow":null,"JO Isotope":null,"VMSIsotope":null,"BAGGABLE":null,"PRUNEABLE":null,"AccessFrom":null,"species":"Pacific madrone","dbh_cm":33.7,"tree_tag":677.0,"survey_id":67.0,"label":"Tree 677","record_status":"Status unrecorded","dbh_quality":"No estimate flag","source_file":"Maps/VMS Vicinity Tree and Injection Port Survey/2019-05-21 update All Trees VMS Area.shp","location_note":"Historical May 2019 inventory; positions retained as supplied. Blank status does not establish that a tree is alive today. ID and tree tag are different identifiers.","uid":"trees-67"},"geometry":{"type":"Point","coordinates":[-123.64402046933395,39.72881762195279]}},{"type":"Feature","properties":{"id":68.0,"Species bi":"ARME","Species":"Pacific madrone","Circumfere":78.0,"DBH (cm)":24.8,"Basal area":0.048,"Other note":null,"STATUS":"dead","Tree tag #":null,"Basal ar_1":0.0,"Sapflow":null,"RIGGED":null,"EB Sapflow":null,"WJHSapflow":null,"PL Sapflow":null,"JO Isotope":null,"VMSIsotope":null,"BAGGABLE":null,"PRUNEABLE":null,"AccessFrom":null,"species":"Pacific madrone","dbh_cm":24.8,"tree_tag":null,"survey_id":68.0,"label":"VMS 68","record_status":"Recorded dead","dbh_quality":"No estimate flag","source_file":"Maps/VMS Vicinity Tree and Injection Port Survey/2019-05-21 update All Trees VMS Area.shp","location_note":"Historical May 2019 inventory; positions retained as supplied. Blank status does not establish that a tree is alive today. ID and tree tag are different identifiers.","uid":"trees-68"},"geometry":{"type":"Point","coordinates":[-123.64400616705335,39.72881817143236]}},{"type":"Feature","properties":{"id":69.0,"Species bi":"ARME","Species":"Pacific madrone","Circumfere":101.0,"DBH (cm)":32.1,"Basal area":0.081,"Other note":"YANKEE sapflow (Eren)","STATUS":null,"Tree tag #":29.0,"Basal ar_1":0.081,"Sapflow":"YANKEE sapflow","RIGGED":null,"EB Sapflow":"YANKEE","WJHSapflow":null,"PL Sapflow":"16","JO Isotope":null,"VMSIsotope":null,"BAGGABLE":null,"PRUNEABLE":null,"AccessFrom":null,"species":"Pacific madrone","dbh_cm":32.1,"tree_tag":29.0,"survey_id":69.0,"label":"Tree 29","record_status":"Status unrecorded","dbh_quality":"No estimate flag","source_file":"Maps/VMS Vicinity Tree and Injection Port Survey/2019-05-21 update All Trees VMS Area.shp","location_note":"Historical May 2019 inventory; positions retained as supplied. Blank status does not establish that a tree is alive today. ID and tree tag are different identifiers.","uid":"trees-69"},"geometry":{"type":"Point","coordinates":[-123.6439904651438,39.728831891438276]}},{"type":"Feature","properties":{"id":70.0,"Species bi":"QU??","Species":"Live oak","Circumfere":100.0,"DBH (cm)":31.8,"Basal area":0.08,"Other note":null,"STATUS":null,"Tree tag #":657.0,"Basal ar_1":0.08,"Sapflow":null,"RIGGED":null,"EB Sapflow":null,"WJHSapflow":null,"PL Sapflow":null,"JO Isotope":null,"VMSIsotope":null,"BAGGABLE":null,"PRUNEABLE":null,"AccessFrom":null,"species":"Live oak","dbh_cm":31.8,"tree_tag":657.0,"survey_id":70.0,"label":"Tree 657","record_status":"Status unrecorded","dbh_quality":"No estimate flag","source_file":"Maps/VMS Vicinity Tree and Injection Port Survey/2019-05-21 update All Trees VMS Area.shp","location_note":"Historical May 2019 inventory; positions retained as supplied. Blank status does not establish that a tree is alive today. ID and tree tag are different identifiers.","uid":"trees-70"},"geometry":{"type":"Point","coordinates":[-123.64405337041194,39.72882025992889]}},{"type":"Feature","properties":{"id":71.0,"Species bi":"QU??","Species":"Live oak","Circumfere":114.0,"DBH (cm)":36.3,"Basal area":0.103,"Other note":null,"STATUS":null,"Tree tag #":655.0,"Basal ar_1":0.103,"Sapflow":null,"RIGGED":null,"EB Sapflow":null,"WJHSapflow":null,"PL Sapflow":null,"JO Isotope":null,"VMSIsotope":null,"BAGGABLE":null,"PRUNEABLE":null,"AccessFrom":null,"species":"Live oak","dbh_cm":36.3,"tree_tag":655.0,"survey_id":71.0,"label":"Tree 655","record_status":"Status unrecorded","dbh_quality":"No estimate flag","source_file":"Maps/VMS Vicinity Tree and Injection Port Survey/2019-05-21 update All Trees VMS Area.shp","location_note":"Historical May 2019 inventory; positions retained as supplied. Blank status does not establish that a tree is alive today. ID and tree tag are different identifiers.","uid":"trees-71"},"geometry":{"type":"Point","coordinates":[-123.64408258595174,39.72881939261418]}},{"type":"Feature","properties":{"id":72.0,"Species bi":"QU??","Species":"Live oak","Circumfere":50.0,"DBH (cm)":15.9,"Basal area":0.02,"Other note":null,"STATUS":null,"Tree tag #":30.0,"Basal ar_1":0.02,"Sapflow":null,"RIGGED":null,"EB Sapflow":null,"WJHSapflow":null,"PL Sapflow":null,"JO Isotope":null,"VMSIsotope":null,"BAGGABLE":null,"PRUNEABLE":"TRUE","AccessFrom":null,"species":"Live oak","dbh_cm":15.9,"tree_tag":30.0,"survey_id":72.0,"label":"Tree 30","record_status":"Status unrecorded","dbh_quality":"No estimate flag","source_file":"Maps/VMS Vicinity Tree and Injection Port Survey/2019-05-21 update All Trees VMS Area.shp","location_note":"Historical May 2019 inventory; positions retained as supplied. Blank status does not establish that a tree is alive today. ID and tree tag are different identifiers.","uid":"trees-72"},"geometry":{"type":"Point","coordinates":[-123.64400933119566,39.72883108158159]}},{"type":"Feature","properties":{"id":73.0,"Species bi":"NODE","Species":"Tan oak","Circumfere":110.0,"DBH (cm)":35.0,"Basal area":0.096,"Other note":null,"STATUS":null,"Tree tag #":28.0,"Basal ar_1":0.096,"Sapflow":null,"RIGGED":null,"EB Sapflow":null,"WJHSapflow":null,"PL Sapflow":null,"JO Isotope":null,"VMSIsotope":null,"BAGGABLE":null,"PRUNEABLE":null,"AccessFrom":null,"species":"Tan oak","dbh_cm":35.0,"tree_tag":28.0,"survey_id":73.0,"label":"Tree 28","record_status":"Status unrecorded","dbh_quality":"No estimate flag","source_file":"Maps/VMS Vicinity Tree and Injection Port Survey/2019-05-21 update All Trees VMS Area.shp","location_note":"Historical May 2019 inventory; positions retained as supplied. Blank status does not establish that a tree is alive today. ID and tree tag are different identifiers.","uid":"trees-73"},"geometry":{"type":"Point","coordinates":[-123.64397417409792,39.72884773015529]}},{"type":"Feature","properties":{"id":74.0,"Species bi":"UMCA","Species":"California bay","Circumfere":35.0,"DBH (cm)":11.1,"Basal area":0.01,"Other note":"pink ribbon","STATUS":null,"Tree tag #":654.0,"Basal ar_1":0.01,"Sapflow":null,"RIGGED":null,"EB Sapflow":null,"WJHSapflow":null,"PL Sapflow":null,"JO Isotope":null,"VMSIsotope":null,"BAGGABLE":null,"PRUNEABLE":"TRUE","AccessFrom":null,"species":"California bay","dbh_cm":11.1,"tree_tag":654.0,"survey_id":74.0,"label":"Tree 654","record_status":"Status unrecorded","dbh_quality":"No estimate flag","source_file":"Maps/VMS Vicinity Tree and Injection Port Survey/2019-05-21 update All Trees VMS Area.shp","location_note":"Historical May 2019 inventory; positions retained as supplied. Blank status does not establish that a tree is alive today. ID and tree tag are different identifiers.","uid":"trees-74"},"geometry":{"type":"Point","coordinates":[-123.64395412540996,39.72885230735818]}},{"type":"Feature","properties":{"id":null,"Species bi":"PSME","Species":"Douglas fir","Circumfere":390.0,"DBH (cm)":124.0,"Basal area":null,"Other note":"Rigged","STATUS":null,"Tree tag #":656.0,"Basal ar_1":null,"Sapflow":null,"RIGGED":"TRUE","EB Sapflow":null,"WJHSapflow":null,"PL Sapflow":null,"JO Isotope":null,"VMSIsotope":null,"BAGGABLE":null,"PRUNEABLE":null,"AccessFrom":null,"species":"Douglas fir","dbh_cm":124.0,"tree_tag":656.0,"survey_id":null,"label":"Tree 656","record_status":"Status unrecorded","dbh_quality":"No estimate flag","source_file":"Maps/VMS Vicinity Tree and Injection Port Survey/2019-05-21 update All Trees VMS Area.shp","location_note":"Historical May 2019 inventory; positions retained as supplied. Blank status does not establish that a tree is alive today. ID and tree tag are different identifiers.","uid":"trees-75"},"geometry":{"type":"Point","coordinates":[-123.64410200548193,39.728885011041434]}},{"type":"Feature","properties":{"id":null,"Species bi":"PSME","Species":"Douglas fir","Circumfere":280.0,"DBH (cm)":89.0,"Basal area":null,"Other note":null,"STATUS":null,"Tree tag #":655.0,"Basal ar_1":null,"Sapflow":null,"RIGGED":null,"EB Sapflow":null,"WJHSapflow":null,"PL Sapflow":null,"JO Isotope":null,"VMSIsotope":null,"BAGGABLE":null,"PRUNEABLE":null,"AccessFrom":null,"species":"Douglas fir","dbh_cm":89.0,"tree_tag":655.0,"survey_id":null,"label":"Tree 655","record_status":"Status unrecorded","dbh_quality":"No estimate flag","source_file":"Maps/VMS Vicinity Tree and Injection Port Survey/2019-05-21 update All Trees VMS Area.shp","location_note":"Historical May 2019 inventory; positions retained as supplied. Blank status does not establish that a tree is alive today. ID and tree tag are different identifiers.","uid":"trees-76"},"geometry":{"type":"Point","coordinates":[-123.64409032803223,39.72886593237413]}},{"type":"Feature","properties":{"id":null,"Species bi":"QU??","Species":"Live oak","Circumfere":89.0,"DBH (cm)":28.0,"Basal area":null,"Other note":"Coring not advised","STATUS":null,"Tree tag #":660.0,"Basal ar_1":null,"Sapflow":null,"RIGGED":null,"EB Sapflow":null,"WJHSapflow":null,"PL Sapflow":null,"JO Isotope":null,"VMSIsotope":null,"BAGGABLE":null,"PRUNEABLE":null,"AccessFrom":null,"species":"Live oak","dbh_cm":28.0,"tree_tag":660.0,"survey_id":null,"label":"Tree 660","record_status":"Status unrecorded","dbh_quality":"No estimate flag","source_file":"Maps/VMS Vicinity Tree and Injection Port Survey/2019-05-21 update All Trees VMS Area.shp","location_note":"Historical May 2019 inventory; positions retained as supplied. Blank status does not establish that a tree is alive today. ID and tree tag are different identifiers.","uid":"trees-77"},"geometry":{"type":"Point","coordinates":[-123.64411717698317,39.72885832176936]}},{"type":"Feature","properties":{"id":null,"Species bi":"UMCA","Species":"California bay","Circumfere":null,"DBH (cm)":5.0,"Basal area":null,"Other note":null,"STATUS":null,"Tree tag #":658.0,"Basal ar_1":null,"Sapflow":null,"RIGGED":null,"EB Sapflow":null,"WJHSapflow":null,"PL Sapflow":null,"JO Isotope":null,"VMSIsotope":null,"BAGGABLE":"TRUE","PRUNEABLE":"TRUE","AccessFrom":null,"species":"California bay","dbh_cm":5.0,"tree_tag":658.0,"survey_id":null,"label":"Tree 658","record_status":"Status unrecorded","dbh_quality":"No estimate flag","source_file":"Maps/VMS Vicinity Tree and Injection Port Survey/2019-05-21 update All Trees VMS Area.shp","location_note":"Historical May 2019 inventory; positions retained as supplied. Blank status does not establish that a tree is alive today. ID and tree tag are different identifiers.","uid":"trees-78"},"geometry":{"type":"Point","coordinates":[-123.64406859943949,39.72883034406285]}},{"type":"Feature","properties":{"id":null,"Species bi":"QU??","Species":"Live oak","Circumfere":55.0,"DBH (cm)":17.5,"Basal area":null,"Other note":null,"STATUS":null,"Tree tag #":661.0,"Basal ar_1":null,"Sapflow":null,"RIGGED":null,"EB Sapflow":null,"WJHSapflow":null,"PL Sapflow":null,"JO Isotope":null,"VMSIsotope":null,"BAGGABLE":null,"PRUNEABLE":"TRUE","AccessFrom":null,"species":"Live oak","dbh_cm":17.5,"tree_tag":661.0,"survey_id":null,"label":"Tree 661","record_status":"Status unrecorded","dbh_quality":"No estimate flag","source_file":"Maps/VMS Vicinity Tree and Injection Port Survey/2019-05-21 update All Trees VMS Area.shp","location_note":"Historical May 2019 inventory; positions retained as supplied. Blank status does not establish that a tree is alive today. ID and tree tag are different identifiers.","uid":"trees-79"},"geometry":{"type":"Point","coordinates":[-123.64413060464457,39.728817741586525]}},{"type":"Feature","properties":{"id":null,"Species bi":"ARME","Species":"Pacific madrone","Circumfere":95.0,"DBH (cm)":30.2,"Basal area":null,"Other note":null,"STATUS":null,"Tree tag #":662.0,"Basal ar_1":null,"Sapflow":null,"RIGGED":null,"EB Sapflow":null,"WJHSapflow":null,"PL Sapflow":null,"JO Isotope":null,"VMSIsotope":null,"BAGGABLE":null,"PRUNEABLE":null,"AccessFrom":null,"species":"Pacific madrone","dbh_cm":30.2,"tree_tag":662.0,"survey_id":null,"label":"Tree 662","record_status":"Status unrecorded","dbh_quality":"No estimate flag","source_file":"Maps/VMS Vicinity Tree and Injection Port Survey/2019-05-21 update All Trees VMS Area.shp","location_note":"Historical May 2019 inventory; positions retained as supplied. Blank status does not establish that a tree is alive today. ID and tree tag are different identifiers.","uid":"trees-80"},"geometry":{"type":"Point","coordinates":[-123.64416989227094,39.72881166082574]}},{"type":"Feature","properties":{"id":null,"Species bi":"ARME","Species":"Pacific madrone","Circumfere":92.0,"DBH (cm)":29.0,"Basal area":null,"Other note":null,"STATUS":null,"Tree tag #":692.0,"Basal ar_1":null,"Sapflow":null,"RIGGED":null,"EB Sapflow":null,"WJHSapflow":null,"PL Sapflow":null,"JO Isotope":null,"VMSIsotope":null,"BAGGABLE":null,"PRUNEABLE":null,"AccessFrom":null,"species":"Pacific madrone","dbh_cm":29.0,"tree_tag":692.0,"survey_id":null,"label":"Tree 692","record_status":"Status unrecorded","dbh_quality":"No estimate flag","source_file":"Maps/VMS Vicinity Tree and Injection Port Survey/2019-05-21 update All Trees VMS Area.shp","location_note":"Historical May 2019 inventory; positions retained as supplied. Blank status does not establish that a tree is alive today. ID and tree tag are different identifiers.","uid":"trees-81"},"geometry":{"type":"Point","coordinates":[-123.64421337568291,39.72881141941589]}},{"type":"Feature","properties":{"id":null,"Species bi":"ARME","Species":"Pacific madrone","Circumfere":71.0,"DBH (cm)":23.0,"Basal area":null,"Other note":null,"STATUS":null,"Tree tag #":665.0,"Basal ar_1":null,"Sapflow":null,"RIGGED":null,"EB Sapflow":null,"WJHSapflow":null,"PL Sapflow":null,"JO Isotope":null,"VMSIsotope":null,"BAGGABLE":null,"PRUNEABLE":null,"AccessFrom":null,"species":"Pacific madrone","dbh_cm":23.0,"tree_tag":665.0,"survey_id":null,"label":"Tree 665","record_status":"Status unrecorded","dbh_quality":"No estimate flag","source_file":"Maps/VMS Vicinity Tree and Injection Port Survey/2019-05-21 update All Trees VMS Area.shp","location_note":"Historical May 2019 inventory; positions retained as supplied. Blank status does not establish that a tree is alive today. ID and tree tag are different identifiers.","uid":"trees-82"},"geometry":{"type":"Point","coordinates":[-123.64420999895775,39.72881943269815]}},{"type":"Feature","properties":{"id":null,"Species bi":"ARME","Species":"Pacific madrone","Circumfere":49.0,"DBH (cm)":16.0,"Basal area":null,"Other note":null,"STATUS":null,"Tree tag #":663.0,"Basal ar_1":null,"Sapflow":null,"RIGGED":null,"EB Sapflow":null,"WJHSapflow":null,"PL Sapflow":null,"JO Isotope":null,"VMSIsotope":null,"BAGGABLE":null,"PRUNEABLE":null,"AccessFrom":null,"species":"Pacific madrone","dbh_cm":16.0,"tree_tag":663.0,"survey_id":null,"label":"Tree 663","record_status":"Status unrecorded","dbh_quality":"No estimate flag","source_file":"Maps/VMS Vicinity Tree and Injection Port Survey/2019-05-21 update All Trees VMS Area.shp","location_note":"Historical May 2019 inventory; positions retained as supplied. Blank status does not establish that a tree is alive today. ID and tree tag are different identifiers.","uid":"trees-83"},"geometry":{"type":"Point","coordinates":[-123.6442196569832,39.72881884610808]}},{"type":"Feature","properties":{"id":null,"Species bi":"PSME","Species":"Douglas fir","Circumfere":235.0,"DBH (cm)":75.0,"Basal area":null,"Other note":"Rigged","STATUS":null,"Tree tag #":676.0,"Basal ar_1":null,"Sapflow":null,"RIGGED":"TRUE","EB Sapflow":null,"WJHSapflow":null,"PL Sapflow":null,"JO Isotope":null,"VMSIsotope":null,"BAGGABLE":null,"PRUNEABLE":null,"AccessFrom":null,"species":"Douglas fir","dbh_cm":75.0,"tree_tag":676.0,"survey_id":null,"label":"Tree 676","record_status":"Status unrecorded","dbh_quality":"No estimate flag","source_file":"Maps/VMS Vicinity Tree and Injection Port Survey/2019-05-21 update All Trees VMS Area.shp","location_note":"Historical May 2019 inventory; positions retained as supplied. Blank status does not establish that a tree is alive today. ID and tree tag are different identifiers.","uid":"trees-84"},"geometry":{"type":"Point","coordinates":[-123.64398310039721,39.728691713702275]}},{"type":"Feature","properties":{"id":null,"Species bi":"ARME","Species":"Pacific madrone","Circumfere":null,"DBH (cm)":34.0,"Basal area":null,"Other note":null,"STATUS":null,"Tree tag #":297.0,"Basal ar_1":null,"Sapflow":"Eren (Tango)","RIGGED":"TRUE","EB Sapflow":"TANGO","WJHSapflow":"297","PL Sapflow":"TRUE, id unknown/not reported","JO Isotope":null,"VMSIsotope":null,"BAGGABLE":null,"PRUNEABLE":null,"AccessFrom":null,"species":"Pacific madrone","dbh_cm":34.0,"tree_tag":297.0,"survey_id":null,"label":"Tree 297","record_status":"Status unrecorded","dbh_quality":"No estimate flag","source_file":"Maps/VMS Vicinity Tree and Injection Port Survey/2019-05-21 update All Trees VMS Area.shp","location_note":"Historical May 2019 inventory; positions retained as supplied. Blank status does not establish that a tree is alive today. ID and tree tag are different identifiers.","uid":"trees-85"},"geometry":{"type":"Point","coordinates":[-123.64400072694507,39.72867383257102]}},{"type":"Feature","properties":{"id":null,"Species bi":"PSME","Species":"Douglas fir","Circumfere":null,"DBH (cm)":108.0,"Basal area":null,"Other note":"Ursula","STATUS":null,"Tree tag #":41.0,"Basal ar_1":null,"Sapflow":null,"RIGGED":"TRUE","EB Sapflow":null,"WJHSapflow":"TRUE","PL Sapflow":"25","JO Isotope":null,"VMSIsotope":null,"BAGGABLE":null,"PRUNEABLE":null,"AccessFrom":null,"species":"Douglas fir","dbh_cm":108.0,"tree_tag":41.0,"survey_id":null,"label":"Tree 41","record_status":"Status unrecorded","dbh_quality":"No estimate flag","source_file":"Maps/VMS Vicinity Tree and Injection Port Survey/2019-05-21 update All Trees VMS Area.shp","location_note":"Historical May 2019 inventory; positions retained as supplied. Blank status does not establish that a tree is alive today. ID and tree tag are different identifiers.","uid":"trees-86"},"geometry":{"type":"Point","coordinates":[-123.64386207923322,39.72864529367173]}},{"type":"Feature","properties":{"id":null,"Species bi":"NODE","Species":"Tan oak","Circumfere":null,"DBH (cm)":20.0,"Basal area":null,"Other note":"DBH not verified","STATUS":null,"Tree tag #":639.0,"Basal ar_1":null,"Sapflow":null,"RIGGED":null,"EB Sapflow":null,"WJHSapflow":null,"PL Sapflow":null,"JO Isotope":null,"VMSIsotope":null,"BAGGABLE":null,"PRUNEABLE":null,"AccessFrom":null,"species":"Tan oak","dbh_cm":20.0,"tree_tag":639.0,"survey_id":null,"label":"Tree 639","record_status":"Status unrecorded","dbh_quality":"Estimated / unverified","source_file":"Maps/VMS Vicinity Tree and Injection Port Survey/2019-05-21 update All Trees VMS Area.shp","location_note":"Historical May 2019 inventory; positions retained as supplied. Blank status does not establish that a tree is alive today. ID and tree tag are different identifiers.","uid":"trees-87"},"geometry":{"type":"Point","coordinates":[-123.64374112799888,39.728678934354264]}},{"type":"Feature","properties":{"id":null,"Species bi":"ARME","Species":"Pacific madrone","Circumfere":null,"DBH (cm)":20.0,"Basal area":null,"Other note":"DBH guessed","STATUS":null,"Tree tag #":638.0,"Basal ar_1":null,"Sapflow":null,"RIGGED":null,"EB Sapflow":null,"WJHSapflow":null,"PL Sapflow":null,"JO Isotope":null,"VMSIsotope":null,"BAGGABLE":null,"PRUNEABLE":null,"AccessFrom":null,"species":"Pacific madrone","dbh_cm":20.0,"tree_tag":638.0,"survey_id":null,"label":"Tree 638","record_status":"Status unrecorded","dbh_quality":"Estimated / unverified","source_file":"Maps/VMS Vicinity Tree and Injection Port Survey/2019-05-21 update All Trees VMS Area.shp","location_note":"Historical May 2019 inventory; positions retained as supplied. Blank status does not establish that a tree is alive today. ID and tree tag are different identifiers.","uid":"trees-88"},"geometry":{"type":"Point","coordinates":[-123.64371469354649,39.72868028223166]}},{"type":"Feature","properties":{"id":null,"Species bi":"PSME","Species":"Douglas fir","Circumfere":null,"DBH (cm)":20.0,"Basal area":null,"Other note":"DBH guessed","STATUS":null,"Tree tag #":640.0,"Basal ar_1":null,"Sapflow":null,"RIGGED":null,"EB Sapflow":null,"WJHSapflow":null,"PL Sapflow":null,"JO Isotope":"D3I","VMSIsotope":"TRUE","BAGGABLE":null,"PRUNEABLE":null,"AccessFrom":null,"species":"Douglas fir","dbh_cm":20.0,"tree_tag":640.0,"survey_id":null,"label":"Tree 640","record_status":"Status unrecorded","dbh_quality":"Estimated / unverified","source_file":"Maps/VMS Vicinity Tree and Injection Port Survey/2019-05-21 update All Trees VMS Area.shp","location_note":"Historical May 2019 inventory; positions retained as supplied. Blank status does not establish that a tree is alive today. ID and tree tag are different identifiers.","uid":"trees-89"},"geometry":{"type":"Point","coordinates":[-123.64382276069705,39.72868436804338]}},{"type":"Feature","properties":{"id":null,"Species bi":"PSME","Species":"Douglas fir","Circumfere":null,"DBH (cm)":30.0,"Basal area":null,"Other note":"DBH guessed","STATUS":null,"Tree tag #":null,"Basal ar_1":null,"Sapflow":null,"RIGGED":null,"EB Sapflow":"VICTOR","WJHSapflow":null,"PL Sapflow":"TRUE, ID unknown/not reported","JO Isotope":null,"VMSIsotope":null,"BAGGABLE":null,"PRUNEABLE":null,"AccessFrom":null,"species":"Douglas fir","dbh_cm":30.0,"tree_tag":null,"survey_id":null,"label":"Untagged tree 90","record_status":"Status unrecorded","dbh_quality":"Estimated / unverified","source_file":"Maps/VMS Vicinity Tree and Injection Port Survey/2019-05-21 update All Trees VMS Area.shp","location_note":"Historical May 2019 inventory; positions retained as supplied. Blank status does not establish that a tree is alive today. ID and tree tag are different identifiers.","uid":"trees-90"},"geometry":{"type":"Point","coordinates":[-123.64382340026754,39.7286816257315]}},{"type":"Feature","properties":{"id":null,"Species bi":"PSME","Species":"Douglas fir","Circumfere":null,"DBH (cm)":20.0,"Basal area":null,"Other note":null,"STATUS":"DBH guessed","Tree tag #":39.0,"Basal ar_1":null,"Sapflow":null,"RIGGED":null,"EB Sapflow":null,"WJHSapflow":null,"PL Sapflow":"21","JO Isotope":"D3I","VMSIsotope":null,"BAGGABLE":null,"PRUNEABLE":null,"AccessFrom":null,"species":"Douglas fir","dbh_cm":20.0,"tree_tag":39.0,"survey_id":null,"label":"Tree 39","record_status":"Status unrecorded","dbh_quality":"Estimated / unverified","source_file":"Maps/VMS Vicinity Tree and Injection Port Survey/2019-05-21 update All Trees VMS Area.shp","location_note":"Historical May 2019 inventory; positions retained as supplied. Blank status does not establish that a tree is alive today. ID and tree tag are different identifiers.","uid":"trees-91"},"geometry":{"type":"Point","coordinates":[-123.6438238149825,39.72867854232182]}},{"type":"Feature","properties":{"id":null,"Species bi":"PSME","Species":"Douglas fir","Circumfere":null,"DBH (cm)":15.0,"Basal area":null,"Other note":null,"STATUS":"DBH guessed","Tree tag #":null,"Basal ar_1":null,"Sapflow":null,"RIGGED":null,"EB Sapflow":null,"WJHSapflow":null,"PL Sapflow":"23","JO Isotope":null,"VMSIsotope":null,"BAGGABLE":null,"PRUNEABLE":null,"AccessFrom":null,"species":"Douglas fir","dbh_cm":15.0,"tree_tag":null,"survey_id":null,"label":"Untagged tree 92","record_status":"Status unrecorded","dbh_quality":"Estimated / unverified","source_file":"Maps/VMS Vicinity Tree and Injection Port Survey/2019-05-21 update All Trees VMS Area.shp","location_note":"Historical May 2019 inventory; positions retained as supplied. Blank status does not establish that a tree is alive today. ID and tree tag are different identifiers.","uid":"trees-92"},"geometry":{"type":"Point","coordinates":[-123.6438204978258,39.72867941659084]}},{"type":"Feature","properties":{"id":null,"Species bi":"PSME","Species":"Douglas fir","Circumfere":null,"DBH (cm)":15.0,"Basal area":null,"Other note":null,"STATUS":"DBH guessed","Tree tag #":40.0,"Basal ar_1":null,"Sapflow":null,"RIGGED":null,"EB Sapflow":null,"WJHSapflow":null,"PL Sapflow":"22","JO Isotope":"D3B","VMSIsotope":null,"BAGGABLE":null,"PRUNEABLE":null,"AccessFrom":null,"species":"Douglas fir","dbh_cm":15.0,"tree_tag":40.0,"survey_id":null,"label":"Tree 40","record_status":"Status unrecorded","dbh_quality":"Estimated / unverified","source_file":"Maps/VMS Vicinity Tree and Injection Port Survey/2019-05-21 update All Trees VMS Area.shp","location_note":"Historical May 2019 inventory; positions retained as supplied. Blank status does not establish that a tree is alive today. ID and tree tag are different identifiers.","uid":"trees-93"},"geometry":{"type":"Point","coordinates":[-123.64382002584482,39.72867633810106]}},{"type":"Feature","properties":{"id":null,"Species bi":"ARME","Species":"Pacific madrone","Circumfere":null,"DBH (cm)":20.0,"Basal area":null,"Other note":null,"STATUS":"DBH guessed","Tree tag #":43.0,"Basal ar_1":null,"Sapflow":null,"RIGGED":null,"EB Sapflow":null,"WJHSapflow":null,"PL Sapflow":null,"JO Isotope":"Md3D","VMSIsotope":null,"BAGGABLE":null,"PRUNEABLE":null,"AccessFrom":null,"species":"Pacific madrone","dbh_cm":20.0,"tree_tag":43.0,"survey_id":null,"label":"Tree 43","record_status":"Status unrecorded","dbh_quality":"Estimated / unverified","source_file":"Maps/VMS Vicinity Tree and Injection Port Survey/2019-05-21 update All Trees VMS Area.shp","location_note":"Historical May 2019 inventory; positions retained as supplied. Blank status does not establish that a tree is alive today. ID and tree tag are different identifiers.","uid":"trees-94"},"geometry":{"type":"Point","coordinates":[-123.64394159123039,39.72866128501761]}},{"type":"Feature","properties":{"id":null,"Species bi":"ARME","Species":"Pacific madrone","Circumfere":null,"DBH (cm)":25.0,"Basal area":null,"Other note":"DBH guessed","STATUS":"too many poked holes already, but healthy!","Tree tag #":42.0,"Basal ar_1":null,"Sapflow":null,"RIGGED":null,"EB Sapflow":null,"WJHSapflow":null,"PL Sapflow":null,"JO Isotope":"Md3A","VMSIsotope":"TRUE","BAGGABLE":null,"PRUNEABLE":null,"AccessFrom":null,"species":"Pacific madrone","dbh_cm":25.0,"tree_tag":42.0,"survey_id":null,"label":"Tree 42","record_status":"Status unrecorded","dbh_quality":"Estimated / unverified","source_file":"Maps/VMS Vicinity Tree and Injection Port Survey/2019-05-21 update All Trees VMS Area.shp","location_note":"Historical May 2019 inventory; positions retained as supplied. Blank status does not establish that a tree is alive today. ID and tree tag are different identifiers.","uid":"trees-95"},"geometry":{"type":"Point","coordinates":[-123.64391935701393,39.728654219153334]}}]}