{"type":"FeatureCollection","features":[{"type":"Feature","properties":{"uid":"vms-A","label":"VMS sleeve A","sleeve":"A","role":"TDT moisture/temperature and matrix-water sampling","color":"#cfacff","inclination_deg":55.0,"inclination_reference":"Below horizontal, explicitly documented in ERCZO Annual Report 2016, p. 3 (35 degrees from vertical)","azimuth_grid_deg":263.21,"display_downhole_length_m":20.4216,"vertical_drop_m":16.7284,"length_status":"67 ft sampled drilling extent in the installation slides; the annual report gives 19 m holes. Source lengths differ; true sleeve toe is not independently surveyed.","collar_utm_e_n":[444819.7086084033,4397855.302165177],"collar_lidar_elevation_m":482.5888977050781,"trajectory_utm_e_n_z":[[444819.7086,4397855.3022,482.5889],[444808.0774,4397853.9173,465.8605]],"ports":[{"label":"A1","kind":"matrix water","top_depth_m":1.9,"bottom_depth_m":2.1,"start_utm_e_n_z":[444818.3875,4397855.1449,480.6889],"end_utm_e_n_z":[444818.2485,4397855.1283,480.4889]},{"label":"A2","kind":"matrix water","top_depth_m":3.5,"bottom_depth_m":3.7,"start_utm_e_n_z":[444817.2751,4397855.0124,479.0889],"end_utm_e_n_z":[444817.136,4397854.9959,478.8889]},{"label":"A3","kind":"matrix water","top_depth_m":5.1,"bottom_depth_m":5.3,"start_utm_e_n_z":[444816.1626,4397854.88,477.4889],"end_utm_e_n_z":[444816.0235,4397854.8634,477.2889]},{"label":"A4","kind":"matrix water","top_depth_m":6.8,"bottom_depth_m":7.0,"start_utm_e_n_z":[444814.9806,4397854.7392,475.7889],"end_utm_e_n_z":[444814.8415,4397854.7227,475.5889]},{"label":"A5","kind":"matrix water","top_depth_m":8.4,"bottom_depth_m":8.6,"start_utm_e_n_z":[444813.8681,4397854.6068,474.1889],"end_utm_e_n_z":[444813.7291,4397854.5902,473.9889]},{"label":"A6","kind":"matrix water","top_depth_m":10.1,"bottom_depth_m":10.3,"start_utm_e_n_z":[444812.6861,4397854.466,472.4889],"end_utm_e_n_z":[444812.5471,4397854.4495,472.2889]},{"label":"A7","kind":"matrix water","top_depth_m":11.8,"bottom_depth_m":12.0,"start_utm_e_n_z":[444811.5041,4397854.3253,470.7889],"end_utm_e_n_z":[444811.365,4397854.3088,470.5889]},{"label":"A8","kind":"matrix water","top_depth_m":13.2,"bottom_depth_m":13.4,"start_utm_e_n_z":[444810.5307,4397854.2094,469.3889],"end_utm_e_n_z":[444810.3916,4397854.1929,469.1889]},{"label":"A9","kind":"matrix water","top_depth_m":14.8,"bottom_depth_m":15.0,"start_utm_e_n_z":[444809.4182,4397854.077,467.7889],"end_utm_e_n_z":[444809.2792,4397854.0604,467.5889]},{"label":"A10","kind":"matrix water","top_depth_m":16.4,"bottom_depth_m":16.6,"start_utm_e_n_z":[444808.3057,4397853.9445,466.1889],"end_utm_e_n_z":[444808.1667,4397853.9279,465.9889]}],"plan_fit_rmse_m":0.30844916540727263,"survey_control_ids":[46,45,44,43,42,41],"placement":"Approximate reconstruction from labeled surface survey marks; collars and bearing inferred","location_note":"Parallel straight sleeves fitted to survey port marks interpreted as plan projections of port interval midpoints. Collar elevations use LiDAR ground. Angle is documented relative to horizontal in ERCZO Annual Report 2016, p. 3; no downhole deviation survey available. Depth intervals are displayed relative to collar ground.","source_file":"Rempe VMS Update, December 2016, slides 39\u201340; ERCZO Annual Report 2016 p. 3; total-station points_offsets.xlsx; Lapides et al. 2025 \u00a72.3.1; Tune et al. 2020 \u00a72.2","angle_source_url":"https://czo-archive.criticalzone.org/images/national/associated-files/Eel/ERCZO_Annual_Report_2016.pdf#page=3","source_url":"https://doi.org/10.1029/2025WR040778"},"geometry":{"type":"LineString","coordinates":[[-123.64390394962206,39.728800284709656],[-123.64403955004992,39.728787054625904]]}},{"type":"Feature","properties":{"uid":"vms-B","label":"VMS sleeve B","sleeve":"B","role":"Freely draining water and gas sampling","color":"#ff91c4","inclination_deg":55.0,"inclination_reference":"Below horizontal, explicitly documented in ERCZO Annual Report 2016, p. 3 (35 degrees from vertical)","azimuth_grid_deg":263.21,"display_downhole_length_m":20.4216,"vertical_drop_m":16.7284,"length_status":"67 ft sampled drilling extent in the installation slides; the annual report gives 19 m holes. Source lengths differ; true sleeve toe is not independently surveyed.","collar_utm_e_n":[444818.715600503,4397856.651187895],"collar_lidar_elevation_m":482.0528869628906,"trajectory_utm_e_n_z":[[444818.7156,4397856.6512,482.0529],[444807.0844,4397855.2663,465.3245]],"ports":[{"label":"B1","kind":"freely draining water","top_depth_m":0.2,"bottom_depth_m":1.7,"start_utm_e_n_z":[444818.5765,4397856.6346,481.8529],"end_utm_e_n_z":[444817.5336,4397856.5105,480.3529]},{"label":"B2","kind":"freely draining water","top_depth_m":1.9,"bottom_depth_m":3.2,"start_utm_e_n_z":[444817.3945,4397856.4939,480.1529],"end_utm_e_n_z":[444816.4907,4397856.3863,478.8529]},{"label":"B3","kind":"freely draining water","top_depth_m":3.4,"bottom_depth_m":4.7,"start_utm_e_n_z":[444816.3516,4397856.3697,478.6529],"end_utm_e_n_z":[444815.4477,4397856.2621,477.3529]},{"label":"B4","kind":"freely draining water","top_depth_m":5.0,"bottom_depth_m":6.4,"start_utm_e_n_z":[444815.2391,4397856.2373,477.0529],"end_utm_e_n_z":[444814.2657,4397856.1214,475.6529]},{"label":"B5","kind":"freely draining water","top_depth_m":6.6,"bottom_depth_m":7.9,"start_utm_e_n_z":[444814.1266,4397856.1048,475.4529],"end_utm_e_n_z":[444813.2228,4397855.9972,474.1529]},{"label":"B6","kind":"freely draining water","top_depth_m":8.2,"bottom_depth_m":9.5,"start_utm_e_n_z":[444813.0142,4397855.9724,473.8529],"end_utm_e_n_z":[444812.1103,4397855.8647,472.5529]},{"label":"B7","kind":"freely draining water","top_depth_m":9.8,"bottom_depth_m":11.0,"start_utm_e_n_z":[444811.9017,4397855.8399,472.2529],"end_utm_e_n_z":[444811.0673,4397855.7406,471.0529]},{"label":"B8","kind":"freely draining water","top_depth_m":11.2,"bottom_depth_m":12.4,"start_utm_e_n_z":[444810.9283,4397855.724,470.8529],"end_utm_e_n_z":[444810.0939,4397855.6247,469.6529]},{"label":"B9","kind":"freely draining water","top_depth_m":12.6,"bottom_depth_m":13.8,"start_utm_e_n_z":[444809.9549,4397855.6081,469.4529],"end_utm_e_n_z":[444809.1205,4397855.5088,468.2529]},{"label":"B10","kind":"freely draining water","top_depth_m":14.1,"bottom_depth_m":15.6,"start_utm_e_n_z":[444808.9119,4397855.4839,467.9529],"end_utm_e_n_z":[444807.869,4397855.3598,466.4529]},{"label":"G1","kind":"gas","top_depth_m":0.2,"bottom_depth_m":1.4,"start_utm_e_n_z":[444818.5765,4397856.6346,481.8529],"end_utm_e_n_z":[444817.7422,4397856.5353,480.6529]},{"label":"G2","kind":"gas","top_depth_m":1.9,"bottom_depth_m":3.0,"start_utm_e_n_z":[444817.3945,4397856.4939,480.1529],"end_utm_e_n_z":[444816.6297,4397856.4028,479.0529]},{"label":"G3","kind":"gas","top_depth_m":3.4,"bottom_depth_m":4.5,"start_utm_e_n_z":[444816.3516,4397856.3697,478.6529],"end_utm_e_n_z":[444815.5868,4397856.2787,477.5529]},{"label":"G4","kind":"gas","top_depth_m":5.0,"bottom_depth_m":6.1,"start_utm_e_n_z":[444815.2391,4397856.2373,477.0529],"end_utm_e_n_z":[444814.4743,4397856.1462,475.9529]},{"label":"G5","kind":"gas","top_depth_m":6.6,"bottom_depth_m":7.7,"start_utm_e_n_z":[444814.1266,4397856.1048,475.4529],"end_utm_e_n_z":[444813.3618,4397856.0138,474.3529]},{"label":"G6","kind":"gas","top_depth_m":8.2,"bottom_depth_m":9.3,"start_utm_e_n_z":[444813.0142,4397855.9724,473.8529],"end_utm_e_n_z":[444812.2493,4397855.8813,472.7529]},{"label":"G7","kind":"gas","top_depth_m":9.8,"bottom_depth_m":10.8,"start_utm_e_n_z":[444811.9017,4397855.8399,472.2529],"end_utm_e_n_z":[444811.2064,4397855.7571,471.2529]},{"label":"G8","kind":"gas","top_depth_m":11.2,"bottom_depth_m":12.2,"start_utm_e_n_z":[444810.9283,4397855.724,470.8529],"end_utm_e_n_z":[444810.233,4397855.6412,469.8529]},{"label":"G9","kind":"gas","top_depth_m":12.6,"bottom_depth_m":13.7,"start_utm_e_n_z":[444809.9549,4397855.6081,469.4529],"end_utm_e_n_z":[444809.19,4397855.517,468.3529]},{"label":"G10","kind":"gas","top_depth_m":14.1,"bottom_depth_m":15.3,"start_utm_e_n_z":[444808.9119,4397855.4839,467.9529],"end_utm_e_n_z":[444808.0776,4397855.3846,466.7529]}],"plan_fit_rmse_m":0.40035641359331137,"survey_control_ids":[49,50,51,52],"placement":"Approximate reconstruction from labeled surface survey marks; collars and bearing inferred","location_note":"Parallel straight sleeves fitted to survey port marks interpreted as plan projections of port interval midpoints. Collar elevations use LiDAR ground. Angle is documented relative to horizontal in ERCZO Annual Report 2016, p. 3; no downhole deviation survey available. Depth intervals are displayed relative to collar ground.","source_file":"Rempe VMS Update, December 2016, slides 39\u201340; ERCZO Annual Report 2016 p. 3; total-station points_offsets.xlsx; Lapides et al. 2025 \u00a72.3.1; Tune et al. 2020 \u00a72.2","angle_source_url":"https://czo-archive.criticalzone.org/images/national/associated-files/Eel/ERCZO_Annual_Report_2016.pdf#page=3","source_url":"https://doi.org/10.1029/2025WR040778"},"geometry":{"type":"LineString","coordinates":[[-123.64391564931958,39.72881237453886],[-123.64405124976874,39.72879914444129]]}}]}