{"type":"FeatureCollection","features":[{"type":"Feature","properties":{"id":1,"name":"Boundary of mapped area","area (m2)":589,"label":"VMS survey footprint 1","source_file":"Maps/VMS Vicinity Tree and Injection Port Survey/BoundaryOfMappedArea.shp","location_note":"Historical source geometry retained; no new georeferencing control.","uid":"vms_extent-1"},"geometry":{"type":"Polygon","coordinates":[[[-123.64408841667165,39.72870931474026],[-123.64408978886254,39.7288569022508],[-123.64367138611084,39.72885922400616],[-123.64367001481507,39.72871163648306],[-123.64408841667165,39.72870931474026]]]}}]}