{"type":"FeatureCollection","features":[{"type":"Feature","properties":{"id":1,"Name":"VMS Platform","label":"VMS platform 1","source_file":"Maps/VMS Vicinity Tree and Injection Port Survey/VMS Platform.shp","location_note":"Historical source geometry retained; no new georeferencing control.","uid":"vms_platform-1"},"geometry":{"type":"Polygon","coordinates":[[[-123.64383625447088,39.72879976476221],[-123.64374394227366,39.728812120578155],[-123.64373619868937,39.728783009315485],[-123.64382734321914,39.728768426306885],[-123.64383625447088,39.72879976476221]]]}}]}