{"type":"FeatureCollection","features":[{"type":"Feature","properties":{"id":1,"name":"Trail","label":"VMS trail 1","source_file":"Maps/VMS Vicinity Tree and Injection Port Survey/Trail.shp","location_note":"Historical source geometry retained; no new georeferencing control.","uid":"vms_trail-1"},"geometry":{"type":"LineString","coordinates":[[-123.64367346567985,39.72885856405001],[-123.64373978980602,39.72884301175799],[-123.64380351330058,39.728843872958514],[-123.64384433029473,39.72883453586958],[-123.64384741166278,39.72882753396946],[-123.64388779866366,39.728814251319506],[-123.6439309386436,39.72880095337783],[-123.64394581008106,39.72879297498406],[-123.64395534964851,39.728786363707044],[-123.64397058825146,39.72877732035299],[-123.64400728762719,39.728763783518616],[-123.64398542830938,39.72873930618809],[-123.64394355666235,39.728719798908976],[-123.64393134226115,39.72871743719724],[-123.64391949856433,39.728712643930564]]}},{"type":"Feature","properties":{"id":2,"name":null,"label":"VMS trail 2","source_file":"Maps/VMS Vicinity Tree and Injection Port Survey/Trail.shp","location_note":"Historical source geometry retained; no new georeferencing control.","uid":"vms_trail-2"},"geometry":{"type":"LineString","coordinates":[[-123.64384701555534,39.728827232480334],[-123.64381927393187,39.728804609880605]]}}]}