{"type":"FeatureCollection","features":[{"type":"Feature","properties":{"X":444794.04968,"Y":4397925.53142,"Z":399.091651134,"Code":"Well","Location":"Well 1","wellnum":1,"Latitude":39.7294287527,"Longitude":-123.644206966,"Depth":0.0,"label":"Well 1","survey_elevation_m":399.091651134,"uid":"well-1","lidar_2014_elevation_m":428.8266296386719,"lidar_minus_survey_m":29.734978504671858,"total_depth_m":9.5,"casing_diameter_in":2.0,"year_drilled":2007.0,"depth_source":"Rempe (2016), Table 3.1, printed p. 37 (PDF p. 53)","depth_display_note":"Vertical total-depth segment below LiDAR ground; shaft width enlarged for visibility. Historical 2016 construction record, not current water depth.","source_file":"Maps/Rivendell GIS/Rivendell_Wells.shp","location_note":"Original surveyed XYZ, NAD83 / UTM 10N. Absolute horizontal accuracy not independently verified; vertical references differ from LiDAR."},"geometry":{"type":"Point","coordinates":[-123.6442092299628,39.72943135890071]}},{"type":"Feature","properties":{"X":444809.362059,"Y":4397849.8051,"Z":455.102193013,"Code":"Well","Location":"Well 10","wellnum":10,"Latitude":39.7287474761,"Longitude":-123.644021946,"Depth":0.0,"label":"Well 10","survey_elevation_m":455.102193013,"uid":"well-10","lidar_2014_elevation_m":484.9009704589844,"lidar_minus_survey_m":29.7987774459844,"total_depth_m":27.4,"casing_diameter_in":2.0,"year_drilled":2007.0,"depth_source":"Rempe (2016), Table 3.1, printed p. 37 (PDF p. 53)","depth_display_note":"Vertical total-depth segment below LiDAR ground; shaft width enlarged for visibility. Historical 2016 construction record, not current water depth.","source_file":"Maps/Rivendell GIS/Rivendell_Wells.shp","location_note":"Original surveyed XYZ, NAD83 / UTM 10N. Absolute horizontal accuracy not independently verified; vertical references differ from LiDAR."},"geometry":{"type":"Point","coordinates":[-123.64402421595679,39.728750088456536]}},{"type":"Feature","properties":{"X":444796.640209,"Y":4397894.62234,"Z":424.04762347,"Code":"Well","Location":"Well 2","wellnum":2,"Latitude":39.7291504403,"Longitude":-123.644174147,"Depth":0.0,"label":"Well 2","survey_elevation_m":424.04762347,"uid":"well-2","lidar_2014_elevation_m":453.1747131347656,"lidar_minus_survey_m":29.127089664765606,"total_depth_m":12.2,"casing_diameter_in":2.0,"year_drilled":2007.0,"depth_source":"Rempe (2016), Table 3.1, printed p. 37 (PDF p. 53)","depth_display_note":"Vertical total-depth segment below LiDAR ground; shaft width enlarged for visibility. Historical 2016 construction record, not current water depth.","source_file":"Maps/Rivendell GIS/Rivendell_Wells.shp","location_note":"Original surveyed XYZ, NAD83 / UTM 10N. Absolute horizontal accuracy not independently verified; vertical references differ from LiDAR."},"geometry":{"type":"Point","coordinates":[-123.64417641304469,39.72915304894753]}},{"type":"Feature","properties":{"X":444808.61706,"Y":4397892.43246,"Z":425.67209015,"Code":"Well","Location":"Well 3","wellnum":3,"Latitude":39.7291314856,"Longitude":-123.644034212,"Depth":0.0,"label":"Well 3","survey_elevation_m":425.67209015,"uid":"well-3","lidar_2014_elevation_m":455.9968566894531,"lidar_minus_survey_m":30.32476653945315,"total_depth_m":14.4,"casing_diameter_in":2.0,"year_drilled":2007.0,"depth_source":"Rempe (2016), Table 3.1, printed p. 37 (PDF p. 53)","depth_display_note":"Vertical total-depth segment below LiDAR ground; shaft width enlarged for visibility. Historical 2016 construction record, not current water depth.","source_file":"Maps/Rivendell GIS/Rivendell_Wells.shp","location_note":"Original surveyed XYZ, NAD83 / UTM 10N. Absolute horizontal accuracy not independently verified; vertical references differ from LiDAR."},"geometry":{"type":"Point","coordinates":[-123.6440364792816,39.729134094771055]}},{"type":"Feature","properties":{"X":444798.092683,"Y":4397874.51467,"Z":438.643132354,"Code":"Well","Location":"Well 5","wellnum":5,"Latitude":39.7289693712,"Longitude":-123.644155513,"Depth":0.0,"label":"Well 5","survey_elevation_m":438.643132354,"uid":"well-5","lidar_2014_elevation_m":468.71630859375,"lidar_minus_survey_m":30.073176239750012,"total_depth_m":25.3,"casing_diameter_in":2.0,"year_drilled":2007.0,"depth_source":"Rempe (2016), Table 3.1, printed p. 37 (PDF p. 53)","depth_display_note":"Vertical total-depth segment below LiDAR ground; shaft width enlarged for visibility. Historical 2016 construction record, not current water depth.","source_file":"Maps/Rivendell GIS/Rivendell_Wells.shp","location_note":"Original surveyed XYZ, NAD83 / UTM 10N. Absolute horizontal accuracy not independently verified; vertical references differ from LiDAR."},"geometry":{"type":"Point","coordinates":[-123.64415778050038,39.728971981383786]}},{"type":"Feature","properties":{"X":444811.066855,"Y":4397871.09777,"Z":441.59553112,"Code":"Well","Location":"Well 6","wellnum":6,"Latitude":39.728939426,"Longitude":-123.644003838,"Depth":0.0,"label":"Well 6","survey_elevation_m":441.59553112,"uid":"well-6","lidar_2014_elevation_m":471.72650146484375,"lidar_minus_survey_m":30.130970344843774,"total_depth_m":19.9,"casing_diameter_in":2.0,"year_drilled":2007.0,"depth_source":"Rempe (2016), Table 3.1, printed p. 37 (PDF p. 53)","depth_display_note":"Vertical total-depth segment below LiDAR ground; shaft width enlarged for visibility. Historical 2016 construction record, not current water depth.","source_file":"Maps/Rivendell GIS/Rivendell_Wells.shp","location_note":"Original surveyed XYZ, NAD83 / UTM 10N. Absolute horizontal accuracy not independently verified; vertical references differ from LiDAR."},"geometry":{"type":"Point","coordinates":[-123.64400610725707,39.72894203681966]}},{"type":"Feature","properties":{"X":444826.574987,"Y":4397874.17391,"Z":444.282094366,"Code":"Well","Location":"Well 7","wellnum":7,"Latitude":39.7289681447,"Longitude":-123.643823141,"Depth":0.0,"label":"Well 7","survey_elevation_m":444.282094366,"uid":"well-7","lidar_2014_elevation_m":474.6919250488281,"lidar_minus_survey_m":30.4098306828281,"total_depth_m":19.8,"casing_diameter_in":2.0,"year_drilled":2007.0,"depth_source":"Rempe (2016), Table 3.1, printed p. 37 (PDF p. 53)","depth_display_note":"Vertical total-depth segment below LiDAR ground; shaft width enlarged for visibility. Historical 2016 construction record, not current water depth.","source_file":"Maps/Rivendell GIS/Rivendell_Wells.shp","location_note":"Original surveyed XYZ, NAD83 / UTM 10N. Absolute horizontal accuracy not independently verified; vertical references differ from LiDAR."},"geometry":{"type":"Point","coordinates":[-123.64382541074562,39.72897075578108]}},{"type":"Feature","properties":{"X":444781.231109,"Y":4397917.82503,"Z":400.083543637,"Code":"Well","Location":"Well 11","wellnum":11,"Latitude":39.7293584906,"Longitude":-123.644355893,"Depth":0.0,"label":"Well 11","survey_elevation_m":400.083543637,"uid":"well-11","lidar_2014_elevation_m":430.3329162597656,"lidar_minus_survey_m":30.249372622765634,"total_depth_m":null,"casing_diameter_in":null,"year_drilled":null,"depth_source":"Total depth unavailable in Rempe (2016) Table 3.1; no borehole rendered","depth_display_note":"Vertical total-depth segment below LiDAR ground; shaft width enlarged for visibility. Historical 2016 construction record, not current water depth.","source_file":"Maps/Rivendell GIS/Rivendell_Wells.shp","location_note":"Original surveyed XYZ, NAD83 / UTM 10N. Absolute horizontal accuracy not independently verified; vertical references differ from LiDAR."},"geometry":{"type":"Point","coordinates":[-123.6443581565785,39.72936109701226]}},{"type":"Feature","properties":{"X":444787.48139,"Y":4397921.24984,"Z":399.90190383,"Code":"Well","Location":"Well 12","wellnum":12,"Latitude":39.7293897518,"Longitude":-123.644283249,"Depth":0.0,"label":"Well 12","survey_elevation_m":399.90190383,"uid":"well-12","lidar_2014_elevation_m":429.56640625,"lidar_minus_survey_m":29.66450242000002,"total_depth_m":7.21,"casing_diameter_in":2.0,"year_drilled":2010.0,"depth_source":"Rempe (2016), Table 3.1, printed p. 37 (PDF p. 53)","depth_display_note":"Vertical total-depth segment below LiDAR ground; shaft width enlarged for visibility. Historical 2016 construction record, not current water depth.","source_file":"Maps/Rivendell GIS/Rivendell_Wells.shp","location_note":"Original surveyed XYZ, NAD83 / UTM 10N. Absolute horizontal accuracy not independently verified; vertical references differ from LiDAR."},"geometry":{"type":"Point","coordinates":[-123.6442855127461,39.72939235809735]}},{"type":"Feature","properties":{"X":444787.823871,"Y":4397890.76901,"Z":424.909218504,"Code":"Well","Location":"Well 13","wellnum":13,"Latitude":39.7291151523,"Longitude":-123.644276696,"Depth":0.0,"label":"Well 13","survey_elevation_m":424.909218504,"uid":"well-13","lidar_2014_elevation_m":454.8270263671875,"lidar_minus_survey_m":29.917807863187477,"total_depth_m":18.44,"casing_diameter_in":2.0,"year_drilled":2010.0,"depth_source":"Rempe (2016), Table 3.1, printed p. 37 (PDF p. 53)","depth_display_note":"Vertical total-depth segment below LiDAR ground; shaft width enlarged for visibility. Historical 2016 construction record, not current water depth.","source_file":"Maps/Rivendell GIS/Rivendell_Wells.shp","location_note":"Original surveyed XYZ, NAD83 / UTM 10N. Absolute horizontal accuracy not independently verified; vertical references differ from LiDAR."},"geometry":{"type":"Point","coordinates":[-123.64427896246522,39.72911776093172]}},{"type":"Feature","properties":{"X":444781.316729,"Y":4397877.28382,"Z":433.970685444,"Code":"Well","Location":"Well 14","wellnum":14,"Latitude":39.728993234,"Longitude":-123.644351493,"Depth":0.0,"label":"Well 14","survey_elevation_m":433.970685444,"uid":"well-14","lidar_2014_elevation_m":464.4250793457031,"lidar_minus_survey_m":30.4543939017031,"total_depth_m":32.92,"casing_diameter_in":3.0,"year_drilled":2010.0,"depth_source":"Rempe (2016), Table 3.1, printed p. 37 (PDF p. 53)","depth_display_note":"Vertical total-depth segment below LiDAR ground; shaft width enlarged for visibility. Historical 2016 construction record, not current water depth.","source_file":"Maps/Rivendell GIS/Rivendell_Wells.shp","location_note":"Original surveyed XYZ, NAD83 / UTM 10N. Absolute horizontal accuracy not independently verified; vertical references differ from LiDAR."},"geometry":{"type":"Point","coordinates":[-123.64435376008034,39.72899584339089]}},{"type":"Feature","properties":{"X":444818.732794,"Y":4397808.87321,"Z":468.077160237,"Code":"Well","Location":"Well 15","wellnum":15,"Latitude":39.7283793004,"Longitude":-123.643909174,"Depth":0.0,"label":"Well 15","survey_elevation_m":468.077160237,"uid":"well-15","lidar_2014_elevation_m":498.33050537109375,"lidar_minus_survey_m":30.253345134093763,"total_depth_m":33.22,"casing_diameter_in":3.0,"year_drilled":2010.0,"depth_source":"Rempe (2016), Table 3.1, printed p. 37 (PDF p. 53)","depth_display_note":"Vertical total-depth segment below LiDAR ground; shaft width enlarged for visibility. Historical 2016 construction record, not current water depth.","source_file":"Maps/Rivendell GIS/Rivendell_Wells.shp","location_note":"Original surveyed XYZ, NAD83 / UTM 10N. Absolute horizontal accuracy not independently verified; vertical references differ from LiDAR."},"geometry":{"type":"Point","coordinates":[-123.64391144763677,39.728381916144734]}},{"type":"Feature","properties":{"X":444830.034949,"Y":4397771.85036,"Z":454.977834381,"Code":"Well","Location":"Well 16","wellnum":16,"Latitude":39.7280464686,"Longitude":-123.643774195,"Depth":0.0,"label":"Well 16","survey_elevation_m":454.977834381,"uid":"well-16","lidar_2014_elevation_m":485.736328125,"lidar_minus_survey_m":30.75849374400002,"total_depth_m":34.29,"casing_diameter_in":3.0,"year_drilled":2010.0,"depth_source":"Rempe (2016), Table 3.1, printed p. 37 (PDF p. 53)","depth_display_note":"Vertical total-depth segment below LiDAR ground; shaft width enlarged for visibility. Historical 2016 construction record, not current water depth.","source_file":"Maps/Rivendell GIS/Rivendell_Wells.shp","location_note":"Original surveyed XYZ, NAD83 / UTM 10N. Absolute horizontal accuracy not independently verified; vertical references differ from LiDAR."},"geometry":{"type":"Point","coordinates":[-123.64377647167335,39.7280490874976]}}]}